FDPP 122200Z AUTO 10085G107KT //// // ////// M07/M24 Q1024
ROYN 122200Z AUTO 30038G50KT 2900 -RA BR OVC016 27/26 Q0998
MMHO 122140Z 25005KT 10SM SCT030 37/21 A2986 RMK 8/100 HZY
SBBW 122100Z 06006KT 9999 SCT030 BKN090 36/17 Q1009
EDDF 122150Z AUTO 36004KT CAVOK 15/12 Q1013 NOSIG
KJFK 122151Z 15004KT 10SM FEW032 FEW050 SCT250 25/20 A2979 RMK AO2 SLP086 T02500200
KLAX 122153Z 26015KT 10SM FEW100 FEW150 28/20 A2991 RMK AO2 SLP126 T02780200 $
NGTA 122200Z 09007KT 9999 FEW020 30/24 Q1012
KFHU 122205Z 22021G27KT 6SM TSRA BKN065 OVC110 21/16 A3009 RMK RAB03 TSE05 SLP135
ROYN 122215Z AUTO 30038G48KT 2800 -RA BR BKN016 BKN070 BKN080 27/26 Q0997 RMK A2947
USSS 122200Z VRB01MPS 0250 0050E R26R/0250D PRFG FEW003 02/02 Q1024 R26R/010060 R26L/010060 NOSIG RMK QFE747/0996
LFBD 122200Z AUTO 20017G29KT 9999 -RA ///CB 23/19 Q1011 TEMPO 27015G30KT -TSRA
ROYN 122215Z AUTO 30038G48KT 2800 -RA BR BKN016CB BKN070TC BKN080 27/26 Q0997 RMK A2947
RJOS 182128Z 16042G58KT 3500 R29/0900VP1800D SHRA BR SCT012 BKN020 OVC030 FEW030CB 27/25 Q0991 RMK 3CU012 6CU020 8CU030 2CB030 A2928 R1700 CB 5KM SE MOV N 1500E VIS VRB
DAAS 182100Z 22024G36KT 6000 TS FEW026CB SCT030 23/08 Q1019
KCOU 182054Z 18011KT 10SM VCTS FEW031 FEW055 BKN120 25/22 A2995 RMK AO2 LTG DSNT SW AND W RAB05E22B27E32B50E54 TSE16 PRESFR SLP135 P0003 60003 T02500217 56014
UERP 182100Z 16003MPS 9999 -SHSN SCT023CB BKN100 M03/M07 Q1011 RMK QFE714
UERP 182100Z 16003MPS 9999 -SHSN SCT013/// BKN100 M03/M07 Q1011 RMK QFE714
UERP 182100Z 16003MPS 9999 -SHSN VV010 BKN100 M03/M07 Q1011 RMK QFE714
UERP 182100Z 16003MPS 9999 -SHSN VV/// BKN100 M03/M07 Q1011 RMK QFE714
EGLL 091100Z 09006KT P4000 5000SE R08L/4500VP6000FT/U FEW004 BKN140 BKN170 02/02 A3055 RMK ST1AC5AS2 ST TR VIS NE 4 SLP347
EGLL 091100Z 09006KT P 4000 R08L/4500VP6000FT/U FEW004 BKN140 BKN170 02/02 A3055 RMK ST1AC5AS2 ST TR VIS NE 4 SLP347
EGLL 091100Z 09006KT P6SM R08L/4500VP6000FT/U FEW004 BKN140 BKN170 02/02 A3055 RMK ST1AC5AS2 ST TR VIS NE 4 SLP347
EGLL 091100Z 09006KT 1 1/2SM 5000SE R08L/4500VP6000FT/U FEW004 BKN140 BKN170 02/02 A3055 RMK ST1AC5AS2 ST TR VIS NE 4 SLP347
EGLL 091100Z 09006KT 1 1/2 SM 5000SE R08L/4500VP6000FT/U FEW004 BKN140 BKN170 02/02 A3055 RMK ST1AC5AS2 ST TR VIS NE 4 SLP347