KSKX 091200Z AUTO 29015G23KT 10SM CLR 00/M16 A2994 RMK AO2 PK WND 30028/2211 SLP149 T00001161 FZRANO BLU
KBVY 292253Z 00000KT 10SM OVC037 04/M02 A3032 RMK AO2 SLP264 T00391017
MMUN 292241Z 13008KT 7SM SCT015 28/23 A2993 RMK 8/100 MDT CU
LEGR 292300Z AUTO 23001KT CAVOK 03/M00 Q1019
VEBS 292230Z 34005KT 2000 BR SCT100 21/19 Q1013 NOSIG
LIPI 292255Z 05007KT CAVOK 05/M01 Q1017 RMK SKC VIS MIN 9999 WIND THR06 08007KT WIND THR24 06007KT BLU
KHBV 292315Z AUTO 00000KT 10SM CLR 29/13 A2977 RMK AO2 T02900125
YBLT 292300Z AUTO 17010KT 9999 // OVC018 12/08 Q1019
KSDY 292256Z AUTO 30018KT 9SM -SN SCT022 M11/M15 A2999 RMK AO2 PK WND 29030/2231 SLP201 P0000 T11111150 FZRANO
KGNG 292315Z AUTO 30007KT 10SM OVC050 M02/M08 A3008 RMK AO2
VOCL 292300Z 08004KT 4000 BR FEW012 BKN080 23/22 Q1009 NOSIG
TJPS 292315Z AUTO 07005KT 10SM -RA 25/21 A2990 RMK AO2 TSNO
OJAI 292300Z 10003KT 0500 FG VV/// 07/07 Q1016 NOSIG
EGTE 292250Z 05005KT 9999 FEW004 SCT040 04/04 Q1021
WAKK 292300Z 32007KT 9999 BKN016 27/25 Q1006 NOSIG
CYLT 292300Z 00000KT 10SM IC SKC M35/M39 A2988 RMK SLP125
URMO 292300Z AUTO /////MPS 9999 // ///////// ///// Q//// RMK QFE////////
LKKU 291500Z 22003KT 9999 SCT034 03/M01 Q1022
YSHW 292300Z AUTO 05004KT 9999 // ////// 18/09 Q1019
EISG 291700Z 12007KT 090V170 CAVOK 07/03 Q1016
EDMA 292250Z AUTO 09004KT 7000 // OVC006/// 03/03 Q1019
SBSJ 292300Z VRB01KT 9999 BKN025 OVC040 20/20 Q1008
KFUL 292253Z 22006KT 10SM BKN036 18/09 A2993 RMK AO2 SLP134 T01830094
DAOO 292300Z VRB02KT CAVOK 07/01 Q1018
LTAJ 292250Z 01010KT 9999 -SHRA BKN045 BKN080 10/08 Q1015 NOSIG RMK RWY10 02012KT 6CU045 7AC080
UWOO 292300Z 20002MPS CAVOK M12/M19 Q1040 R08/60D NOSIG RMK QFE769/1026
KSGJ 292256Z 07003KT 10SM CLR 19/19 A3013 RMK AO2 SLP203 T01940189
KTEB 292251Z 00000KT 10SM CLR 04/M03 A3027 RMK AO2 SLP251 T00391033
KCUH 292315Z AUTO 34017G22KT 10SM OVC024 04/M01 A2990 RMK AO2 T00431013
KBTP 292256Z AUTO 12009KT 10SM CLR 08/04 A3000 RMK AO2 SLP173 T00830039 TSNO
EPWR 292300Z 11007KT 5000 BR NSC M00/M02 Q1024
FBMN 292300Z 11011KT CAVOK 23/14 Q1016
KSAN 292251Z 23007G17KT 10SM FEW025 16/08 A2997 RMK AO2 SLP148 T01610078
YCMT 292300Z AUTO 14008KT 4400 -RA BKN006 OVC009 OVC026 20/20 Q1009 RERA
KGEG 292253Z 13006KT 4SM -SN OVC038 M07/M11 A2999 RMK AO2 SNB2158 SLP196 P0000 T10671106
UUOL 292300Z 11004MPS CAVOK M09/M09 Q1041 R15/0900// NOSIG
EGNT 292250Z 20004KT 160V250 0100 R25/0800U FG OVC002 02/02 Q1022
KFOE 292253Z 34020G30KT 10SM OVC029 00/M06 A2988 RMK AO2 PK WND 33033/2230 SLP121 T00001056
EKRS 292250Z AUTO VRB08KT 9000 DZ VV019 05/05 Q1025
EGBJ 291920Z 10002KT 5000 FEW005 OVC007 05/04 Q1022
ZGGG 292300Z 01007MPS 9999 OVC026 18/14 Q1019 NOSIG
CYWG 292300Z 31016KT 2SM -SN DRSN OVC014 M05/M06 A2958 RMK ST8 SLP034
KLAA 292253Z AUTO 01004KT 10SM CLR M03/M08 A2997 RMK AO2 SLP168 T10281083
VASD 291200Z 06004KT 4000 HZ NSC 27/11 Q1013 BECMG 3000
SBPV 292300Z 36002KT 9999 FEW045 27/24 Q1002
MRLM 292300Z 21002KT 9999 -DZ FEW015 OVC100 23/22 A2982
PTYA 292252Z VRB06KT 12SM FEW017 BKN300 30/26 A2984 RMK SLP105 T02970259
MDPC 292300Z 02006KT 9999 SCT021 26/22 Q1013
PAEG 292253Z AUTO 00000KT 10SM CLR M30/M33 A3083 RMK AO2 SLP477 T13001333 TSNO
VTUQ 292300Z 20002KT 6000 NSC 23/23 Q1011 NOSIG
LSMM 292250Z AUTO 08004KT 010V120 9999NDV FEW012 BKN029 OVC037 05/05 Q1018 RMK
RCSS 292300Z 08010KT 030V110 9999 -DZ FEW008 BKN025 BKN060 19/17 Q1022 NOSIG RMK A3020
YCKN 012330Z AUTO 29007KT 9999 // BKN120 27/24 Q1008
KHWY 012355Z AUTO 00000KT 10SM SCT080 05/03 A3003 RMK AO2 T00470034 10194 20041
SASA 012300Z 05021KT 9999 VCSH SCT040TCU FEW050CB 26/17 Q1014 RMK PP000 CB OBS TO NE W
KSGR 012353Z 17007KT 10SM OVC039 23/18 A2990 RMK AO2 SLP127 T02280178 10278 20228 58000
KBGF 012335Z AUTO 16006KT 10SM CLR 17/10 A3005 RMK A01
KEDJ 012055Z AUTO 26006G11KT 10SM 10/09 A3000 RMK A01
KHTS 012351Z 19003KT 10SM OVC050 13/10 A3007 RMK AO2 SLP184 T01330100 10150 20133 51009
VLVT 012300Z 24004KT 5000 BR FEW200 14/14 Q1019 NOSIG
ESUP 012350Z AUTO 00000KT 9999 NCD ///// Q0999
DTTF 012300Z 06007KT 8000 NSC 05/M01 Q1030 NOSIG
KSAC 012353Z 33014G25KT 10SM CLR 14/02 A2984 RMK AO2 PK WND 33026/2314 SLP104 T01440022 10150 20111 53007
LFOE 012330Z AUTO 22019G29KT 9999 -RA FEW021 BKN072 OVC090 13/10 Q1011 BECMG 20012KT 4000 RA BKN014
KDED 012330Z AUTO 05004KT 10SM CLR 20/18 A3016 RMK AO2 T02040175
LECO 012330Z 22008KT 9999 FEW034 09/06 Q1019 TEMPO 3000 RA
SADM 241708Z 20013KT 5000 -DZ OVC013 19/16 Q1016
DRRB 231600Z 36008KT 320V070 CAVOK 34/04 Q////
SYKM 171600Z 05006KT 9999 VCSH SCT014 SCT036 BKN080 25/24 Q1010 NOSIG RMK VCSH S-W & ENE
FYGF 012300Z AUTO 04002KT //// // ////// 19/17 Q1019
UMII 011300Z 24006G09MPS 1900 BR OVC006 05/05 Q1005 TEMPO 1500 BKN005 RMK QBB180
HKLO 011300Z 09014KT CAVOK 34/11 Q1007
MUCC 012250Z 06011KT 9000 SCT020 26/23 Q1018
KTDF 012335Z AUTO 00000KT 10SM CLR 10/10 A3013 RMK AO2
LQBK 012330Z 18004KT CAVOK 05/05 Q1028 NOSIG
MMTO 012246Z 18010KT 7SM BKN020TCU BKN080 15/06 A3034 RMK 8/230 HZY DSNT PCPN 1ST QUAD
KPWM 012351Z 27007KT 10SM CLR 07/02 A2986 RMK AO2 SLP112 T00720017 10128 20061 51029
KMRH 012258Z AUTO 23007KT 10SM CLR 14/14 A3008 RMK AO2 SLP185 T01440139
KITH 012356Z 00000KT 10SM BKN036 04/01 A2997 RMK AO2 RAB02E16 SLP155 P0000 60000 T00440011 10056 20039 53009
VERC 012300Z 00000KT 1500 BR SCT100 13/13 Q1019 NOSIG
MTCH 152000Z 11008KT 9999 FEW028 32/16 Q1012 A2991
FOOG 012300Z VRB03KT 3000 BR FEW011 26/25 Q1012
ESNZ 012350Z AUTO 15008KT 9999 NCD M11/M13 Q1007
KCRW 012354Z 20003KT 10SM BKN026 BKN050 13/12 A3009 RMK AO2 SLP188 60000 T01280117 10156 20122 51016 $
RORK 012300Z AUTO 03011KT 9999 SCT032 BKN036 BKN130 18/12 Q1025
KDMO 012353Z AUTO 05005KT 10SM CLR 13/08 A2988 RMK AO2 SLP118 T01330083 10172 20128 53010 $
MMAN 012242Z 11009KT 10SM FEW050 BKN200 30/08 A2984 RMK 8/506 HZY
KABY 012353Z 00000KT 10SM CLR 16/11 A3015 RMK AO2 SLP209 T01610111 10239 20161 53016
WMKD 012300Z VRB03KT 9999 FEW025 23/21 Q1012 NOSIG
KGEG 012353Z 20003KT 10SM FEW008 SCT012 BKN015 01/M02 A3005 RMK AO2 SLP195 4/006 T00111017 10017 20006 58002
CYYU 012300Z 13005KT 4SM -SHSN SCT032 OVC041 M02/M03 A2979 RMK SC3SC5 SLP106
KLNL 012355Z AUTO 26004KT 10SM OVC009 00/M01 A2987 RMK AO2 60001 T00001015 10003 20000
RKSW 300009Z 36001KT 4800 BR SCT050 M05/M05 A3054
EGUB 012320Z AUTO 17006KT 9999 // OVC042/// 07/06 Q1008
EGNM 012320Z 18004KT CAVOK 04/02 Q1005
KCXY 012256Z 00000KT 10SM SCT060 SCT095 08/04 A2999 RMK AO2 SLP158 T00830039
FTTY 011300Z 04019KT 8000 SKC 24/01 Q1019
KOSH 012353Z 20003KT 8SM CLR 01/M01 A2993 RMK AO2 SLP146 T00061011 10050 20000 50009
CYNA 012300Z AUTO 36011G16KT 9SM OVC037 M03/M07 A2961 RMK SLP028
TJPS 012355Z AUTO 00000KT 10SM -RA CLR 24/20 A3004 RMK AO2 TSNO
YLEO 012330Z AUTO 13015KT 9999 // NCD 20/07 Q1013
OIZJ 012100Z 34008KT 8000 NSC 21/10 Q1020
UAOO 012330Z 22005MPS 9000 -SN OVC010 OVC033 M01/M01 Q1026 NOSIG RMK QFE758/1011
KMSL 012353Z AUTO 16007KT 10SM CLR 18/10 A3002 RMK AO2 SLP164 T01780100 10244 20178 53009
VOHS 012330Z 12004KT 4000 BR FEW010 SCT015 19/17 Q1018 NOSIG
KGTR 012356Z 15009KT 10SM CLR 19/12 A3004 RMK AO2 SLP180 T01940122 10239 20194 53008
KSBM 012353Z AUTO 23003KT 10SM CLR 01/M01 A2993 RMK AO2 SLP143 T00111011 10056 20006 50008
KJDD 012335Z AUTO 14004KT 10SM CLR 20/16 A2986 RMK AO2
KLBX 231053Z AUTO 34013G22KT 10SM CLR M07/M15 A3057 RMK AO2 PK WND 36028/1037 SLP353 T10721150
LFTW 012330Z AUTO 12008KT 9999 OVC015 13/10 Q1026
LGHI 012350Z 00000KT CAVOK 08/06 Q1029
ETEB 012255Z AUTO 16009KT 9999 FEW100 SCT120 11/05 A3011 RMK AO2 SLP214 T01070048 401430091 FZRANO $
LPAR 291700Z 23010KT 9999 FEW020 17/14 Q1022
PGRO 012350Z 05016G22KT 7SM BKN016 BKN100 26/23 A2991
TIST 012353Z 06004KT 10SM CLR 26/22 A3005 RMK AO2 SLP177 60000 T02560217 10289 20256 53016
KLNN 012355Z AUTO 00000KT 2 1/2SM OVC004 05/04 A3002 RMK AO1 T00540042 10080 20050
KELZ 020006Z AUTO 26007KT 10SM BKN011 BKN014 OVC020 06/03 A2996 RMK AO2 CIG 007V013 T00560033
CYAT 020000Z AUTO 00000KT 9SM FEW008 M19/M21 A2991 RMK SLP131
YFRT 020000Z AUTO 17015KT 9999 // OVC013 19/15 Q1015
ESSP 012350Z AUTO 10005KT 9999 SCT004/// BKN029/// BKN032/// 00/00 Q1012
KVGT 012353Z 31018G31KT 10SM SCT080 BKN120 12/01 A2953 RMK AO2 PK WND 31034/2303 SLP013 T01170006 10156 20117 53018
HEOC 171500Z 01008KT 3000 HZ NSC 18/14 Q1020 NOSIG
EGXW 012350Z AUTO 21013KT 9999 -RA FEW057/// BKN069/// BKN087/// 07/06 Q1006
CYMH 020000Z AUTO 34004KT 9SM OVC020 M05/M07 A2962 RMK SLP031
CYBL 020000Z 13005KT 12SM SCT005 BKN015 OVC035 05/05 A3006 RMK SF4SC3SC1 SLP185
KTMB 012353Z 12006KT 10SM CLR 23/22 A3012 RMK AO2 SLP200 T02330217 10300 20233 51010
KCLT 012352Z 20004KT 10SM BKN020 12/11 A3013 RMK SLP202 T01220106 10144 20117 51015 $
KFPR 012353Z 00000KT 9SM CLR 22/21 A3015 RMK AO2 SLP208 T02220206 10283 20217 51012
EHGR 012355Z AUTO 19010KT 120V230 9999 BKN037 OVC042 12/11 Q1009 BLU
YJAB 020000Z AUTO 35006KT 9999 // NCD 26/24 Q1005
RJFK 020000Z 33010KT 8000 NSC 07/01 Q1026 RMK 6AC090 A3030
FALE 020000Z 35005KT 9999 OVC036 21/16 Q1016 NOSIG
FALA 012300Z AUTO 22006KT //// ////// 14/13 Q1023
FALW 012300Z AUTO 23005KT //// // ////// 20/14 Q1007
SGSP 012100Z 36002KT 9999 FEW040 38/21 Q1001
LPBJ 020000Z 31005KT 9999 FEW007 12/12 Q1023
SBSL 020000Z 05007KT CAVOK 28/24 Q1011
KIAD 012352Z 00000KT 10SM FEW080 08/04 A3002 RMK AO2 SLP168 T00830039 10183 20083 52015
MGQZ 020000Z 00000KT 9999 BKN020 16/12 QFE 773/5
KLIT 012353Z 19008KT 10SM OVC024 19/14 A2992 RMK AO2 SLP133 T01890139 10228 20183 52011 $
KFYJ 012355Z AUTO 00000KT 10SM CLR 08/07 A3008 RMK AO1 60001 T00810073 10185 20081
LHKE 012345Z 15004KT 4000 BR SCT040 07/07 Q1027 BECMG 3000 BR RMK GRN
VOCI 020000Z 10002KT 3000 BR FEW015 22/19 Q1013 NOSIG
CYYE 020000Z 22006KT 30SM FEW150 BKN190 M19/M22 A2965 RMK AC2AC5 SLP086
FTTA 020000Z 31005KT CAVOK 21/09 Q1012
OIBS 011500Z 30004KT CAVOK 24/11 Q1021
MRPV 020000Z 08008KT 9999 FEW030 SCT250 22/15 A3007 NOSIG
LDDU 020000Z 04001KT CAVOK 07/05 Q1030
NZAA 020000Z 10014KT 060V130 9999 BKN032 BKN044 19/14 Q1020 RMK AUTO VATSIM USE
CYBD 020000Z VRB02KT 15SM FEW170 BKN240 01/00 A2994 RMK AC2CI4 SLP143
KUCP 012356Z AUTO 00000KT 10SM BKN012 OVC020 08/07 A3004 RMK AO2 SLP195 60000 T00780072 10089 20067 53015
DBBB 020000Z VRB01KT 6000 FEW010 25/20 Q1011 BECMG 3500 BR
KJNX 012355Z AUTO 00000KT 10SM CLR 10/10 A3011 RMK AO2
FNCA 012000Z 17005KT 9000 SCT010 BKN050 26/25 Q1012
CYYL 020000Z AUTO 18004KT 9SM OVC110 M18/M20 A2981 RMK SLP137
KMPV 012351Z AUTO 32007KT 10SM FEW029 OVC035 03/M03 A2993 RMK AO2 SLP144 T00331028 10067 20033 51019
KELD 012353Z AUTO 13006KT 6SM BR FEW005 BKN015 OVC037 17/17 A2995 RMK AO2 SLP138 T01720172 10183 20167 53001
OITL 020000Z 00000KT CAVOK M12/M16 Q1030
MZBZ 020000Z VRB02KT 9999 SCT023 27/23 A2999 Q1015 NOSIG
MTPP 012359Z AUTO VRB03KT 9000 ////// 27/22 Q1016 A3001 NOSIG
WBGR 020000Z 19007KT 160V230 9999 -RA SCT014 24/23 Q1013
LGIR 012350Z 18004KT 9999 SCT020 11/09 Q1029 NOSIG
CYAW 211900Z 36005KT 15SM OVC032 03/M00 A3035 RMK SC8 DENSITY ALT -1730FT LAST OBS/NXT 051000 UTC SLP281
KPBH 012355Z AUTO 23008KT 10SM OVC008 M01/M02 A2989 RMK AO2 T10111017 10000 21011
LIPU 011450Z 00000KT 4000 BR FEW035 11/09 Q1030
CYZF 020000Z 30004KT 6SM -SN BKN007 OVC018 M15/M17 A2974 RMK SC6SC2 SLP097
RORS 020000Z 10006KT 9999 -RA FEW030 SCT040 BKN050 17/16 Q1025
VAKE 010700Z 05008KT 5000 FU NSC 25/01 Q1020 NOSIG
SMJP 020000Z 02001KT 9999 FEW008 FEW015CB SCT020 24/23 Q1013 NOSIG
KRPX 012342Z AUTO 10SM 03/M07 A2986 RMK Roundup
KBNW 012355Z AUTO 34004KT 10SM BKN110 02/01 A3000 RMK AO2
CYXU 020000Z 24005KT 2 1/2SM -RA BR OVC005 04/03 A2997 RMK FG3SF5 SLP161
SBKG 020000Z 09010KT 9999 BKN015 23/23 Q1016
LJPZ 020000Z AUTO 11002KT 6000 BKN014/// OVC017/// 11/10 Q1031
KPIH 012353Z 04004KT 10SM CLR M01/M06 A2981 RMK AO2 SLP112 T10061061 10006 21011 53005
LJCE 020000Z AUTO 26009KT 9999 NCD 12/08 Q1027
KMIA 012353Z COR 12006KT 10SM FEW025 25/21 A3013 RMK AO2 SLP203 T02500211 10294 20250 51012
KJYR 012355Z AUTO 02005KT 10SM FEW090 00/M02 A2997 RMK AO2
YSBK 020000Z AUTO 05008KT 9999 // NCD 27/15 Q1013
UUOO 020000Z 25006MPS CAVOK 07/05 Q1012 R12/290150 NOSIG RMK QFE745
CYOY 221554Z 04004KT 15SM FEW120 BKN200 M10/M12 A3053 RMK AC2CS5 DENSITY ALT -3132FT LAST OBS /NEXT 091200 UTC SLP353
MMTG 012351Z 32008KT 7SM SCT025 BKN080 OVC300 28/21 A2992 RMK SLP104 51004 953 8/437 HZY
LIMZ 012350Z AUTO 26002KT 7000 OVC037/// 06/06 Q1030
KABQ 012352Z 12007KT 10SM FEW045 SCT120 OVC170 08/02 A2976 RMK AO2 SLP056 MTN TOPS OBSC NE T00830022 10100 20050 58012
KDAW 012351Z AUTO VRB06KT 10SM FEW110 07/M01 A2987 RMK AO2 SLP114 T00721006 10106 20072 51020
MMCZ 012344Z 09005KT 7SM FEW015 SCT250 25/23 A3003 RMK SLP173 52007 904 8/508
NCMG 020000Z AUTO 31006KT //// ////// ///// Q////
YMEK 020000Z AUTO 10018KT 9999 // NCD 32/09 Q1008
VOCX 190900Z 18007KT 6000 FEW016 28/22 Q1006 NOSIG
PATQ 020006Z AUTO 07004KT 9SM -SN BKN007 OVC012 M17/M18 A2953 RMK AO2 P0000 FZRANO TSNO
KBIS 012352Z AUTO 31005KT 10SM CLR M09/M12 A3000 RMK AO2 SLP199 T10941122 11044 21100 51019
KSVC 012355Z AUTO 23012G20KT 10SM RA SCT021 BKN043 OVC060 11/07 A2980 RMK AO2 P0001 60001 T01060065 10136 20106
FYGF 012300Z AUTO 04002KT //// // ////// 19/17 Q1019
DNMN 012300Z 06018KT 4000 HZ NSC 24/02 Q1014
ENVR 011450Z 25014G24KT 210V290 9999 BKN036 05/M02 Q0993
KISQ 012355Z AUTO 23003KT 10SM OVC028 01/00 A2989 RMK AO2 T00061005 10011 20006
LEPA 020000Z 02004KT 9999 FEW012 09/09 Q1024 NOSIG
LTBR 012350Z VRB01KT 6000 NSC M01/M01 Q1031 BECMG 4500 BR
LTBU 012350Z 00000KT 6000 NSC 02/02 Q1031 RMK RWY22 13003KT
LTBY 012350Z VRB01KT 6000 NSC M04/M04 Q1032
LTBF 012350Z 10001KT 2000 BR BKN002 05/05 Q1032 NOSIG
LTBA 012350Z VRB02KT 0300 R05/0450N R23/0375N FG VV001 08/07 Q1031 RMK RWY23 VRB02KT
LTBQ 012350Z VRB01KT 6000 NSC M02/M02 Q1032 BECMG TL0100 4000 BR
LTBJ 012350Z 35002KT 8000 NSC 03/01 Q1029 TEMPO FM0100 4000 BR RMK RWY16 VRB02KT
LTBS 012350Z 05006KT CAVOK 06/05 Q1028 NOSIG RMK RWY19 36005KT SKC
LTBG 011831Z 00000KT 0200 R36/0325D R18/0275N FG NSC 06/06 Q1032 NOSIG RMK RWY18 00000KT
LTBT 011014Z 30003KT 250V020 6000 NSC 08/08 Q1030 RMK RWY13 01002KT
LTBL 300529Z 00000KT 2500 BR NSC 02/02 Q1028 BECMG TL 00700 7000 RMK RWY17 35003KT
LTBI 010921Z VRB01KT 2500 BR NSC 01/01 Q1032 NOSIG RMK RWY08 05003KT 330V100
LTBH 012350Z 07006KT 6000 NSC 03/02 Q1031
LTBD 012350Z 07005KT CAVOK 05/03 Q1030
LTBO 311350Z 27007KT 9999 SCT030 BKN100 11/02 Q1028
YSSY 020000Z 03010KT 9999 FEW038 27/13 Q1013
KMIB 012255Z 34011KT 10SM BKN013 M13/M16 A2995 RMK CIG 012 RWY30 SLP181 T11321158 $
KVTA 012354Z AUTO 23003KT 10SM OVC020 10/08 A3005 RMK AO2 SLP179 T01000078 10106 20094 53015
PANN 012353Z AUTO 07014G25KT 10SM CLR M03/M09 A2875 RMK AO2 SLP746 T10331089 11033 21067 56012 TSNO $
YBCS 020000Z AUTO 29001KT 9999 // SCT033 OVC062 29/23 Q1007
EHRD 012355Z AUTO 20009KT 170V240 6000 FEW007 SCT014 BKN017 12/11 Q1008 NOSIG
KVCV 012350Z AUTO 25016G24KT 10SM BKN085 07/03 A2974 RMK AO2
KLUD 012355Z AUTO 14008KT 7SM CLR 21/07 A2981 RMK AO2 T02130072 10256 20213
KPRG 012355Z AUTO 14005KT 5SM BR OVC006 10/10 A3001 RMK AO2 T00960096 10118 20095
KPRC 012353Z 18004KT 10SM BKN020 BKN044 OVC100 02/02 A2963 RMK AO2 UPB2257E03RAB03E05B38E52SNE2257 SLP006 P0000 60051 T00220017 10083 20006 55003
KPRX 012356Z AUTO 15009KT 10SM CLR 19/15 A2985 RMK AO2 SLP107 T01890150 10250 20189 53006
KPRN 012358Z AUTO 00000KT 10SM CLR 16/12 A3010 RMK AO2 SLP140 T01560122 10233 20156 51007
KPRO 012355Z AUTO 00000KT 10SM 03/01 A2998 RMK AO2 T00260006 10057 20026
KPRB 012353Z AUTO 29014KT 10SM CLR A2981 RMK AO2 SLPNO 53003 $
KPRS 290610Z AUTO 27006KT 10SM SCT110 17/M02 A2994 RMK AO2 T01721024
CYPQ 020000Z AUTO 24002KT 7SM SCT021 OVC045 02/01 A2994 RMK SLP149
CYTR 020000Z 00000KT 7SM SCT009 OVC023 03/02 A2996 RMK ST3SC5 DENSITY ALT -1130FT SLP154
KIKK 012355Z AUTO 00000KT 5SM BR SCT007 06/05 A3000 RMK AO2 T00570049 10081 20057
MMPA 012341Z 00000KT 4SM SCT090 24/21 A2988 RMK SLP132 54000 978 8/030 HZY
FYOA 020000Z AUTO 08004KT //// // ////// 24/03 Q1011
EGSY 012350Z AUTO 23012KT 9999 NCD 09/06 Q1008
KNJW 012257Z AUTO 16005KT 10SM CLR 21/10 A3007 RMK AO2 SLP096 T02060100 $
HESN 012300Z 01004KT CAVOK 12/M02 Q1019 NOSIG
BIBD 301600Z 23005KT 9999 BKN045 M08/M14 Q0995
EBOS 012350Z 20007KT 4500 -RADZ SCT007 BKN024 11/09 Q1008 TEMPO BKN008
KSRR 012355Z AUTO 20008KT 140V210 10SM 09/M02 A2987 RMK AO2
EBLG 012350Z 20016KT 9999 -RA FEW006 13/09 Q1012 NOSIG
RJNK 020000Z VRB02KT 9999 -SHRA FEW020 BKN030 BKN050 04/02 Q1024
VTPH 020000Z VRB02KT 9999 FEW030 21/15 Q1015 NOSIG
LTCI 012350Z 06008KT 9999 FEW040 M06/M09 Q1034 NOSIG
SBVT 020000Z 01004KT 9999 SCT025 BKN100 25/23 Q1016
UHHH 020000Z 26007MPS 9999 DRSN NSC M23/M30 Q1014 R23R/090060 NOSIG RMK QFE754/1006
KJKA 012357Z 00000KT M1/4SM FG VV002 19/19 A3009
PAEM 010456Z AUTO 02013KT 10SM CLR M11/M12 A2917 RMK AO2 SLP875 T11061117 FZRANO
PFEL 012356Z AUTO 01024G32KT 10SM CLR M08/M13 A2894 RMK AO2 PK WND 01032/2353 SLP802 T10831133 11083 21094 56015 FZRANO
CYQA 020000Z AUTO 17004KT 8SM BKN006 OVC020 01/M00 A2991 RMK SLP143
LSMP 012350Z AUTO VRB03KT 9999NDV NCD 05/04 Q1022 RMK
YCNM 020000Z AUTO 36009KT 340V050 //// // ////// 29/17 Q1011
UBEE 011900Z 29003KT CAVOK M01/M03 Q1033 NOSIG
PAIW 240756Z AUTO 12006KT 10SM OVC024 M06/M09 A2961 RMK AO2 SNE38 SLP027 T10611094 FZRANO PNO $
CYHK 020000Z 04014KT 4SM IC FEW022 M30/M34 A2974 RMK SC2 SLP082
KWVL 012356Z AUTO 26005KT 10SM CLR 04/M01 A2982 RMK AO2 SLP129 T00441006 10094 20044 53026
CYXJ 020000Z 23014G20KT 60SM SCT150 OVC220 M02/M05 A2974 RMK AC4CI4 SLP121
KTCL 012353Z 18005KT 10SM CLR 21/10 A3006 RMK AO2 SLP178 T02060100 10244 20200 53008
VTSE 020000Z VRB01KT 8000 FEW020 22/18 Q1015 NOSIG
VOKN 020000Z 11008KT 3500 BR FEW012 23/20 Q1013 NOSIG
KDTA 211410Z AUTO 15011KT 10SM CLR M08/M10 A3015 RMK AO1
EHLE 012355Z AUTO 19007KT 160V220 5000 FEW006 SCT008 BKN010 11/10 Q1009
MKJS 020000Z 10006KT 9999 FEW024 27/23 Q1016
KLXN 012355Z AUTO 04006KT 10SM CLR 02/M01 A2995 RMK AO2 T00171006 10062 20015
YCCY 020000Z AUTO 06015KT 9999 // BKN017 OVC021 OVC028 28/23 Q1006
NVSG 020000Z AUTO 33004KT //// // NCD 29/26 Q1006
KGEZ 301853Z AUTO 18013KT 10SM OVC034 14/10 A3000 RMK AO2 SLP157 T01390100
KVNY 012351Z 35011KT 10SM SCT034 14/06 A2973 RMK AO2 SLP065 60017 T01390056 10156 20117 50003
EHKD 020005Z AUTO 05004KT 5000 +DZ BKN003 BKN008 OVC010 08/08 Q1008 YLO
KTOA 012347Z 27022G29KT 10SM -RA FEW020 SCT030 15/10 A2975 RMK RAB42
KMLI 012352Z 00000KT 6SM BR CLR 03/02 A2998 RMK AO2 SLP158 T00330017 10083 20033 51017
CYXC 020000Z 00000KT 25SM FEW036 BKN062 BKN230 M04/M06 A3001 RMK SC2SC3CI2 SLP211
BIVO 301500Z 33009KT 4000 2000NE OVC007 09/M12 Q0991
FASB 010857Z 36009KT CAVOK 34/04 Q1017
SAAR 020000Z 00000KT 9999 FEW030 21/18 Q1009 RMK PP000
ENVD 012350Z 01007KT 9999 -SN FEW007 SCT028 BKN038 M01/M02 Q0992 RESG
KSRE 010310Z AUTO 14004KT 10SM CLR 11/04 A2980 RMK AO2
VAOZ 011530Z 29002KT 6000 NSC 17/11 Q1020 NOSIG
EBCV 012355Z AUTO 20018KT 9999 -RA OVC054/// 13/11 Q1010 BLU
PTSA 012250Z VRB03KT 10SM SCT020 SCT120 BKN300 31/24 A2983
LZKZ 020000Z 06003KT 040V100 5000 BR SCT006 OVC047 06/05 Q1028 NOSIG
OESH 020000Z 05006KT 9999 SCT040 SCT080 18/09 Q1022 NOSIG
LIBG 011850Z VRB01KT CAVOK 08/07 Q1031
DAUA 020000Z 02007KT CAVOK 11/M03 Q1022
LHPP 012345Z AUTO 24004KT CAVOK 09/07 Q1027
YBAS 020000Z AUTO 07011KT 9999 // ////// 32/20 Q1006
NZWU 020000Z 12006KT 090V160 20KM SCT046 OVC060 23/12 Q1022 RMK AUTO VATSIM USE
KMYJ 012355Z AUTO 05005KT 10SM CLR 07/06 A2989 RMK AO2
CZUM 020000Z AUTO 34005KT 9SM -SN OVC010 M15/M17 A2968 RMK SLP093
PALP 020006Z 03006KT 10SM -SN OVC010 M14/M17 A2950
YPEA 020000Z AUTO 07018KT 9999 // ////// 20/09 Q1015
KALN 012350Z 12012KT 10SM BKN024 15/11 A2993
KENV 012356Z AUTO VRB03KT 10SM -RA FEW024 BKN031 OVC038 01/M02 A2973 RMK AO2 UPE55RAB55 SLP086 6//// T00061022 10017 20006 53008 FZRANO PNO $
UAII 020000Z 12003MPS 9999 SCT014 M01/M04 Q1029 NOSIG RMK QFE736/0982
ENBV 012350Z AUTO 11010KT 9999 SCT009 BKN072 OVC095 01/M01 Q0993
HELX 012300Z 00000KT CAVOK 09/01 Q1020 NOSIG
KMRF 142156Z AUTO 26023G27KT 10SM CLR 08/M11 A2997 RMK AO2 PK WND 27031/2059 SLP135 T00831106
FDST 012300Z AUTO 13001KT //// // ////// 18/17 Q1017
RJAA 020000Z 33005KT 9999 FEW030 04/M01 Q1019 NOSIG RMK 1CU030 A3011
UAAA 020000Z VRB01MPS 0100 R23R/0325N R23L/0450N FZFG VV001 M10/M12 Q1028 NOSIG RMK QBB030
LFVP 020000Z AUTO 21009KT 1400 1000 R26/1900N BR OVC004 05/05 Q0988
LFOK 020000Z AUTO 19016KT CAVOK 13/07 Q1014 NOSIG
MGRT 020000Z 00000KT 8000 SCT080 SCT200 29/24 Q1015 A2997 HZ VOL. SANTA MARIA Y SANTIAGUITO EN ACTIVIDAD
KSTC 012353Z 31008KT 8SM OVC011 M04/M07 A2997 RMK AO2 SLP174 T10441067 11011 21044 51025
OIMD 011700Z 00000KT CAVOK 02/M09 Q1025
SAMR 012032Z 02004KT 9999 FEW040 FEW050CB 25/11 Q1014 RMK CB OBS TO E
RKSW 300009Z 36001KT 4800 BR SCT050 M05/M05 A3054
ESST 012350Z AUTO 33006KT 9999 OVC019/// M08/M10 Q1011
KRKS 012354Z AUTO 06023G36KT 6SM UP BR SCT011 BKN026 OVC032 M04/M06 A2971 RMK AO2 PK WND 05038/2307 UPB2258 SLP089 P0000 60000 T10441061 11033 21044 53006
DRRT 020000Z 06006KT CAVOK 16/M05 Q1017
LFBU 020000Z AUTO 24003KT CAVOK 13/09 Q1016
LYNI 020000Z 10003KT 5000 BR NSC 03/02 Q1030 NOSIG
SKCC 020000Z 01010KT 9999 SCT017TCU SCT080 23/22 Q1015 RMK TCU/NE A2997
EFHA 012350Z AUTO 27009KT CAVOK M06/M06 Q1007
SLAL 020000Z 08010KT 9999 FEW017 BKN200 17/08 Q1027
SYLT 012100Z 08012KT 9999 FEW026 31/24 Q//// NOSIG
KMSN 012353Z 00000KT 10SM SCT150 BKN250 02/M01 A2994 RMK AO2 SLP148 T00171006 10056 20011 51006
RKTY 292116Z 09003KT 9999 -SN BKN040 M08/M11 A3046 RMK CIG040
LSZB 012350Z AUTO VRB01KT 0400 R14/0250N FG VV001 01/01 Q1022
PASM 012356Z AUTO 02013G20KT 10SM CLR M09/M12 A2882 RMK AO2 SLP772 T10941122 11089 21122 56004 FZRANO
KNUC 012356Z AUTO 30020G33KT 10SM BKN023 13/ A2982 RMK AO2 PK WND 29036/2258 SLP096 T0128 10144 20128 51003 $
CYKA 020000Z 10009KT 15SM FEW010 OVC014 01/M00 A3010 RMK SF1ST7 SLP211
KJWG 012355Z AUTO 03009KT 10SM CLR 12/04 A2984 RMK AO2 T01230036 10221 20123 402210010
KOZW 012355Z AUTO 26004KT 10SM CLR 05/04 A2998 RMK AO2 T00470035 10075 20047
KELP 012351Z 16004KT 10SM SCT090 SCT220 OVC250 17/03 A2977 RMK AO2 SLP043 T01720028 10194 20122 56016
KPCM 012355Z AUTO 00000KT 10SM CLR 22/20 A3017 RMK AO2
KBLM 012356Z AUTO 25006KT 10SM SCT080 08/05 A3004 RMK AO2 SLPNO T00830050 10133 20083 53021
KPOU 012353Z 00000KT 10SM BKN080 OVC090 05/01 A2997 RMK AO2 SLP146 T00500011 10111 20033 53008
PAYA 012353Z AUTO 12022G35KT 4SM -RA BR OVC019 05/03 A2901 RMK AO2 PK WND 13041/2336 RAB02 SLP824 P0002 60006 T00500033 10061 20050 56007 TSNO $
KCIR 012355Z AUTO 00000KT 1/4SM OVC003 11/11 A2995 RMK AO2 T01140110 10146 20114
KFKA 012355Z AUTO 30004KT 7SM CLR M01/M02 A2997 RMK AO2 T10081025 10025 21008
OTHH 020000Z AUTO 32010KT CAVOK 18/13 Q1022 NOSIG
SBCH 020000Z 05005KT CAVOK 27/19 Q1011
LIPI 012355Z 16002KT 0900 FG SCT003 BKN007 10/10 Q1031
SESA 012300Z 23012KT CAVOK 25/22 Q1011 RMK A2987
KMRC 012355Z AUTO 00000KT 10SM CLR 17/10 A3000 RMK A01
UTDD 020000Z VRB02MPS 9999 NSC M02/M05 Q1030 R09/D NOSIG RMK QFE703/0937
YCEM 020000Z AUTO 01012G24KT //// // ////// 29/17 Q1006
RJFS 020000Z VRB02KT 5000 BR FEW040 SCT120 03/02 Q1028
DNSO 012000Z 04007KT 2000 HZ NSC 22/04 Q1016
KORB 012353Z AUTO 32005KT 7SM OVC007 M05/M06 A2987 RMK AO2
LFKJ 020000Z AUTO 04006KT CAVOK 10/08 Q1028 NOSIG
KCMH 012351Z 17003KT 10SM BKN020 BKN030 OVC100 10/09 A3005 RMK AO2 SLP179 T01000089 10106 20100 53009 $
OPIS 020000Z 20003KT 4000 BR NSC 04/02 Q1020 NOSIG
KDDC 012352Z AUTO 03013KT 10SM CLR 08/01 A2981 RMK AO2 SLP101 T00780011 10106 20078 58000 $
HESH 012300Z 34005KT CAVOK 19/11 Q1018 NOSIG
KLAS 012356Z 24005KT 10SM BKN050 BKN110 11/03 A2955 RMK AO2 SLP002 VIRGA DSNT NE SH DSNT E AND S T01110028 10133 20111 53015 $
PAHY 012356Z AUTO 08025G45KT 2 1/2SM RA OVC020 07/04 A2938 RMK AO2 PK WND 12058/2326 VIS 2 1/2V4 SLP948 P0009 60015 T00670039 10072 20067 56040 $
KSCH 010146Z 00000KT 1/4SM FG OVC002 06/06 A2974 RMK LAST
KGEV 012355Z AUTO 25006KT 10SM SCT022 SCT028 10/07 A3014 RMK AO2 T01010065 10139 20101
NZRO 020000Z 10009KT 070V140 34KM FEW042 OVC050 19/10 Q1023 RMK AUTO VATSIM USE
KCXP 010305Z AUTO 33005KT 2 1/2SM -SN BR BKN005 01/01 A2972 RMK AO2
MYAF 020000Z AUTO 08005KT 040V110 0000 FG SCT019 25/21 A3014
CYRA 312100Z VRB02KT 4SM -SN BR OVC005 M13/M15 A2957 RMK ST8 LAST STFD OBS/NEXT 011500 Z SLP038
GMAD 020000Z 07006KT CAVOK 13/12 Q1024 NOSIG
KSBA 012353Z 26021G29KT 10SM BKN041 BKN050 15/08 A2977 RMK AO2 PK WND 26029/2325 SLP082 T01500078 10167 20144 55000 $
KFAY 012353Z 25006KT 10SM FEW031 16/13 A3012 RMK AO2 SLP193 T01560128 10206 20150 53021
KMRT 012355Z AUTO 22004KT 7SM OVC013 09/08 A3004 RMK AO2 T00880079 10096 20088
KSNK 012355Z AUTO 20007KT 10SM CLR 20/01 A2981 RMK AO2 T02040011
KDAL 012353Z 16007KT 10SM BKN250 22/13 A2982 RMK AO2 SLP094 T02220133 10250 20217 53003
UERR 020000Z 27007MPS 9999 SCT030 M21/M24 Q1024 R25/390234 NOSIG RMK QFE737/0982
KHEG 012355Z AUTO 00000KT 7SM CLR 18/16 A3017 RMK AO2
KTDF 012335Z AUTO 00000KT 10SM CLR 10/10 A3013 RMK AO2
OIBV 011500Z 33010KT 5000 HZ NSC 22/12 Q1021
SCVM 020000Z 22007KT CAVOK 22/11 Q1018
SBSC 020000Z 30002KT 9999 BKN020 24/23 Q1014
UTSA 020000Z 08004KT 3000 BR NSC M04/M05 Q1031 R25/CLRD70 NOSIG
KDNL 012353Z AUTO 28003KT 10SM CLR 16/13 A3015 RMK AO2 SLP206 T01560128 10194 20150 53013
KCVX 012355Z AUTO 26009G15KT 10SM OVC023 02/M01 A2992 RMK AO2 T00201006 10025 20018
ROIG 020000Z 06016KT 9999 -SHRA FEW016 BKN025 18/16 Q1025
URKA 020000Z 20008MPS 7000 BKN009 10/08 Q1030 R22/010070 NOSIG RMK QFE768/1024
KSSI 012353Z AUTO 11003KT 1/4SM FG VV002 15/14 A3015 RMK AO2 SLP212 T01500139 10206 20150 53014
KRWL 020007Z AUTO 05017G25KT 2SM -SN BR OVC020 M03/M05 A2974 RMK AO2 P0000 T10331050
SLCB 020000Z 09010KT 040V150 9999 FEW033 FEW036CB BKN070 BKN200 24/07 Q1019
YPDN 020000Z 31018KT 9999 FEW025 BKN240 30/25 Q1004
KGYL 012355Z AUTO 26005KT 10SM CLR M06/M08 A2999 RMK AO2 T10591076 11030 21078
KSAZ 012355Z AUTO 28007KT 5SM BR OVC006 M06/M06 A2997 RMK AO2
VASU 011830Z 01006KT 6000 NSC 19/12 Q1017 NOSIG
KEZP 020000Z AUTO 16012KT 10SM SCT025 OVC040 23/22 A3000 RMK A01
KEZF 012355Z AUTO 00000KT 10SM CLR 09/06 A3002 RMK AO2 T00910060 10198 20091
KEZM 012355Z AUTO 00000KT 10SM CLR 13/13 A3016 RMK AO2
KEZZ 012355Z AUTO 03005KT 10SM CLR 06/02 A2993 RMK AO2 T00580024 10127 20057 401270000
KEZS 012355Z AUTO 00000KT 10SM CLR 02/00 A2992 RMK AO2 T00150000 10047 20015
SVFM 151903Z AUTO 13008KT NCD 25/17 Q1015
KLOT 012355Z 20007KT 3SM BR OVC004 04/04 A3000
KSPG 012353Z 00000KT 7SM CLR 23/22 A3012 RMK AO2 SLP199 T02280222 10228 20222 53006
LPLA 020000Z /////KT 9999 FEW020 13/09 Q1024
CYGV 260600Z AUTO /////KT FEW031 BKN066 M05/M11 A2948 RMK WIND MISG WX MISG VIS MISG ICE MISG SLP988
RCFN 020000Z 36008KT 310V050 9999 -RA FEW010 BKN045 OVC065 19/18 Q1024 NOSIG RMK A3026
LFQQ 020000Z AUTO 19016KT CAVOK 13/10 Q1009 TEMPO 18015G25KT 3000 RADZ OVC009
KAGO 012355Z AUTO 15004KT 4SM BR OVC034 18/17 A2991 RMK A01
KIWI 012353Z AUTO 00000KT 10SM FEW050 04/01 A2987 RMK AO2 SLP114 T00390011 10122 20039 51029
UUBC 020000Z AUTO 26007MPS 9999 // ///023/// 07/05 Q1004 RMK QFE736/0982
KCBK 012355Z AUTO 05011KT 10SM SCT120 02/01 A2986 RMK AO2 T00240007 10051 20024 400721033
KCOQ 012355Z AUTO 27006KT 4SM BR OVC006 M03/M04 A2989 RMK AO2 TSNO
KRCR 012355Z AUTO 15004KT 3SM BR OVC010 07/07 A2999 RMK AO2
YWDH 020000Z AUTO 36011KT 9999 // ////// 36/14 Q1007
KCMR 012355Z AUTO 18009G15KT 1/2SM -SN OVC003 M00/M01 A2962 RMK AO2
KHDE 012355Z AUTO 04006KT 10SM CLR 02/00 A2993 RMK AO2 T00181005 10055 20018
KILN 012354Z AUTO 20004KT 5SM BR OVC015 11/09 A3004 RMK AO2 SLP184 T01110094 10117 20111 53007
TGPY 020000Z 07005KT 9999 FEW017 25/23 Q1014 NOSIG
KGGE 012355Z AUTO 00000KT 7SM CLR 13/13 A3013 RMK AO2
VECC 020000Z 00000KT 1500 BR FEW100 17/16 Q1017 NOSIG
YBUD 020000Z AUTO 14013KT 9999 // SCT040 SCT046 27/16 Q1010
KSPB 012353Z AUTO 00000KT 10SM CLR 06/03 A3008 RMK AO2 SLP186 T00560028 10078 20044 58010
LGTS 012350Z VRB03KT 9999 FEW010 05/05 Q1032 NOSIG
DTTB 020000Z VRB02KT CAVOK 09/09 Q1028
SBSG 020000Z 16008KT 9999 FEW017 SCT070 26/24 Q1013
EHAM 012355Z 18007KT 150V210 9999 FEW004 SCT010 BKN014 11/10 Q1008 NOSIG
KALI 010553Z AUTO 16005KT 1/2SM FG VV002 16/16 A2993 RMK AO2 SLP132 T01610161 10233 20139 402890056 56005 TSNO $
YCBP 020000Z AUTO 14009KT 9999 // SCT110 35/06 Q1007
KMKG 012355Z 18004KT 4SM BR OVC011 03/01 A2999 RMK AO2 SLP161 T00330011 10050 20028 53011
UOOO 020000Z 19003MPS CAVOK M22/M25 Q1024 R19/39//31 NOSIG RMK QFE752/1003
KCNY 012353Z AUTO 13017G26KT 10SM BKN060 OVC120 08/02 A2955 RMK AO2 PK WND 14028/2343 SLP993 T00780022 10100 20078 58001
SKGO 302300Z AUTO 27006KT 250V320 9999 FEW001/// BKN060/// 26/17 Q1012
KFLP 012356Z AUTO 14004KT 10SM CLR 17/11 A2988 RMK AO2 SLP118 T01720111 10217 20150 53014
MNJG 012300Z 03010KT 9999 BKN010 22/15 Q1013
KSGR 012353Z 17007KT 10SM OVC039 23/18 A2990 RMK AO2 SLP127 T02280178 10278 20228 58000
LTAF 012350Z 00000KT CAVOK 06/M01 Q1028 NOSIG RMK RWY23 06004KT 030V090 SKC
SAWG 020000Z 27034G46KT CAVOK 18/07 Q0989
SCIE 020000Z 23009KT 190V250 CAVOK 17/12 Q1021
KFLD 012353Z AUTO 22004KT 10SM CLR 02/00 A2994 RMK AO2 SLP145 T00220000 10050 20022 50011
KORE 012352Z AUTO 00000KT 10SM CLR 01/M02 A2993 RMK AO2 SLP140 T00061022 10072 20006 51013
GGOV 012300Z 00000KT 8000 NSC 23/21 Q1013 NOSIG
KPSK 012355Z AUTO 23004KT 10SM SCT036 BKN050 09/08 A3011 RMK AO2 T00890079 10166 20085
KPVJ 290535Z AUTO 19009G16KT 10SM CLR 16/10 A2974 RMK AO2 T01600095
PAAQ 012353Z 35011KT 10SM BKN120 03/M05 A2869 RMK AO2 SLP717 60003 I6000 T00281050 10028 20011 50005
RJBE 020000Z 31007KT 9999 FEW025 SCT050 BKN070 07/00 Q1024
KCHD 012347Z 28006KT 4SM -RA BKN040 OVC050 12/10 A2973
KFRI 012355Z AUTO 02007KT 10SM CLR 09/03 A2990 RMK AO2 SLP131 T00920032 10137 20091 52034 FZRANO $
SBGR 020000Z 13005KT 8000 BKN011 21/19 Q1017
LZKZ 020000Z 06003KT 040V100 5000 BR SCT006 OVC047 06/05 Q1028 NOSIG
CYOD 020000Z 23005KT 6SM BR BKN160 M10/M11 A2984 RMK AC5 DENSITY ALT -1012FT SLP147
SPZO 020000Z 10004KT 020V170 9000 DZ VCSH BKN040 OVC070 12/06 Q1030 NOSIG RMK BIRD HAZARD RWY 10/28 PP001
PAVC 020006Z AUTO 26021G29KT 5SM -RA FEW009 BKN024 OVC029 02/M02 A2864 RMK AO2 PK WND 26029/0005 P0000 FZRANO
YESP 020000Z AUTO 13009KT 9999 // OVC033 18/10 Q1018
KLJF 012355Z AUTO 31005KT 10SM BKN005 M06/M07 A2998 RMK AO2
KMAF 012353Z 15003KT 10SM CLR 19/02 A2980 RMK AO2 SLP064 T01890022 10239 20189 58007
KMTO 012353Z AUTO 13005KT 5SM BR OVC004 11/09 A2998 RMK AO2 SLP155 T01060089 10133 20100 53013
KBKF 012358Z 04006KT 10SM SCT015 BKN060 BKN140 BKN200 M03/M04 A2982 RMK AO2A SLP121 4/001 T10281045 10009 21028 53013
HTBU 012100Z 00000KT 9999 FEW016 FEW018CB SCT090 19/16 Q1015
FAMM 011800Z 07005KT CAVOK 19/13 Q1021 NOSIG
YNHL 020000Z AUTO 21010KT //// // ////// 29/12 Q1006
RORS 020000Z 10006KT 9999 -RA FEW030 SCT040 BKN050 17/16 Q1025
CYXR 020008Z AUTO 17007KT 9SM SCT017 OVC076 M02/M04 A2986 RMK SLP128
KXSA 012355Z AUTO 00000KT 10SM CLR 10/10 A3007 RMK AO2 T00970097 10194 20097
KLAW 012353Z 11003KT 10SM CLR 16/04 A2976 RMK AO2 SLP078 T01610044 10244 20161 50002
KJYM 012355Z AUTO 26003KT 7SM OVC013 06/05 A2998 RMK AO2 T00550046 10065 20055
LFBY 020000Z AUTO 26008KT 200V310 9999 // ////// 19/01 Q1016
KDZJ 280835Z AUTO 00000KT 7SM CLR M07/M07 A3024 RMK AO2 T10671074
PARS 012356Z AUTO 03009KT 10SM BKN065 OVC080 A2876 RMK AO2 SLPNO 57003 FZRANO $
MMTJ 012355Z 25018KT 6SM BKN035 12/10 A2985 RMK SLP148 52026 964 60145 8/700 HZY
PFNO 012356Z AUTO 06009KT 10SM CLR M14/M18 A2911 RMK AO2 SLP941 T11441178 11139 21150 56018 FZRANO $
KDFW 012353Z 16009KT 10SM BKN250 22/12 A2981 RMK AO2 SLP090 T02170122 10256 20217 53004
RJOB 020000Z 28005KT 9999 FEW020 SCT140 05/00 Q1024
NZWN 020000Z 15013KT 9999 FEW037 BKN046 17/13 Q1025 RMK KAUKAU 15012KT AUTO VATS
CZMT 020000Z 16027G46KT 8SM -SHRA BKN015TCU OVC030 07/05 A2945 RMK TCU6SC2 PRESFR SLP973
KMHT 012353Z 26005KT 10SM OVC110 07/M02 A2989 RMK AO2 SLP136 T00671017 10117 20067 51019
LFRC 020000Z AUTO VRB03KT 9999 FEW004 OVC039 08/08 Q1011
EDDH 012350Z AUTO 16008KT 9999 SCT038 BKN045 11/08 Q1012 NOSIG
PHNG 012357Z AUTO 32005KT 10SM FEW026 OVC040 A3001 RMK AO2 SLP159 60001 57030
KEWR 012351Z 26007KT 10SM FEW110 BKN250 11/02 A3001 RMK AO2 SLP160 T01110017 10144 20094 53019
YBMA 020000Z AUTO 04012KT 9999 // ////// 27/23 Q1007
RJBB 020000Z 29017KT 9999 FEW025 SCT040 BKN070 09/04 Q1024 NOSIG
OEHL 020000Z 10006KT 3500 RA OVC020 08/08 Q1025 RERA
RPVM 020000Z 01006KT 9999 FEW020 BKN300 26/24 Q1013 NOSIG RMK A2991
YCWA 020000Z AUTO 36004KT 9999 // NCD 33/15 Q1007
KENV 012356Z AUTO VRB03KT 10SM -RA FEW024 BKN031 OVC038 01/M02 A2973 RMK AO2 UPE55RAB55 SLP086 6//// T00061022 10017 20006 53008 FZRANO PNO $
MNMG 020000Z 12006KT 9999 BKN021 26/22 Q1012 A2990 2AC070 NOSIG
KHLR 012355Z AUTO 16005KT 5SM HZ CLR 22/15 A2984 RMK AO2 SLP099 T02160145 10259 20216 55002
KMML 012356Z AUTO 00000KT 10SM CLR M05/M07 A3001 RMK AO2 SLP184 T10501067 11006 21056 51019 FZRANO
EGJJ 012350Z AUTO 24010KT 9999 FEW011/// OVC043/// 09/09 Q1012
URMN 020000Z 21003MPS 9999 OVC124 07/M03 Q1028 R24/////// NOSIG RMK QFE734
KSTE 012355Z AUTO 00000KT 7SM CLR M01/M02 A2993 RMK AO2 T10061022 10043 21006
KPIM 012355Z AUTO 18003KT 10SM CLR 13/12 A3013 RMK AO2 T01330116 10219 20133
KTBN 012355Z AUTO 14007KT 10SM CLR 11/09 A2987 RMK AO2 SLP118 T01120089 10172 20112 53012 $
RJOT 020000Z 23008KT 9999 FEW025 SCT040 06/01 Q1025
MMTM 012347Z 12008KT 2SM HZ SKC 23/20 A2986 RMK SLP110 57008 972
KHMZ 282355Z AUTO 00000KT 10SM CLR M01/M04 A3024 RMK AO2 T10071043 10074 21007
LGHI 012350Z 00000KT CAVOK 08/06 Q1029
KCIN 012355Z AUTO 33003KT 10SM BKN100 OVC110 02/02 A2999 RMK AO2
PATC 012355Z AUTO 02045G52KT M1/4SM +SN FG VV009 M16/M17 A2913 RMK AO2 PK WND 02052/2321 SNB2255 SLP875 P0000 60000 T11571174 11155 21174 56039
KMUI 301855Z COR 00000KT 10SM BKN070 12/M01 A3019 RMK SLPNO WND DATA ESTMD ALSTG ESTMD LAST COR 1907
SLSR 191900Z 34012KT 9999 SCT017 35/24 Q1006
KHVN 012353Z 27005KT 10SM FEW085 09/02 A2997 RMK AO2 SLP147 T00890022 10133 20083 51017
KCXW 012355Z AUTO 15009KT 10SM SCT024 SCT028 BKN034 18/ A2988 RMK A01
KCRS 012353Z AUTO 16009KT 10SM CLR 21/16 A2986 RMK AO2 SLP108 T02110156 10250 20211 55001
GMMW 020000Z 26004KT CAVOK 06/05 Q1024 NOSIG
CYDP 020000Z 31009KT 15SM -SHSN OVC022 M06/M08 A2978 RMK SC8 LAST STAFFED OBS/NEXT 020900 VIA CYXU SLP087
RJSC 020008Z 26009KT 230V310 1000 R01/2000N -SHSN FEW003 SCT005 BKN008 M01/M02 Q1019 RMK 1ST003 4ST005 6ST008 A3010
FZQA 291100Z 11004KT 9999 SCT020 BKN100 22/19 Q1016 NOSIG
LEBA 020000Z AUTO 00000KT 9000 NSC 08/07 Q1023
WMKL 020000Z 03005KT 320V080 9999 FEW020 26/21 Q1013
FKKL 311600Z /////KT CAVOK 27/03 Q1015
ESKM 012350Z AUTO 32003KT 9999 NCD M16/M16 Q1012
KBDG 020015Z AUTO 13013G22KT 7SM 03/03 A2972 RMK AO1 T00320030
LHPP 012345Z AUTO 24004KT CAVOK 09/07 Q1027
LHPR 012345Z AUTO 30002KT 0350 R29/0400N FG VV002 01/01 Q1026
LHPA 012345Z 00000KT 0200 R16/0250V0300U FG OVC002 02/02 Q1026 NOSIG RMK RED
CYJF 020000Z 23008KT 15SM FEW110 SCT150 SCT180 BKN230 M15/M18 A2967 RMK AC1AC3AC2CI2 AC TR SLP070
SEMC 012300Z 19003KT 9999 SCT023 SCT100 21/19 Q1015 RMK A2999
ULAA 020000Z 26004MPS 9999 OVC034 M01/M03 Q0986 R26/590538 NOSIG RMK QFE738/0984
RJFF 020000Z 17005KT 140V210 9999 FEW040 05/02 Q1028 BECMG 30006KT
LTAN 012350Z 32002KT CAVOK M04/M08 Q1032 NOSIG
KCDW 012353Z 19004KT 10SM CLR 05/00 A3000 RMK AO2 SLP167 T00500000 10128 20050 53018
NWWW 020000Z AUTO 26010KT 210V300 9999 FEW030 SCT043 28/22 Q1003 TEMPO SHRA BKN012 SCT020TCU
KOKC 012352Z 09004KT 10SM SCT200 BKN250 16/05 A2978 RMK AO2 SLP084 T01610050 10222 20161 51010
CYAB 191800Z 13017G22KT 5SM DRSN BKN030 OVC100 M27/M31 A3058 RMK SC5AS3 LAST STFD OBS/NXT 201200Z SLP361
WIMM 020000Z 31003KT 9999 SCT017 24/22 Q1012 NOSIG
ULLI 020000Z 28007G12MPS CAVOK M02/M05 Q1006 R28L/320145 NOSIG
HSOB 291100Z 01013KT CAVOK 25/03 Q1016
YGDH 020000Z AUTO 08006KT 040V120 //// // ////// 28/13 Q1012
LESB 020000Z AUTO 34005KT CAVOK 10/06 Q1024
ENHF 012350Z 27009KT 9999 FEW032 SCT046 BKN100 02/M03 Q0994 RMK WIND 1254FT 30027KT
KVLD 012353Z 18003KT 10SM CLR 17/16 A3015 RMK AO2 SLP216 T01670156 10250 20167 53014 $
WBSB 020000Z 18003KT 9999 SCT014 FEW015CB BKN140 26/26 Q1012 RESHRA NOSIG
SANC 150723Z 23020G32KT 9999 29/18 Q1008
KSDY 012356Z AUTO 19003KT 10SM CLR M08/M11 A2999 RMK AO2 SLP201 T10831111 10011 21083 51012 FZRANO
FEFT 231000Z 04014KT CAVOK 26/11 Q1015
ORSU 020000Z 07011KT CAVOK 07/M09 Q1030
YMGD 020004Z AUTO 25007KT 9999 -SHRA SCT009 SCT027 SCT070 24/23 Q1006 RESHRA
YCNY 020000Z AUTO 08004KT //// // ////// 25/24 Q1006
KBYG 012353Z AUTO 00000KT 10SM OVC085 01/M07 A2991 RMK AO2 SLP152 T00061067 10028 20006 53010
DAAE 020000Z 26011KT CAVOK 13/M01 Q1024
LFPT 020000Z AUTO 22017G27KT 9999 -RA NSC 13/11 Q1011
PAKW 020020Z AUTO 14014G25KT 4SM RA OVC029 07/03 A2933 RMK AO2 PK WND 16028/0005 P0005 T00720033 TSNO
LZTT 020000Z VRB01KT 3500 0200W R27/1400D BR BCFG FEW001 M02/M02 Q1026
UTDK 020000Z VRB01MPS 7000 OVC011 02/01 Q1030 R01/09//70 RMK QFE715/0953
KEDJ 012055Z AUTO 26006G11KT 10SM 10/09 A3000 RMK A01
NZWR 020000Z 08016KT 20KM FEW032 SCT042 BKN050 21/13 Q1019 RMK AUTO VATSIM USE O
PASC 012353Z 09006KT 2SM R06/5000VP6000FT BR OVC006 M17/M19 A2948 RMK AO2 SLP985 T11721189 11161 21178 56018 $
SKEJ 012300Z 05005KT 9999 SCT015 30/23 Q1009 RMK A2980
KDNL 012353Z AUTO 28003KT 10SM CLR 16/13 A3015 RMK AO2 SLP206 T01560128 10194 20150 53013
TQPF 020000Z 07006KT 9999 FEW018 25/21 Q1018
LFMH 020000Z AUTO 19013KT 150V250 CAVOK 14/05 Q1021
KNFG 012352Z AUTO 26009G20KT 9SM SCT032 BKN041 OVC049 14/09 A2977 RMK AO2 SLP080 60005 T01440094 10161 20133 53002 $
UTSA 020000Z 08004KT 3000 BR NSC M04/M05 Q1031 R25/CLRD70 NOSIG
KCVX 012355Z AUTO 26009G15KT 10SM OVC023 02/M01 A2992 RMK AO2 T00201006 10025 20018
KCAR 012354Z AUTO 31004KT 10SM OVC028 01/M03 A2977 RMK AO2 SLP092 60003 T00061028 10011 20006 51025
LQMO 020000Z 15003KT 9000 2000SE FEW002 03/03 Q1030
YHAY 020008Z AUTO 24021KT 210V360 //// TS ////// 24/20 Q1010
YCOM 020000Z AUTO 11004KT 050V170 9999 // NCD 25/18 Q1013
LPFR 020000Z 05003KT 9999 SCT006 BKN025 16/16 Q1022
FQCH 011900Z 15005KT 9999 SCT020 24/18 Q1017 NOSIG
WIPP 020000Z 26003KT 9999 SCT010 25/23 Q1012 NOSIG
VTBS 020000Z 04003KT 010V070 9999 FEW025 22/15 Q1016 NOSIG
SKLT 020000Z 00000KT 9999 SCT015 25/25 Q1008 RMK A2979
HKLO 011300Z 09014KT CAVOK 34/11 Q1007
SELT 020000Z 01006KT 9999 OVC030 10/10 Q1029
LFMO 020000Z AUTO 07003KT CAVOK 06/06 Q1026 NOSIG
KAQP 020013Z AUTO 34004KT 10SM M04/M06 A3002 RMK AO2 TSNO
KTUL 012353Z 00000KT 10SM FEW110 BKN250 17/06 A2980 RMK AO2 SLP090 T01670061 10222 20167 53021
SARL 020000Z 07007KT 8000 -RA FEW010 OVC040 FEW050CB 23/23 Q1009 RMK CB OBS TO N
KFYV 012353Z 00000KT 10SM CLR 14/09 A2985 RMK AO2 SLP106 T01440089 10217 20144 53014
GOTK 012100Z 00000KT CAVOK 27/06 Q1011
KGRD 020018Z AUTO 20003KT 3SM BR CLR 12/12 A3015 RMK AO2 T01220122
CPIR 020000Z AUTO 19006KT M02/M04 RMK AO1 T10161035
CPIN 020000Z AUTO 33004KT ////SM ////// ///// A////
KFWN 012353Z AUTO 00000KT 10SM BKN065 01/M01 A3000 RMK AO2 SLP162 T00111006 10111 20011 53015
MGCB 020000Z 00000KT 9999 FEW018 20/17 QFE 871.6
KLNC 020015Z AUTO 15005KT 10SM CLR 18/12 A2985 RMK AO2 T01840122
RJSI 020000Z 26007KT 210V300 9999 -SHSN FEW010 SCT020 BKN030 M02/M07 Q1017
CYPW 020000Z 10004KT 20SM SCT033 BKN210 OVC220 05/05 A3007 RMK SC4CS1CI3 SLP188
SBSP 020000Z 16008KT 9999 BKN011 21/18 Q1018
EFKE 012350Z AUTO 26008KT CAVOK M05/M07 Q1000
KCVG 012352Z 18005KT 7SM OVC008 11/11 A3004 RMK AO2 SLP172 T01110106 10111 20106 53008
KUCP 012356Z AUTO 00000KT 10SM BKN012 OVC020 08/07 A3004 RMK AO2 SLP195 60000 T00780072 10089 20067 53015
KLFK 012353Z AUTO 11004KT 9SM SCT036 21/19 A2991 RMK AO2 SLP126 T02060189 10239 20206 56004
CYAT 020000Z AUTO 00000KT 9SM FEW008 M19/M21 A2991 RMK SLP131
KBXA 020015Z AUTO 17005KT 10SM OVC005 21/19 A3007 RMK AO2 T02070190
SLSA 012200Z 34006KT 9999 FEW017 BKN200 32/23 Q1006
KJEF 012353Z 00000KT 10SM CLR 14/08 A2987 RMK AO2 SLP106 T01390083 10200 20139 53007 $
SKIB 020000Z 25003KT 9999 SCT020 22/21 Q1017 RMK A3005
LFMV 020000Z AUTO 14004KT CAVOK 10/08 Q1026
FAUT 011800Z 15008KT CAVOK 19/17 Q1017
KNBG 012355Z AUTO 11004KT 3/4SM BR VV002 19/19 A3005 RMK AO2 SLP176 6//// T01890189 10206 20183 50002 $
VOAT 010900Z 35011G21KT 6000 SCT015 31/23 Q1013 NOSIG
LFYR 020000Z AUTO 23006KT CAVOK 15/09 Q1015
VIAR 020000Z 00000KT 0000 R34/0100 FG VV/// 04/04 Q1020 NOSIG
KYIP 012353Z 25005KT 10SM OVC020 07/05 A2999 RMK AO2 SLP159 T00720050 10078 20056 51017
KABQ 012352Z 12007KT 10SM FEW045 SCT120 OVC170 08/02 A2976 RMK AO2 SLP056 MTN TOPS OBSC NE T00830022 10100 20050 58012
YYNG 020000Z AUTO 03004KT 340V070 //// // NCD 28/18 Q1012
USTR 020000Z 16005MPS 9999 DRSN BKN040 M23/M25 Q1019 R30/450255 R21/450255 TEMPO 17010MPS 1000 SHSN BLSN BKN004 BKN015CB
KMQJ 020015Z AUTO 16004KT 10SM OVC013 09/09 A3003 RMK AO1
KDQH 020015Z AUTO 00000KT 10SM CLR 16/12 A3017 RMK AO2 T01600116
EGBJ 311420Z 18004KT 7000 -SHRA SCT012 OVC025 12/11 Q0996
VTSF 020000Z 34002KT 9999 FEW018 23/23 Q1014 NOSIG
YABA 020000Z AUTO 14008KT 9999 // OVC030 18/11 Q1019
LFTW 020000Z AUTO 12009KT 9999 BKN014 OVC019 13/10 Q1026
LHPR 012345Z AUTO 30002KT 0350 R29/0400N FG VV002 01/01 Q1026
ENSD 012350Z AUTO 00000KT 9999 OVC045/// M03/M07 Q1008 RMK WIND RWY26 VRB03KT WIND 1140FT 09005KT
LFBE 020000Z AUTO 15016KT CAVOK 15/08 Q1016
KMSO 012353Z 00000KT 10SM OVC049 M01/M02 A3001 RMK AO2 SLP195 T10061022 10000 21022 53004
HCMM 011300Z 08015KT 9999 FEW023 29/24 Q1012
FQLC 020000Z 12006KT 9999 SCT020 17/17 Q1020
KBRO 012353Z 15011KT 9SM CLR 23/21 A2986 RMK AO2 SLP111 T02330211 10283 20233 53000
SVMI 020003Z AUTO 00000KT NCD ///// Q////
EDDE 012350Z AUTO 19009KT CAVOK 13/07 Q1016
EGCK 012350Z AUTO 32008KT 9999 OVC023/// 08/04 Q1007
KHRL 012352Z 16014KT 10SM CLR 24/20 A2984 RMK AO2 SLP105 T02440200 10289 20244 56001 $
KAJO 012356Z AUTO 25012G18KT 10SM FEW100 13/07 A2972 RMK AO2 SLP062 60000 T01330072 10156 20128 55003
LOWG 012350Z AUTO VRB01KT 4800 0450W R16/P1500U R34/P1500U BCFG NCD M01/M01 Q1025
RKSW 300009Z 36001KT 4800 BR SCT050 M05/M05 A3054
EDMO 012350Z AUTO 16003KT 110V230 9999 // NCD 06/02 Q1021
DAUL 020000Z 00000KT CAVOK 03/M02 Q1028
OEDF 020000Z 30015KT 9999 FEW040 SCT100 13/08 Q1024 NOSIG
RJFG 020000Z 31011KT 6000 NSC 10/05 Q1026
KMHR 020015Z AUTO 33017G23KT 10SM CLR 14/M01 A2981 RMK A01
KERI 012351Z 23005KT 2SM BR OVC003 04/04 A3003 RMK AO2 SLP173 60003 T00440039 10072 20044 51018
MMPN 012340Z 00000KT 15SM FEW050 21/10 A3019 RMK 8/500 HZY AC
VAUD 020000Z 00000KT 2500 HZ NSC 08/06 Q1019 NOSIG
YBNS 020000Z AUTO 15013KT 9999 // SCT105 30/18 Q1007
KREO 012352Z AUTO 36012KT 02/M05 A2990 RMK AO1 SLP148 T00171050 10033 20011 58001
UMMG 011300Z 26009G12MPS CAVOK 15/06 Q1012 NOSIG
LIBF 012150Z 29004KT 0100 FG VV/// 09/09 Q1031
KGGG 012353Z AUTO 16009KT 10SM CLR 19/17 A2989 RMK AO2 SLP118 T01940172 10228 20194 56003
LTCV 012350Z 24010KT CAVOK 01/M04 Q1029
KRNC 020015Z AUTO 00000KT 10SM CLR 11/08 A3006 RMK A01
SCRG 020000Z 19007KT CAVOK 25/09 Q1018
LTAG 012350Z 24002KT CAVOK 06/00 Q1028 NOSIG RMK SKC
EGVO 012350Z AUTO 20006KT 9999 // OVC081/// 06/06 Q1009
UADD 020000Z 20004MPS 9999 NSC M01/M06 Q1027 NOSIG RMK QFE712/0950
EIDL 302000Z 29020KT 9999 BKN042 06/02 Q0986
KRZN 020015Z AUTO 27006KT 10SM SCT008 OVC016 M02/M04 A2996 RMK AO2 T10181040
EGHH 012150Z 15001KT 6000 FEW031 08/07 Q1008 RERA
KFOE 012353Z 02008KT 10SM CLR 11/04 A2987 RMK AO2 SLP117 T01060044 10156 20106 51024
LTBR 012350Z VRB01KT 6000 NSC M01/M01 Q1031 BECMG 4500 BR
KAHN 012351Z VRB03KT 10SM CLR 14/12 A3012 RMK AO2 SLP201 T01440122 10189 20144 51011
RKTB 291505Z 19003KT 9999 -SN OVC020 01/M02 A3048 RMK CIG020
LTFH 012350Z 16004KT 7000 NSC 00/M01 Q1033 NOSIG
UGTB 020000Z 29010KT CAVOK 04/M03 Q1032 NOSIG
VVTS 020000Z VRB03KT 8000 FEW017 BKN050 24/21 Q1014 NOSIG
EGQL 012350Z 26008KT 9999 SCT016 BKN130 01/M00 Q1004 RMK WHT
LUKK 020000Z 24005KT CAVOK 06/05 Q1026 TEMPO 3000 BR
KBMQ 012353Z AUTO VRB03KT 10SM CLR 22/13 A2987 RMK AO2 SLP105 T02170133 10267 20217 55002
SKAR 020000Z 00000KT 9000 VCSH BKN017 BKN080 20/19 Q1022 RMK VCSH/N A3019
CYSJ 020000Z 33013KT 5SM BR BKN006 OVC013 01/01 A2973 RMK SC5SC3 SLP073
KEYF 020015Z AUTO 28006KT 10SM SCT034 SCT043 16/13 A3014 RMK AO2 T01610127
EBOS 012350Z 20007KT 4500 -RADZ SCT007 BKN024 11/09 Q1008 TEMPO BKN008
KCEW 012353Z AUTO 00000KT 10SM CLR 18/15 A3012 RMK AO2 SLP197 T01780150 10272 20178 53009
LKKV 020000Z VRB02KT CAVOK 09/04 Q1020
LIEE 012350Z 04002KT CAVOK 08/07 Q1028
KONP 012235Z 06006KT 10SM BKN016 07/05 A3009 RMK OB ENTERED BY NWS PORTLAND
KBHB 010107Z AUTO 08/08 RMK AO2 RAEMM P0000 PWINO RVRNO $
KCLK 020015Z AUTO 05007KT 10SM CLR 14/02 A2979 RMK AO2
KORH 012354Z 26006KT 10SM CLR 03/M02 A2990 RMK AO2 SLP133 T00331017 10078 20033 51014
YBTH 020000Z AUTO 01005KT 250V050 9999 // NCD 23/14 Q1015
CYQW 020000Z AUTO 00000KT 9SM OVC004 M09/M10 A2989 RMK SLP166
VOAR 020000Z VRB02KT 2100 BR FEW018 FEW100 22/21 Q1015 NOSIG
KDXR 012353Z 00000KT 10SM FEW075 03/M01 A2999 RMK AO2 SLP156 T00281011 10117 20028 53014
KLOT 012355Z 20007KT 3SM BR OVC004 04/04 A3000
KSPG 012353Z 00000KT 7SM CLR 23/22 A3012 RMK AO2 SLP199 T02280222 10228 20222 53006
LPLA 020000Z /////KT 9999 FEW020 13/09 Q1024
CYGV 260600Z AUTO /////KT FEW031 BKN066 M05/M11 A2948 RMK WIND MISG WX MISG VIS MISG ICE MISG SLP988
RCFN 020000Z 36008KT 310V050 9999 -RA FEW010 BKN045 OVC065 19/18 Q1024 NOSIG RMK A3026
LFQQ 020000Z AUTO 19016KT CAVOK 13/10 Q1009 TEMPO 18015G25KT 3000 RADZ OVC009
KAGO 012355Z AUTO 15004KT 4SM BR OVC034 18/17 A2991 RMK A01
KIWI 012353Z AUTO 00000KT 10SM FEW050 04/01 A2987 RMK AO2 SLP114 T00390011 10122 20039 51029
UUBC 020000Z AUTO 26007MPS 9999 // ///023/// 07/05 Q1004 RMK QFE736/0982
KCBK 012355Z AUTO 05011KT 10SM SCT120 02/01 A2986 RMK AO2 T00240007 10051 20024 400721033
KCOQ 012355Z AUTO 27006KT 4SM BR OVC006 M03/M04 A2989 RMK AO2 TSNO
KRCR 012355Z AUTO 15004KT 3SM BR OVC010 07/07 A2999 RMK AO2
YWDH 020000Z AUTO 36011KT 9999 // ////// 36/14 Q1007
KCMR 012355Z AUTO 18009G15KT 1/2SM -SN OVC003 M00/M01 A2962 RMK AO2
KHDE 012355Z AUTO 04006KT 10SM CLR 02/00 A2993 RMK AO2 T00181005 10055 20018
KILN 012354Z AUTO 20004KT 5SM BR OVC015 11/09 A3004 RMK AO2 SLP184 T01110094 10117 20111 53007
TGPY 020000Z 07005KT 9999 FEW017 25/23 Q1014 NOSIG
KGGE 012355Z AUTO 00000KT 7SM CLR 13/13 A3013 RMK AO2
VECC 020000Z 00000KT 1500 BR FEW100 17/16 Q1017 NOSIG
YBUD 020000Z AUTO 14013KT 9999 // SCT040 SCT046 27/16 Q1010
KSPB 012353Z AUTO 00000KT 10SM CLR 06/03 A3008 RMK AO2 SLP186 T00560028 10078 20044 58010
LGTS 012350Z VRB03KT 9999 FEW010 05/05 Q1032 NOSIG
DTTB 020000Z VRB02KT CAVOK 09/09 Q1028
SBSG 020000Z 16008KT 9999 FEW017 SCT070 26/24 Q1013
EHAM 012355Z 18007KT 150V210 9999 FEW004 SCT010 BKN014 11/10 Q1008 NOSIG
KALI 010553Z AUTO 16005KT 1/2SM FG VV002 16/16 A2993 RMK AO2 SLP132 T01610161 10233 20139 402890056 56005 TSNO $
YCBP 020000Z AUTO 14009KT 9999 // SCT110 35/06 Q1007
KMKG 012355Z 18004KT 4SM BR OVC011 03/01 A2999 RMK AO2 SLP161 T00330011 10050 20028 53011
UOOO 020000Z 19003MPS CAVOK M22/M25 Q1024 R19/39//31 NOSIG RMK QFE752/1003
KCNY 012353Z AUTO 13017G26KT 10SM BKN060 OVC120 08/02 A2955 RMK AO2 PK WND 14028/2343 SLP993 T00780022 10100 20078 58001
SKGO 302300Z AUTO 27006KT 250V320 9999 FEW001/// BKN060/// 26/17 Q1012
KFLP 012356Z AUTO 14004KT 10SM CLR 17/11 A2988 RMK AO2 SLP118 T01720111 10217 20150 53014
MNJG 012300Z 03010KT 9999 BKN010 22/15 Q1013
KSGR 012353Z 17007KT 10SM OVC039 23/18 A2990 RMK AO2 SLP127 T02280178 10278 20228 58000
LTAF 012350Z 00000KT CAVOK 06/M01 Q1028 NOSIG RMK RWY23 06004KT 030V090 SKC
SAWG 020000Z 27034G46KT CAVOK 18/07 Q0989
SCIE 020000Z 23009KT 190V250 CAVOK 17/12 Q1021
KFLD 012353Z AUTO 22004KT 10SM CLR 02/00 A2994 RMK AO2 SLP145 T00220000 10050 20022 50011
KORE 012352Z AUTO 00000KT 10SM CLR 01/M02 A2993 RMK AO2 SLP140 T00061022 10072 20006 51013
GGOV 012300Z 00000KT 8000 NSC 23/21 Q1013 NOSIG
KPSK 012355Z AUTO 23004KT 10SM SCT036 BKN050 09/08 A3011 RMK AO2 T00890079 10166 20085
KPVJ 290535Z AUTO 19009G16KT 10SM CLR 16/10 A2974 RMK AO2 T01600095
PAAQ 012353Z 35011KT 10SM BKN120 03/M05 A2869 RMK AO2 SLP717 60003 I6000 T00281050 10028 20011 50005
RJBE 020000Z 31007KT 9999 FEW025 SCT050 BKN070 07/00 Q1024
KCHD 012347Z 28006KT 4SM -RA BKN040 OVC050 12/10 A2973
KFRI 012355Z AUTO 02007KT 10SM CLR 09/03 A2990 RMK AO2 SLP131 T00920032 10137 20091 52034 FZRANO $
SBGR 020000Z 13005KT 8000 BKN011 21/19 Q1017
LZKZ 020000Z 06003KT 040V100 5000 BR SCT006 OVC047 06/05 Q1028 NOSIG
CYOD 020000Z 23005KT 6SM BR BKN160 M10/M11 A2984 RMK AC5 DENSITY ALT -1012FT SLP147
SPZO 020000Z 10004KT 020V170 9000 DZ VCSH BKN040 OVC070 12/06 Q1030 NOSIG RMK BIRD HAZARD RWY 10/28 PP001
PAVC 020006Z AUTO 26021G29KT 5SM -RA FEW009 BKN024 OVC029 02/M02 A2864 RMK AO2 PK WND 26029/0005 P0000 FZRANO
YESP 020000Z AUTO 13009KT 9999 // OVC033 18/10 Q1018
KLJF 012355Z AUTO 31005KT 10SM BKN005 M06/M07 A2998 RMK AO2
KMAF 012353Z 15003KT 10SM CLR 19/02 A2980 RMK AO2 SLP064 T01890022 10239 20189 58007
KMTO 012353Z AUTO 13005KT 5SM BR OVC004 11/09 A2998 RMK AO2 SLP155 T01060089 10133 20100 53013
KBKF 012358Z 04006KT 10SM SCT015 BKN060 BKN140 BKN200 M03/M04 A2982 RMK AO2A SLP121 4/001 T10281045 10009 21028 53013
HTBU 012100Z 00000KT 9999 FEW016 FEW018CB SCT090 19/16 Q1015
FAMM 011800Z 07005KT CAVOK 19/13 Q1021 NOSIG
YNHL 020000Z AUTO 21010KT //// // ////// 29/12 Q1006
RORS 020000Z 10006KT 9999 -RA FEW030 SCT040 BKN050 17/16 Q1025
CYXR 020008Z AUTO 17007KT 9SM SCT017 OVC076 M02/M04 A2986 RMK SLP128
KXSA 012355Z AUTO 00000KT 10SM CLR 10/10 A3007 RMK AO2 T00970097 10194 20097
KLAW 012353Z 11003KT 10SM CLR 16/04 A2976 RMK AO2 SLP078 T01610044 10244 20161 50002
KJYM 012355Z AUTO 26003KT 7SM OVC013 06/05 A2998 RMK AO2 T00550046 10065 20055
LFBY 020000Z AUTO 26008KT 200V310 9999 // ////// 19/01 Q1016
KDZJ 280835Z AUTO 00000KT 7SM CLR M07/M07 A3024 RMK AO2 T10671074
PARS 012356Z AUTO 03009KT 10SM BKN065 OVC080 A2876 RMK AO2 SLPNO 57003 FZRANO $
MMTJ 012355Z 25018KT 6SM BKN035 12/10 A2985 RMK SLP148 52026 964 60145 8/700 HZY
PFNO 012356Z AUTO 06009KT 10SM CLR M14/M18 A2911 RMK AO2 SLP941 T11441178 11139 21150 56018 FZRANO $
KDFW 012353Z 16009KT 10SM BKN250 22/12 A2981 RMK AO2 SLP090 T02170122 10256 20217 53004
RJOB 020000Z 28005KT 9999 FEW020 SCT140 05/00 Q1024
NZWN 020000Z 15013KT 9999 FEW037 BKN046 17/13 Q1025 RMK KAUKAU 15012KT AUTO VATS
CZMT 020000Z 16027G46KT 8SM -SHRA BKN015TCU OVC030 07/05 A2945 RMK TCU6SC2 PRESFR SLP973
KMHT 012353Z 26005KT 10SM OVC110 07/M02 A2989 RMK AO2 SLP136 T00671017 10117 20067 51019
LFRC 020000Z AUTO VRB03KT 9999 FEW004 OVC039 08/08 Q1011
EDDH 012350Z AUTO 16008KT 9999 SCT038 BKN045 11/08 Q1012 NOSIG
PHNG 012357Z AUTO 32005KT 10SM FEW026 OVC040 A3001 RMK AO2 SLP159 60001 57030
KEWR 012351Z 26007KT 10SM FEW110 BKN250 11/02 A3001 RMK AO2 SLP160 T01110017 10144 20094 53019
YBMA 020000Z AUTO 04012KT 9999 // ////// 27/23 Q1007
RJBB 020000Z 29017KT 9999 FEW025 SCT040 BKN070 09/04 Q1024 NOSIG
OEHL 020000Z 10006KT 3500 RA OVC020 08/08 Q1025 RERA
RPVM 020000Z 01006KT 9999 FEW020 BKN300 26/24 Q1013 NOSIG RMK A2991
YCWA 020000Z AUTO 36004KT 9999 // NCD 33/15 Q1007
KENV 012356Z AUTO VRB03KT 10SM -RA FEW024 BKN031 OVC038 01/M02 A2973 RMK AO2 UPE55RAB55 SLP086 6//// T00061022 10017 20006 53008 FZRANO PNO $
MNMG 020000Z 12006KT 9999 BKN021 26/22 Q1012 A2990 2AC070 NOSIG
KHLR 012355Z AUTO 16005KT 5SM HZ CLR 22/15 A2984 RMK AO2 SLP099 T02160145 10259 20216 55002
KMML 012356Z AUTO 00000KT 10SM CLR M05/M07 A3001 RMK AO2 SLP184 T10501067 11006 21056 51019 FZRANO
EGJJ 012350Z AUTO 24010KT 9999 FEW011/// OVC043/// 09/09 Q1012
URMN 020000Z 21003MPS 9999 OVC124 07/M03 Q1028 R24/////// NOSIG RMK QFE734
KSTE 012355Z AUTO 00000KT 7SM CLR M01/M02 A2993 RMK AO2 T10061022 10043 21006
KPIM 012355Z AUTO 18003KT 10SM CLR 13/12 A3013 RMK AO2 T01330116 10219 20133
KTBN 012355Z AUTO 14007KT 10SM CLR 11/09 A2987 RMK AO2 SLP118 T01120089 10172 20112 53012 $
RJOT 020000Z 23008KT 9999 FEW025 SCT040 06/01 Q1025
MMTM 012347Z 12008KT 2SM HZ SKC 23/20 A2986 RMK SLP110 57008 972
KHMZ 282355Z AUTO 00000KT 10SM CLR M01/M04 A3024 RMK AO2 T10071043 10074 21007
LGHI 012350Z 00000KT CAVOK 08/06 Q1029
KCIN 012355Z AUTO 33003KT 10SM BKN100 OVC110 02/02 A2999 RMK AO2
PATC 012355Z AUTO 02045G52KT M1/4SM +SN FG VV009 M16/M17 A2913 RMK AO2 PK WND 02052/2321 SNB2255 SLP875 P0000 60000 T11571174 11155 21174 56039
KMUI 301855Z COR 00000KT 10SM BKN070 12/M01 A3019 RMK SLPNO WND DATA ESTMD ALSTG ESTMD LAST COR 1907
SLSR 191900Z 34012KT 9999 SCT017 35/24 Q1006
KHVN 012353Z 27005KT 10SM FEW085 09/02 A2997 RMK AO2 SLP147 T00890022 10133 20083 51017
KCXW 012355Z AUTO 15009KT 10SM SCT024 SCT028 BKN034 18/ A2988 RMK A01
KCRS 012353Z AUTO 16009KT 10SM CLR 21/16 A2986 RMK AO2 SLP108 T02110156 10250 20211 55001
GMMW 020000Z 26004KT CAVOK 06/05 Q1024 NOSIG
CYDP 020000Z 31009KT 15SM -SHSN OVC022 M06/M08 A2978 RMK SC8 LAST STAFFED OBS/NEXT 020900 VIA CYXU SLP087
RJSC 020008Z 26009KT 230V310 1000 R01/2000N -SHSN FEW003 SCT005 BKN008 M01/M02 Q1019 RMK 1ST003 4ST005 6ST008 A3010
FZQA 291100Z 11004KT 9999 SCT020 BKN100 22/19 Q1016 NOSIG
LEBA 020000Z AUTO 00000KT 9000 NSC 08/07 Q1023
WMKL 020000Z 03005KT 320V080 9999 FEW020 26/21 Q1013
FKKL 311600Z /////KT CAVOK 27/03 Q1015
ESKM 012350Z AUTO 32003KT 9999 NCD M16/M16 Q1012
KBDG 020015Z AUTO 13013G22KT 7SM 03/03 A2972 RMK AO1 T00320030
LHPP 012345Z AUTO 24004KT CAVOK 09/07 Q1027
LHPR 012345Z AUTO 30002KT 0350 R29/0400N FG VV002 01/01 Q1026
LHPA 012345Z 00000KT 0200 R16/0250V0300U FG OVC002 02/02 Q1026 NOSIG RMK RED
CYJF 020000Z 23008KT 15SM FEW110 SCT150 SCT180 BKN230 M15/M18 A2967 RMK AC1AC3AC2CI2 AC TR SLP070
SEMC 012300Z 19003KT 9999 SCT023 SCT100 21/19 Q1015 RMK A2999
ULAA 020000Z 26004MPS 9999 OVC034 M01/M03 Q0986 R26/590538 NOSIG RMK QFE738/0984
RJFF 020000Z 17005KT 140V210 9999 FEW040 05/02 Q1028 BECMG 30006KT
LTAN 012350Z 32002KT CAVOK M04/M08 Q1032 NOSIG
KCDW 012353Z 19004KT 10SM CLR 05/00 A3000 RMK AO2 SLP167 T00500000 10128 20050 53018
NWWW 020000Z AUTO 26010KT 210V300 9999 FEW030 SCT043 28/22 Q1003 TEMPO SHRA BKN012 SCT020TCU
KOKC 012352Z 09004KT 10SM SCT200 BKN250 16/05 A2978 RMK AO2 SLP084 T01610050 10222 20161 51010
CYAB 191800Z 13017G22KT 5SM DRSN BKN030 OVC100 M27/M31 A3058 RMK SC5AS3 LAST STFD OBS/NXT 201200Z SLP361
WIMM 020000Z 31003KT 9999 SCT017 24/22 Q1012 NOSIG
ULLI 020000Z 28007G12MPS CAVOK M02/M05 Q1006 R28L/320145 NOSIG
HSOB 291100Z 01013KT CAVOK 25/03 Q1016
YGDH 020000Z AUTO 08006KT 040V120 //// // ////// 28/13 Q1012
LESB 020000Z AUTO 34005KT CAVOK 10/06 Q1024
ENHF 012350Z 27009KT 9999 FEW032 SCT046 BKN100 02/M03 Q0994 RMK WIND 1254FT 30027KT
KVLD 012353Z 18003KT 10SM CLR 17/16 A3015 RMK AO2 SLP216 T01670156 10250 20167 53014 $
WBSB 020000Z 18003KT 9999 SCT014 FEW015CB BKN140 26/26 Q1012 RESHRA NOSIG
SANC 150723Z 23020G32KT 9999 29/18 Q1008
KSDY 012356Z AUTO 19003KT 10SM CLR M08/M11 A2999 RMK AO2 SLP201 T10831111 10011 21083 51012 FZRANO
FEFT 231000Z 04014KT CAVOK 26/11 Q1015
ORSU 020000Z 07011KT CAVOK 07/M09 Q1030
YMGD 020004Z AUTO 25007KT 9999 -SHRA SCT009 SCT027 SCT070 24/23 Q1006 RESHRA
YCNY 020000Z AUTO 08004KT //// // ////// 25/24 Q1006
KBYG 012353Z AUTO 00000KT 10SM OVC085 01/M07 A2991 RMK AO2 SLP152 T00061067 10028 20006 53010
DAAE 020000Z 26011KT CAVOK 13/M01 Q1024
LFPT 020000Z AUTO 22017G27KT 9999 -RA NSC 13/11 Q1011
PAKW 020020Z AUTO 14014G25KT 4SM RA OVC029 07/03 A2933 RMK AO2 PK WND 16028/0005 P0005 T00720033 TSNO
LZTT 020000Z VRB01KT 3500 0200W R27/1400D BR BCFG FEW001 M02/M02 Q1026
UTDK 020000Z VRB01MPS 7000 OVC011 02/01 Q1030 R01/09//70 RMK QFE715/0953
KEDJ 012055Z AUTO 26006G11KT 10SM 10/09 A3000 RMK A01
NZWR 020000Z 08016KT 20KM FEW032 SCT042 BKN050 21/13 Q1019 RMK AUTO VATSIM USE O
PASC 012353Z 09006KT 2SM R06/5000VP6000FT BR OVC006 M17/M19 A2948 RMK AO2 SLP985 T11721189 11161 21178 56018 $
SKEJ 012300Z 05005KT 9999 SCT015 30/23 Q1009 RMK A2980
KDNL 012353Z AUTO 28003KT 10SM CLR 16/13 A3015 RMK AO2 SLP206 T01560128 10194 20150 53013
TQPF 020000Z 07006KT 9999 FEW018 25/21 Q1018
LFMH 020000Z AUTO 19013KT 150V250 CAVOK 14/05 Q1021
KNFG 012352Z AUTO 26009G20KT 9SM SCT032 BKN041 OVC049 14/09 A2977 RMK AO2 SLP080 60005 T01440094 10161 20133 53002 $
UTSA 020000Z 08004KT 3000 BR NSC M04/M05 Q1031 R25/CLRD70 NOSIG
KCVX 012355Z AUTO 26009G15KT 10SM OVC023 02/M01 A2992 RMK AO2 T00201006 10025 20018
KCAR 012354Z AUTO 31004KT 10SM OVC028 01/M03 A2977 RMK AO2 SLP092 60003 T00061028 10011 20006 51025
LQMO 020000Z 15003KT 9000 2000SE FEW002 03/03 Q1030
YHAY 020008Z AUTO 24021KT 210V360 //// TS ////// 24/20 Q1010
YCOM 020000Z AUTO 11004KT 050V170 9999 // NCD 25/18 Q1013
LPFR 020000Z 05003KT 9999 SCT006 BKN025 16/16 Q1022
FQCH 011900Z 15005KT 9999 SCT020 24/18 Q1017 NOSIG
WIPP 020000Z 26003KT 9999 SCT010 25/23 Q1012 NOSIG
VTBS 020000Z 04003KT 010V070 9999 FEW025 22/15 Q1016 NOSIG
SKLT 020000Z 00000KT 9999 SCT015 25/25 Q1008 RMK A2979
HKLO 011300Z 09014KT CAVOK 34/11 Q1007
SELT 020000Z 01006KT 9999 OVC030 10/10 Q1029
LFMO 020000Z AUTO 07003KT CAVOK 06/06 Q1026 NOSIG
KAQP 020013Z AUTO 34004KT 10SM M04/M06 A3002 RMK AO2 TSNO
KTUL 012353Z 00000KT 10SM FEW110 BKN250 17/06 A2980 RMK AO2 SLP090 T01670061 10222 20167 53021
SARL 020000Z 07007KT 8000 -RA FEW010 OVC040 FEW050CB 23/23 Q1009 RMK CB OBS TO N
KFYV 012353Z 00000KT 10SM CLR 14/09 A2985 RMK AO2 SLP106 T01440089 10217 20144 53014
GOTK 012100Z 00000KT CAVOK 27/06 Q1011
KGRD 020018Z AUTO 20003KT 3SM BR CLR 12/12 A3015 RMK AO2 T01220122
CPIR 020000Z AUTO 19006KT M02/M04 RMK AO1 T10161035
CPIN 020000Z AUTO 33004KT ////SM ////// ///// A////
KFWN 012353Z AUTO 00000KT 10SM BKN065 01/M01 A3000 RMK AO2 SLP162 T00111006 10111 20011 53015
MGCB 020000Z 00000KT 9999 FEW018 20/17 QFE 871.6
KLNC 020015Z AUTO 15005KT 10SM CLR 18/12 A2985 RMK AO2 T01840122
RJSI 020000Z 26007KT 210V300 9999 -SHSN FEW010 SCT020 BKN030 M02/M07 Q1017
CYPW 020000Z 10004KT 20SM SCT033 BKN210 OVC220 05/05 A3007 RMK SC4CS1CI3 SLP188
SBSP 020000Z 16008KT 9999 BKN011 21/18 Q1018
EFKE 012350Z AUTO 26008KT CAVOK M05/M07 Q1000
KCVG 012352Z 18005KT 7SM OVC008 11/11 A3004 RMK AO2 SLP172 T01110106 10111 20106 53008
KUCP 012356Z AUTO 00000KT 10SM BKN012 OVC020 08/07 A3004 RMK AO2 SLP195 60000 T00780072 10089 20067 53015
KLFK 012353Z AUTO 11004KT 9SM SCT036 21/19 A2991 RMK AO2 SLP126 T02060189 10239 20206 56004
CYAT 020000Z AUTO 00000KT 9SM FEW008 M19/M21 A2991 RMK SLP131
KBXA 020015Z AUTO 17005KT 10SM OVC005 21/19 A3007 RMK AO2 T02070190
SLSA 012200Z 34006KT 9999 FEW017 BKN200 32/23 Q1006
KJEF 012353Z 00000KT 10SM CLR 14/08 A2987 RMK AO2 SLP106 T01390083 10200 20139 53007 $
SKIB 020000Z 25003KT 9999 SCT020 22/21 Q1017 RMK A3005
LFMV 020000Z AUTO 14004KT CAVOK 10/08 Q1026
FAUT 011800Z 15008KT CAVOK 19/17 Q1017
KNBG 012355Z AUTO 11004KT 3/4SM BR VV002 19/19 A3005 RMK AO2 SLP176 6//// T01890189 10206 20183 50002 $
VOAT 010900Z 35011G21KT 6000 SCT015 31/23 Q1013 NOSIG
LFYR 020000Z AUTO 23006KT CAVOK 15/09 Q1015
VIAR 020000Z 00000KT 0000 R34/0100 FG VV/// 04/04 Q1020 NOSIG
KYIP 012353Z 25005KT 10SM OVC020 07/05 A2999 RMK AO2 SLP159 T00720050 10078 20056 51017
KABQ 012352Z 12007KT 10SM FEW045 SCT120 OVC170 08/02 A2976 RMK AO2 SLP056 MTN TOPS OBSC NE T00830022 10100 20050 58012
YYNG 020000Z AUTO 03004KT 340V070 //// // NCD 28/18 Q1012
USTR 020000Z 16005MPS 9999 DRSN BKN040 M23/M25 Q1019 R30/450255 R21/450255 TEMPO 17010MPS 1000 SHSN BLSN BKN004 BKN015CB
KMQJ 020015Z AUTO 16004KT 10SM OVC013 09/09 A3003 RMK AO1
KDQH 020015Z AUTO 00000KT 10SM CLR 16/12 A3017 RMK AO2 T01600116
EGBJ 311420Z 18004KT 7000 -SHRA SCT012 OVC025 12/11 Q0996
VTSF 020000Z 34002KT 9999 FEW018 23/23 Q1014 NOSIG
YABA 020000Z AUTO 14008KT 9999 // OVC030 18/11 Q1019
LFTW 020000Z AUTO 12009KT 9999 BKN014 OVC019 13/10 Q1026
LHPR 012345Z AUTO 30002KT 0350 R29/0400N FG VV002 01/01 Q1026
ENSD 012350Z AUTO 00000KT 9999 OVC045/// M03/M07 Q1008 RMK WIND RWY26 VRB03KT WIND 1140FT 09005KT
LFBE 020000Z AUTO 15016KT CAVOK 15/08 Q1016
KMSO 012353Z 00000KT 10SM OVC049 M01/M02 A3001 RMK AO2 SLP195 T10061022 10000 21022 53004
HCMM 011300Z 08015KT 9999 FEW023 29/24 Q1012
FQLC 020000Z 12006KT 9999 SCT020 17/17 Q1020
KBRO 012353Z 15011KT 9SM CLR 23/21 A2986 RMK AO2 SLP111 T02330211 10283 20233 53000
SVMI 020003Z AUTO 00000KT NCD ///// Q////
EDDE 012350Z AUTO 19009KT CAVOK 13/07 Q1016
EGCK 012350Z AUTO 32008KT 9999 OVC023/// 08/04 Q1007
KHRL 012352Z 16014KT 10SM CLR 24/20 A2984 RMK AO2 SLP105 T02440200 10289 20244 56001 $
KAJO 012356Z AUTO 25012G18KT 10SM FEW100 13/07 A2972 RMK AO2 SLP062 60000 T01330072 10156 20128 55003
RKSW 300009Z 36001KT 4800 BR SCT050 M05/M05 A3054
EDMO 012350Z AUTO 16003KT 110V230 9999 // NCD 06/02 Q1021
DAUL 020000Z 00000KT CAVOK 03/M02 Q1028
OEDF 020000Z 30015KT 9999 FEW040 SCT100 13/08 Q1024 NOSIG
RJFG 020000Z 31011KT 6000 NSC 10/05 Q1026
KMHR 020015Z AUTO 33017G23KT 10SM CLR 14/M01 A2981 RMK A01
KERI 012351Z 23005KT 2SM BR OVC003 04/04 A3003 RMK AO2 SLP173 60003 T00440039 10072 20044 51018
MMPN 012340Z 00000KT 15SM FEW050 21/10 A3019 RMK 8/500 HZY AC
VAUD 020000Z 00000KT 2500 HZ NSC 08/06 Q1019 NOSIG
YBNS 020000Z AUTO 15013KT 9999 // SCT105 30/18 Q1007
KREO 012352Z AUTO 36012KT 02/M05 A2990 RMK AO1 SLP148 T00171050 10033 20011 58001
UMMG 011300Z 26009G12MPS CAVOK 15/06 Q1012 NOSIG
LIBF 012150Z 29004KT 0100 FG VV/// 09/09 Q1031
KGGG 012353Z AUTO 16009KT 10SM CLR 19/17 A2989 RMK AO2 SLP118 T01940172 10228 20194 56003
LTCV 012350Z 24010KT CAVOK 01/M04 Q1029
KRNC 020015Z AUTO 00000KT 10SM CLR 11/08 A3006 RMK A01
SCRG 020000Z 19007KT CAVOK 25/09 Q1018
LTAG 012350Z 24002KT CAVOK 06/00 Q1028 NOSIG RMK SKC
EGVO 012350Z AUTO 20006KT 9999 // OVC081/// 06/06 Q1009
UADD 020000Z 20004MPS 9999 NSC M01/M06 Q1027 NOSIG RMK QFE712/0950
EIDL 302000Z 29020KT 9999 BKN042 06/02 Q0986
KRZN 020015Z AUTO 27006KT 10SM SCT008 OVC016 M02/M04 A2996 RMK AO2 T10181040
EGHH 012150Z 15001KT 6000 FEW031 08/07 Q1008 RERA
KFOE 012353Z 02008KT 10SM CLR 11/04 A2987 RMK AO2 SLP117 T01060044 10156 20106 51024
LTBR 012350Z VRB01KT 6000 NSC M01/M01 Q1031 BECMG 4500 BR
KAHN 012351Z VRB03KT 10SM CLR 14/12 A3012 RMK AO2 SLP201 T01440122 10189 20144 51011
RKTB 291505Z 19003KT 9999 -SN OVC020 01/M02 A3048 RMK CIG020
LTFH 012350Z 16004KT 7000 NSC 00/M01 Q1033 NOSIG
UGTB 020000Z 29010KT CAVOK 04/M03 Q1032 NOSIG
VVTS 020000Z VRB03KT 8000 FEW017 BKN050 24/21 Q1014 NOSIG
EGQL 012350Z 26008KT 9999 SCT016 BKN130 01/M00 Q1004 RMK WHT
LUKK 020000Z 24005KT CAVOK 06/05 Q1026 TEMPO 3000 BR
KBMQ 012353Z AUTO VRB03KT 10SM CLR 22/13 A2987 RMK AO2 SLP105 T02170133 10267 20217 55002
SKAR 020000Z 00000KT 9000 VCSH BKN017 BKN080 20/19 Q1022 RMK VCSH/N A3019
CYSJ 020000Z 33013KT 5SM BR BKN006 OVC013 01/01 A2973 RMK SC5SC3 SLP073
KEYF 020015Z AUTO 28006KT 10SM SCT034 SCT043 16/13 A3014 RMK AO2 T01610127
EBOS 012350Z 20007KT 4500 -RADZ SCT007 BKN024 11/09 Q1008 TEMPO BKN008
KCEW 012353Z AUTO 00000KT 10SM CLR 18/15 A3012 RMK AO2 SLP197 T01780150 10272 20178 53009
LKKV 020000Z VRB02KT CAVOK 09/04 Q1020
LIEE 012350Z 04002KT CAVOK 08/07 Q1028
KONP 012235Z 06006KT 10SM BKN016 07/05 A3009 RMK OB ENTERED BY NWS PORTLAND
KBHB 010107Z AUTO 08/08 RMK AO2 RAEMM P0000 PWINO RVRNO $
KCLK 020015Z AUTO 05007KT 10SM CLR 14/02 A2979 RMK AO2
KORH 012354Z 26006KT 10SM CLR 03/M02 A2990 RMK AO2 SLP133 T00331017 10078 20033 51014
YBTH 020000Z AUTO 01005KT 250V050 9999 // NCD 23/14 Q1015
CYQW 020000Z AUTO 00000KT 9SM OVC004 M09/M10 A2989 RMK SLP166
VOAR 020000Z VRB02KT 2100 BR FEW018 FEW100 22/21 Q1015 NOSIG
KDXR 012353Z 00000KT 10SM FEW075 03/M01 A2999 RMK AO2 SLP156 T00281011 10117 20028 53014
KTLH 031953Z COR 18014G23KT 10SM BKN014 BKN033 23/19 A3003 RMK AO2 SLP166 T02280194
LFRD 031930Z AUTO 20017KT 9999 BKN011 OVC018 12/11 Q1022 TEMPO 3000 RADZ BKN005 BECMG 21015G25KT
LQMO 031930Z VRB01KT 0100 R33/0550N FG BKN001 04/03 Q1028
GMMB 031900Z AUTO 04006KT 9999NDV ////// 13/13 Q1028 NOSIG
KGCD 031935Z AUTO 09004KT 10SM SCT042 OVC075 00/M04 A2988 RMK AO2 T10041041
SCPQ 031900Z 10005KT 040V150 9999 OVC025 14/10 Q1023
KNFG 031952Z 04007KT 3SM -RA BR FEW009 OVC017 14/12 A3006 RMK AO2 SLP179 T01390122 PNO $
SBKG 031900Z 11014KT 9999 BKN020 26/24 Q1013
LTCJ 031920Z 04004KT 8000 NSC M01/M02 Q1027 NOSIG RMK RWY20 36003KT SKC
KAFN 031952Z AUTO VRB03KT 3SM -RA BR OVC002 02/01 A2987 RMK AO2 SLP131 P0005 T00170006
LFOH 031930Z AUTO 19016KT 9999 -RA FEW019 BKN025 OVC032 10/08 Q1022 BECMG 22020G30KT RA BKN010 OVC020
KBDG 031935Z AUTO 20008KT 10SM 00/M02 A2997 RMK AO1 T10011022
KMTC 031956Z 04005KT 1/2SM R01/P6000FT FG VV003 05/05 A2965 RMK AO2A SLP049 T00530047 $
KMTP 031954Z AUTO 22010G20KT 11/10 A2988 RMK AO1 SLP118 P0012 T01110100
KMTO 031953Z AUTO 20008G19KT 10SM OVC011 17/14 A2959 RMK AO2 SLP017 T01670144
KMTJ 031953Z AUTO 35006KT 10SM OVC090 M01/M02 A2985 RMK AO2 SLP106 T10061022
KMTV 031955Z AUTO 20006KT 10SM OVC018 17/14 A3000 RMK AO2 T01730135
KMTW 031956Z AUTO 06008G16KT 2SM -RA BR OVC007 03/02 A2967 RMK AO2 UPE36RAB36 SLP054 P0003 T00280022
KMTK 031955Z AUTO 17017KT 10SM CLR 23/22 A2990 RMK A01
KMTH 031953Z AUTO 13009G15KT 10SM FEW025 28/22 A3006 RMK AO2 SLP177 T02830222
KMTN 031955Z 12003KT 10SM OVC110 11/10 A2987
CYAB 032000Z 09004KT 15SM FEW075 M32/M36 A2982 RMK AC1 AC TR SLP103
EYSA 031950Z 30012KT 9999 BKN006 BKN012 00/M01 Q1019 NOSIG
SBST 032000Z VRB04KT 9999 SCT030 33/21 Q1004
RKPC 032000Z 01005KT 9999 BKN025 05/M00 Q1030 NOSIG
SYKM 171600Z 05006KT 9999 VCSH SCT014 SCT036 BKN080 25/24 Q1010 NOSIG RMK VCSH S-W & ENE
SKNV 031900Z 03006KT 9999 SCT027 BKN100 28/21 Q1011 RMK A2988
ESGP 031950Z 12003KT 9999 SCT015 BKN020 BKN031 01/M01 Q1021
UWUU 032000Z 24005MPS 9999 BKN026 M03/M07 Q1006 R32L/390136 NOSIG
KOLS 031954Z AUTO 23008KT 10SM CLR 12/M01 A3009 RMK AO2 SLP167 T01221006
ETIH 031955Z AUTO 00000KT 9999 CLR M02/M04 A3044 RMK AO2 SLP326 T10181037
KROC 031954Z 08005KT 2 1/2SM -RA BR OVC003 04/04 A2975 RMK AO2 SLP082 P0003 T00440039
TNCA 032000Z 07012KT 9999 FEW023 28/22 Q1013 NOSIG
LIBC 031850Z 36004KT CAVOK 11/10 Q1029
KFXY 031955Z AUTO 07008KT 1 3/4SM BR OVC005 01/00 A2947 RMK AO2
RJAH 032000Z 02004KT 9999 FEW030 M05/M07 Q1016
FMMI 032000Z 10008KT 060V120 9999 FEW017CB BKN020 19/17 Q1022 NOSIG
LTAJ 031950Z 33005KT CAVOK 02/M04 Q1025 NOSIG RMK RWY10 VRB01KT SKC
KPUW 032001Z AUTO 09006KT 4SM HZ BKN010 OVC019 M02/M05 A2991 RMK AO2 T10221050
KDZB 031955Z AUTO 32007KT 300V360 10SM CLR 21/M02 A2988 RMK AO2 T02101019
KDZJ 280835Z AUTO 00000KT 7SM CLR M07/M07 A3024 RMK AO2 T10671074
RJTR 220256Z AUTO 31005KT 10SM FEW018 SCT025 OVC050 09/08 A2926 RMK AO2 RAE55 SLP912 $
KEFD 031954Z 31011KT 10SM SCT070 25/10 A2979
KPUB 031953Z 11010KT 10SM SCT013 SCT018 03/M02 A2974 RMK AO2 SLP079 T00331022
KOWB 031956Z 18011KT 10SM SCT045 16/14 A2969 RMK AO2 SLP053 T01560139
CYXL 032000Z 26003KT 6SM -SN BR OVC004 M09/M10 A2987 RMK ST8 SLP148
DIYO 032000Z 00000KT 4000 HZ NSC 23/09 Q1013 NOSIG
KFOE 031953Z 24017G23KT 10SM BKN021 OVC027 04/00 A2962 RMK AO2 SLP032 T00390000 $
KRYM 031955Z AUTO 35009KT 6SM -SN OVC029 M06/M08 A2974 RMK AO2 SNB47 CIG 029V039 SLP094 P0000 T10611085 $
UHMA 032000Z 01006MPS 9999 SCT036 M30/M33 Q1008 R01/////// NOSIG RMK MID 01007MPS END R01/01006MPS QFE752/1003
RJOW 031000Z 21005KT 9999 FEW040 BKN045 04/M01 Q1024
PFEL 031956Z AUTO 36008KT 10SM OVC031 M07/M10 A2928 RMK AO2 SLP918 T10721100 FZRANO
DAAP 032000Z 10007KT CAVOK 14/01 Q1026
EGDY 031950Z AUTO 21013KT 9999 // OVC011/// 13/11 Q1013
SBTE 032000Z 21007KT 9999 FEW030 SCT090 29/24 Q1007
KCLI 031955Z AUTO 06012G17KT 3SM -DZ BR OVC008 01/00 A2967 RMK AO2 T00071002
WAJJ 032000Z 24003KT 9999 FEW012 25/22 Q1008 NOSIG
SAWG 032000Z 23029G40KT CAVOK 18/11 Q1001
LFOB 032000Z AUTO 19013KT 9999 -RA FEW015/// SCT024/// BKN036/// ///TCU 10/08 Q1025 BECMG 18017G27KT RA BKN012 OVC020
KFNL 031956Z 19006KT 10SM OVC018 M03/M04 A2979 RMK AO2 SLPNO T10281044 FZRANO
ZYTL 032000Z 28002MPS CAVOK M10/M15 Q1031 NOSIG
KLBO 031955Z AUTO 23016G25KT 10SM CLR 15/03 A2963 RMK AO2
TNCB 031955Z 06012KT 030V100 9999 SCT020 BKN024 28/23 Q1013
KARG 031956Z AUTO 22019G25KT 10SM CLR 21/16 A2966 RMK AO2 SLP044 T02060161
KTPF 031955Z AUTO 24006KT 7SM RA BKN041 BKN046 OVC120 BKN041 BKN046 OVC120 A3008 RMK AO2
KEPH 031953Z AUTO 00000KT 10SM OVC007 M01/M02 A2994 RMK AO2 SLP154 T10061022
KTKC 031955Z AUTO 36010KT 1/4SM OVC005 A2959 RMK AO2
SADP 031719Z 27016G26KT CAVOK 31/05 Q1011 RMK PP///
KSEG 031953Z AUTO 20005KT 6SM -RA BR OVC006 10/09 A2982 RMK AO2 RAB52 SLP101 P0000 T01000094
LFLV 031800Z AUTO 00000KT 8000 NSC 03/03 Q1031
KHJH 031955Z AUTO 31012G21KT 10SM OVC017 M01/M04 A2962 RMK AO2 T10151039
CYHI 032000Z 04013KT 15SM FEW070 FEW100 M24/M30 A2997 RMK AC1AS1 AC TR SLP156
UTAK 032000Z 18010KT 0200 R34L/0650 FG VV001 09/08 Q1027 R34L/CLRD70 NOSIG
KCFE 031955Z AUTO 03014KT M1/4SM +SN FZFG OVC002 M05/M05 A2962 RMK AO2 P0009
LIMW 031550Z AUTO 06004KT 010V090 9999 NCD 08/05 Q1028
YWCA 032000Z AUTO 18015KT //// // ////// 21/09 Q1006
KRZT 031955Z AUTO 18006KT 10SM CLR 16/15 A2974 RMK AO2 PWINO P0001
KPYM 031959Z AUTO 19004KT 2SM +RA BR OVC004 11/10 A2986 RMK AO2 P0005 T01060100
KHZL 031955Z AUTO 00000KT 10SM -RA BKN006 BKN013 BKN028 11/11 A2984 RMK AO2 P0001
CYQX 032000Z 28011KT 20SM OVC029 M03/M05 A2991 RMK SC8 SLP141
VABJ 021800Z VRB01KT 6000 FEW200 14/06 Q1019 NOSIG
KLHB 031955Z AUTO 00000KT 10SM CLR 23/04 A2985 RMK AO2 T02260043
ESCF 031950Z AUTO 26010KT 9999 OVC008/// M03/M04 Q1022
UAAT 031130Z 26004MPS 210V290 9999 BKN050 OVC100 04/M04 Q1017 NOSIG RMK QFE712/0949
KAXV 031955Z AUTO 18010KT 10SM OVC017 16/15 A2963 RMK AO2
KXNA 031953Z 23012KT 10SM CLR 13/03 A2971 RMK AO2 SLP053 T01330028
FDSK 031400Z 10007KT 9999 FEW030 29/18 Q1013 NOSIG
KDYA 031835Z AUTO 27010KT 4SM +RA SCT009 BKN036 OVC060 RMK AO2
KSPG 031953Z 22011KT 10SM CLR 27/19 A3005 RMK AO2 SLP177 T02670194
CYRQ 032000Z AUTO 02003KT 9SM OVC081 02/01 A2991 RMK SLP135
ENQC 031950Z AUTO 13040KT 9999NDV OVC020/// 07/03 Q1008 W///S5
LFRI 032000Z AUTO 21011KT 9999 OVC028 12/08 Q1029 TEMPO 4500 -RA
AYNZ 032000Z 27005G10KT 9999 SCT050 26/22 Q1006
KELZ 032008Z AUTO VRB05KT 2 1/2SM -RA BR FEW008 BKN034 OVC049 12/11 A2972 RMK AO2 P0001 T01220111
KBAF 031953Z 01006KT 2 1/2SM -RA BR FEW003 OVC011 02/02 A2986 RMK AO2 SLP116 P0003 T00220017
EGHH 031950Z 24018KT 4000 RADZ BR OVC008 13/12 Q1015
KFET 031955Z AUTO 31012KT 1SM -SN OVC008 M03/M04 A2953 RMK AO2 T10261036
TJIG 031945Z 07011KT 10SM VCSH SCT030 BKN060 26/22 A3002 RMK VCSH S MOV W
DAOV 032000Z 05003KT CAVOK 11/M00 Q1030
HTKB 110600Z 05006KT 9999 BKN024 29/23 Q1015
KLWS 031956Z VRB03KT 10SM OVC049 00/M03 A2994 RMK AO2 SLP152 T00001033
USPP 032000Z 28004MPS 9999 -SHSN BKN040CB M13/M16 Q1004 R21/490150 TEMPO BKN006 BKN015CB RMK QFE742
KSMD 031955Z AUTO 5SM BR BKN013 OVC025 11/11 A2962 RMK A01
KROW 031951Z VRB04KT 10SM FEW080 24/M05 A2985 RMK AO2 SLP065 T02391050
KDAN 031953Z AUTO 21010G17KT 190V250 10SM BKN024 21/14 A2997 RMK AO2 SLP140 T02060144
KMCN 031953Z 19009KT 10SM OVC036 24/17 A2999 RMK AO2 SLP154 T02390172
LPHR 032000Z 21018KT 9999 FEW015 BKN035 17/12 Q1027
DBBB 032000Z 13004KT 2300 DU NSC 28/19 Q1012 NOSIG
CYYE 032000Z 18004KT 30SM SCT069 BKN220 M12/M14 A2958 RMK AC4CI1 SLP053
KCEW 031953Z AUTO 19016G28KT 10SM BKN016 BKN026 OVC044 25/22 A2994 RMK AO2 PK WND 22028/1949 LTG DSNT S RAB06E45 SLP136 P0001 T02500222
VILK 032000Z 00000KT 0800 R27/2000 FG VV/// 09/08 Q1021 NOSIG
YTTI 032000Z AUTO 31024KT //// // ////// 28/24 Q1001
LTAU 031950Z 00000KT 6000 NSC M05/M07 Q1026 NOSIG RMK RWY07 04002KT
ENBR 031950Z 15008KT 9999 SCT045 BKN130 04/M02 Q1012 NOSIG RMK WIND 1200FT 13023KT
KNMM 031956Z 20006KT 7SM FEW022 BKN047 OVC100 21/19 A2983 RMK AO2 RAE53 SLP109 CB DSNT E-SW SVR T1 SET P0000 T02060189 $
EGQK 031950Z AUTO 08003KT 2500 +DZ SCT021/// 04/04 Q0998
EKEB 031950Z AUTO 14014KT 3400 DZ BR OVC004/// 05/04 Q1019
EDDE 031950Z AUTO 20009KT 9999 BKN041 06/02 Q1028 NOSIG
SAZS 032000Z 29022KT 9999 FEW050 SCT060 23/06 Q1017 RMK PP///
LIQW 031755Z 01001KT 9999 SCT025 13/12 Q1029 RMK SCT VIS MIN 9999 WIND THR14 /////KT BLU
KBWP 031955Z AUTO 35014KT 4SM BR CLR M12/M13 A2980 RMK AO2
EGVO 031950Z AUTO 20020KT 4800 -RADZ OVC006/// 12/11 Q1013
KIFA 031955Z AUTO 11004KT 1/4SM FG OVC003 02/02 A2947 RMK AO2 T00200020
YMAV 032000Z AUTO 19014KT 9999 // SCT051 14/05 Q1010
EICK 032000Z 23022G36KT 7000 -RA OVC004 12/11 Q1005 NOSIG
PHLI 031953Z 00000KT 10SM CLR 26/18 A3009 RMK AO2 SLP187 T02610183 $
PANW 032003Z AUTO 05004KT 2 1/2SM BR FEW001 M04/M04 A2927 RMK AO2 FZRANO
GQPA 031800Z 08008KT 7000 NSC 28/01 Q1019
YMND 032000Z AUTO 20001KT 9999 // NCD 21/18 Q1003
RPVP 031800Z 09012KT 9999 -RA SCT019 OVC080 26/24 Q1008 RMK A2977
LKKU 031500Z 17002KT 3700 BR SCT005 05/05 Q1029
LOWL 031950Z AUTO 28003KT 3900 0400W R26/P1500D BCFG FEW001 BKN028 05/05 Q1032 BECMG 0800 BCFG
VELP 030900Z 02005KT 5000 HZ NSC 24/13 Q1016 NOSIG
VIGR 021800Z VRB02KT 0300 R24/P2000 FG SKC 09/09 Q1023 NOSIG
UATG 032000Z 22008MPS 5000 BR BKN033CB 02/01 Q1018 NOSIG RMK QFE766/1021
EGPI 031850Z 17004KT 2400 DZ BR OVC002 09/09 Q0996
HTMW 031900Z VRB02KT 9999 FEW022 FEW023CB 22/19 Q1018 NOSIG
SUDU 031600Z 25008KT 150V310 9999 FEW030 31/08 Q1009
KRDD 032000Z 01004KT 2SM BR BKN009 BKN018 OVC023 06/04 A3001 RMK AO2 T00610039
KDPG 032000Z 01002KT 35SM FEW045 SCT150 BKN200 M01/M04 A2999 RMK SLP164 T10131040
KJGG 161735Z AUTO 29008G15KT 10SM 13/03 RMK AO1
KITR 031953Z AUTO 34014KT 10SM CLR M03/M06 A2977 RMK AO2 SLP105 T10281061
OINB 032000Z 00000KT CAVOK 07/06 Q1025
KVTI 031955Z AUTO 00000KT 1/2SM FG OVC003 06/06 A2950 RMK AO2 T00550055
KUUU 031959Z AUTO 18014KT 1/4SM -RA FG OVC002 10/09 A2984 RMK AO2 P0000 T01000094
KMGN 031955Z AUTO 07013G18KT 10SM BKN010 BKN016 OVC050 02/01 A2976 RMK AO2 T00250014
LFRN 032000Z AUTO 20015KT 8000 OVC008 12/11 Q1025 TEMPO 3000 RADZ BECMG 21015G25KT
KCFS 031955Z AUTO 08004KT 3SM BR OVC005 07/04 A2968 RMK AO2 T00650042
KWMC 031956Z AUTO 18008KT 10SM FEW023 FEW030 BKN044 02/M03 A2996 RMK AO2 SLP155 T00221033
KOLM 031954Z 25006KT 10SM FEW050 OVC070 06/04 A2986 RMK AO2 SLP112 T00610039
YPEA 032000Z AUTO 12012KT 090V150 9999 // NCD 19/11 Q1011
KFFL 031955Z AUTO 21009KT 10SM 14/11 A2946 RMK A01
EBBR 031950Z 19016KT 9999 FEW020 08/06 Q1024 TEMPO 20015G25KT
ENSL 031950Z AUTO 19026KT 9999NDV -DZ OVC009/// 09/07 Q1004 W07/S5
OEBH 032000Z 14005KT CAVOK 15/12 Q1022 NOSIG
KCDA 031955Z AUTO 00000KT 10SM 01/M01 A2989 RMK AO2 T00121010
CYXH 032000Z 18012KT 30SM FEW270 02/M05 A2963 RMK CI1 SLP069
KDAB 031953Z 19008KT 10SM SCT036 BKN250 27/18 A3009 RMK AO2 SLP189 T02720178 $
PAOH 031956Z AUTO 10006KT 10SM FEW016 OVC030 02/02 A2958 RMK AO2 SLP016 T00220022 FZRANO
CYBC 032000Z AUTO 24013KT 6SM BR OVC005 00/00 A2986 RMK SLP113
KSDM 031953Z 14014KT 10SM BKN020 OVC028 14/11 A3006 RMK AO2 RAB24E36 SLP177 P0000 T01440106
LGAD 031950Z AUTO VRB03KT //// // ////// 12/10 Q1027 RE//
UGMS 032000Z AUTO VRB02KT //// ////// M03/M04 Q1028
SVSA 291800Z /////KT 9999 BKN050 XX/XX Q////
KLVM 031953Z AUTO 25014G23KT 10SM CLR 02/M09 A2971 RMK AO2 SLP097 T00171094
KHHW 032000Z AUTO 25010KT 10SM CLR 16/01 A2977 RMK AO2
LGNX 031150Z 34005KT CAVOK 15/07 Q1027
EKSB 031950Z AUTO 16007KT 9999 OVC009/// 05/03 Q1022
MHGS 032000Z 36006KT 9999 FEW048 27/17
SAZR 011235Z 25012G33KT 0200 RA BKN030 OVC040 17/17 Q1013
MMCM 031940Z 12015KT 7SM SCT020 30/24 A2993 RMK 8/100
KGRI 031953Z 32015G22KT 1/2SM R35/3000V3500FT SN FZFG BKN011 BKN018 OVC023 M03/M05 A2961 RMK AO2 SLP050 P0001 T10281050
KLCK 031955Z AUTO 18010KT 10SM SCT110 16/15 A2971 RMK AO2 T01570145
KTVC 031953Z 07007KT 10SM OVC035 04/00 A2970 RMK AO2 SLP063 T00440000
KCOM 030515Z AUTO 26005KT 7SM SCT065 13/M02 A2984 RMK AO2
MYSM 032000Z AUTO 08010KT 9999 SCT022/// BKN026/// 27/22 A3013
KSYF 031955Z AUTO 32012KT 10SM CLR M01/M04 A2978 RMK AO2 T10151045 PWINO
KCKF 031955Z AUTO 19007G15KT 10SM BKN033 OVC040 25/17 A3002 RMK AO2 LTG DSNT W T02530169
SKRH 031900Z 09010KT 9999 FEW015 31/22 Q1012 RMK A2989
FMCH 031700Z VRB03KT 9999 FEW020 27/23 Q1014 NOSIG
KATY 031953Z AUTO 36015KT 3SM -SN BR BKN048 OVC060 M05/M07 A2967 RMK AO2 SLP073 P0000 T10501067
ZSNJ 032000Z 00000MPS 6000 NSC M04/M04 Q1031 NOSIG
KMDT 032008Z 13005KT 1 1/2SM BR OVC007 10/09 A2983 RMK AO2 T01000094
VAPR 031600Z 02008KT 6000 NSC 17/09 Q1019 NOSIG
SADM 031638Z 25014G26KT CAVOK 31/12 Q1008
KPRC 032000Z 23010KT 10SM FEW020 SCT029 OVC041 03/01 A3004 RMK AO2 T00330011
MYGF 032000Z 14011KT 9999 BKN020 27/20 A3012
OEWD 032000Z 12008KT CAVOK 16/10 Q1023
KIML 031953Z AUTO 33015KT 9SM -SN OVC070 M02/M06 A2978 RMK AO2 SNB40 SLP113 P0000 T10221056
LGBL 031950Z 27004KT CAVOK 06/04 Q1026
YANG 032000Z AUTO 14016G31KT 9999 // NCD 30/08 Q1005
CYHE 032008Z AUTO 10008KT 9SM -SN BKN048 BKN055 OVC069 01/M02 A2991 RMK SLP132
KSUW 031955Z AUTO 06012G19KT 10SM OVC008 M01/M03 A2978 RMK AO2 T10101026
UIAA 032000Z 00000MPS 9000 NSC M31/M34 Q1023 R29/410160 NOSIG RMK QFE708/0944
ENTC 031950Z 07002KT 9999 FEW038 M02/M05 Q1020 NOSIG RMK WIND 2600FT 34023KT
RJAF 030900Z 33008KT 9999 FEW060 00/M05 Q1016
OMAL 032000Z 08009KT CAVOK 20/09 Q1023 NOSIG
NZOH 032000Z 11014KT 30KM FEW035 SCT200 20/14 Q1016 RMK VATSIM USE ONLY
KFMM 031955Z AUTO 28006KT 10SM CLR M06/M07 A2979 RMK AO2
CYXU 032003Z 07012KT 3SM -RA BR OVC006 04/04 A2969 RMK ST8 SLP064
KUOX 031955Z AUTO 19007G14KT 160V230 10SM 20/17 A2978 RMK AO2
KPWK 031952Z 02004KT 1 1/2SM OVC003 06/05 A2957 RMK AO2 SFC VIS 9 RAB1854E07 SLP017 P0000 T00560050
NZGS 032000Z 07010KT 040V130 18KM -RA FEW027 SCT046 BKN060 19/15 Q1021 RMK AUTO
KCEZ 032006Z AUTO 20009KT 1SM -SN BR BKN013 BKN019 OVC026 M01/M03 A2990 RMK AO2 P0000 T10111033
YTMO 032000Z AUTO 00000KT 9999 // NCD 26/23 Q1004
MMBT 031940Z 25010KT 10SM BKN220 29/20 A2995 RMK 8/006
YJAB 032007Z AUTO 34004KT 9999 -SHRA BKN019 BKN045 BKN071 26/25 Q1003
KAJR 031955Z AUTO 15006KT M1/4SM RA OVC002 17/17 A2999 RMK AO2 T01650165
SKMD 031900Z 35005KT 9999 VCSH SCT030TCU SCT100 23/15 Q1020 RMK TCUVCSH/NE/SE/NW A3013
EPGD 032000Z 28010KT 9999 -SHRA FEW012 BKN015TCU 03/02 Q1024
YNTN 032007Z AUTO 33008KT 9999 RA SCT020 SCT033 BKN052 24/24 Q1003
EFKU 031950Z AUTO 03003KT 360V060 9999 -SHSN OVC008 M08/M09 Q1014
KTWM 031955Z AUTO 06006KT 10SM OVC006 M04/M05 A2977 RMK AO2
LEEC 031400Z 04007KT 010V080 9999 FEW018 16/12 Q1029
KCNW 031955Z 23011G15KT 10SM SKC 22/M02 A2984
KFWN 031953Z AUTO 19003KT 7SM OVC006 07/06 A2983 RMK AO2 SLP102 T00670061
SBME 032000Z 05011KT 9999 FEW020 32/23 Q1007
KHND 031956Z 25004KT 10SM OVC050 11/02 A3004 RMK AO2 SLP193 T01110022
SKCC 032000Z 29004KT 9999 SCT018 SCT080 29/20 Q1014 RMK A2994
LIEE 031950Z 34006KT 8000 NSC 11/10 Q1029
KHOB 031950Z 25013KT 10SM SKC 11/M06 A2988
VOTV 032000Z VRB02KT 2500 BR FEW015 25/23 Q1013 NOSIG
EGHE 031520Z 23030KT 2000 -RADZ BKN006 12/12 Q1013
OERR 032000Z 07022KT 8000 RA BKN030 07/07 Q1020 NOSIG
KJMR 031955Z AUTO 00000KT 1/2SM SN OVC006 M03/M05 A2976 RMK AO2
KMKN 031955Z AUTO 25011G18KT 10SM CLR 18/M01 A2986 RMK AO2 T01781007
KLTS 031955Z AUTO 34009KT 10SM OVC170 11/M03 A2980 RMK AO2 SLP089 T01061028 $
WAAA 032000Z VRB02KT 7000 -RA FEW017CB SCT018 26/25 Q1008 TEMPO TL2100 3000 TSRA RMK CB IN APCH
KLDJ 031955Z AUTO 21003KT 5SM BR OVC005 12/11 A2986 RMK AO2 T01160106
LFOE 032000Z AUTO 21017KT 9999 -DZ SCT018 BKN033 BKN048 10/08 Q1024 TEMPO 20015G30KT 4000 -RA
YPLC 261230Z AUTO 00000KT 9999 // ////// 21/13 Q1012
EHRD 031955Z AUTO 19017G27KT 140V220 9999 FEW015 09/07 Q1020 NOSIG
SPTN 032000Z 21012KT 9999 FEW040 24/14 Q1013 RMK PP000
SVMT 031903Z AUTO 07010KT NCD 31/26 Q1012
SBGO 032000Z 09003KT 9999 -TSRA FEW030 FEW040CB BKN100 23/21 Q1012
KASN 031955Z AUTO 20003KT 10SM -TSRA BKN100 OVC120 21/19 A2991 RMK AO2 LTG DSNT ALQDS T02050187
YHID 032000Z AUTO 22002KT 9999 -SHRA BKN018 BKN029 26/25 Q1006
LEAM 032000Z 04006KT CAVOK 15/09 Q1029
KSPA 031955Z AUTO 21004KT 4SM BR OVC007 16/16 A3002 RMK AO2
PABL 031956Z AUTO 13004KT 10SM CLR M17/M19 A2937 RMK AO2 SLP947 T11721189 FZRANO $
OISF 032000Z 00000KT CAVOK 05/01 Q1028 A3037
LFLN 032000Z AUTO VRB01KT 0350 0300 R33/0400N FG VV/// 04/03 Q1032 TEMPO 0800 FG
RJDM 230714Z 27013G23KT 5000 -SHSN FEW010 SCT030 BKN035 01/M02 Q1010 RMK 1CU010 3CU030 6CU035 A2983
KCNB 031955Z AUTO 33013G18KT 300V360 1SM -SN OVC007 M07/M09 A2967 RMK AO2 T10701086
MGRT 032000Z 00000KT 9999 SCT020 SCT200 32/20 Q1014 A2994 VOL. SANTA MARIA Y SANTIAGUITO EN ACTIVIDAD
KLAS 031956Z 00000KT 10SM SCT050 BKN080 BKN200 09/02 A3003 RMK AO2 SLP171 T00940022
KPOE 031955Z AUTO 27009KT 10SM FEW021 SCT039 SCT048 25/19 A2977 RMK AO2 LTG DSNT NE SLP081 T02450191
YAYE 032000Z AUTO 14015KT 9999 // SCT095 28/05 Q1007
CYIK 032000Z 13006KT 8SM -SN FEW025 SCT034 SCT041 BKN055 BKN070 M16/M19 A2938 RMK SC2SC1SC1SC1AS2 LAST STFD OB/NEXT 041300UTC SLP955
KAFF 031955Z 16008KT 10SM BKN015 M02/M06 A2968 RMK AO2A SLP089 T10181060
KAFJ 031956Z AUTO 21008KT 10SM -RA FEW014 OVC095 16/14 A2979 RMK AO2 SLP084 P0002 T01560144
KAFW 031953Z 28015KT 10SM FEW100 BKN200 BKN270 18/M03 A2981 RMK AO2 SLP090 T01831028
KAFK 031955Z AUTO 28011KT 2SM BR OVC006 01/01 A2952 RMK AO2 T00110007
KAFO 031955Z AUTO 00000KT 5SM UP OVC032 M03/M08 A2982 RMK AO2
KAFP 031955Z AUTO 21009G14KT 170V230 10SM CLR 23/13 A3003 RMK AO2 T02310131
KAFN 031952Z AUTO VRB03KT 3SM -RA BR OVC002 02/01 A2987 RMK AO2 SLP131 P0005 T00170006
CYQI 032000Z 20007KT 15SM BKN014 OVC039 07/05 A3006 RMK SC5SC3 SLP182
KPAO 031936Z 36005KT 10SM FEW010 BKN050 11/08 A3001
SPAY 202100Z 22003KT 180V270 9999 SCT020 BKN120 28/24 Q1009 RMK BIRD HAZARD RWY 04/22 PP000
HUTO 031100Z 24008KT 9000 RA BKN016 FEW 018CB 22/18 Q1019
KRID 031955Z AUTO 22008KT 10SM OVC012 15/15 A2967 RMK AO2 P0001
YLTV 032000Z AUTO 28008KT //// // OVC055 14/08 Q1008
KHKA 031953Z AUTO 21015G20KT 10SM OVC013 19/16 A2969 RMK AO2 SLP051 T01890161
SBTU 140700Z AUTO 19007KT 9999 FEW031 23/22 Q1012
OIMJ 032000Z AUTO VRB02KT //// // ////// M06/M13 Q1030
GMMI 032000Z AUTO 09004KT 6000 NSC 16/09 Q1026 NOSIG
KFNB 032005Z AUTO 26011KT 5SM -RA BR BKN008 OVC013 03/01 A2955 RMK AO2 RAB05 P0000 T00280011
KSEM 031955Z AUTO 32008KT 10SM VCTS FEW017 SCT032 OVC041 21/21 A2989 RMK AO2
CYVQ 032000Z 09003KT 30SM FEW020 FEW060 SCT210 M18/M20 A2958 RMK SC1SC1CI1 SLP026
LPPT 032000Z 33008KT CAVOK 11/07 Q1032
KAQW 031952Z AUTO 10007KT 5SM -RA BR OVC019 07/06 A2982 RMK AO2 SLP105 P0003 T00720056
AGGH 032000Z 00000KT 9999 FEW005 FEW015CB SCT025 BKN100 24/24 Q1008
FNCA 031900Z 18005KT 9000 FEW015 BKN050 24/23 Q1011
YWBL 032000Z AUTO 19014KT 9999 // BKN047 OVC052 14/06 Q1012
SCGZ 032000Z 24020G34KT 9999 FEW036 SCT042 10/00 Q0996
WIPP 032000Z AUTO 29007KT 9999NDV SCT170 BKN200 23/23 Q1010
KFAY 031953Z 19008KT 10SM CLR 22/15 A3003 RMK AO2 SLP164 T02220150 $
SPZA 291200Z 00000KT 9000 SCT080 19/15 Q1015 RMK TX/// TN/// PP000
KLOT 012355Z 20007KT 3SM BR OVC004 04/04 A3000
KSPG 012353Z 00000KT 7SM CLR 23/22 A3012 RMK AO2 SLP199 T02280222 10228 20222 53006
LPLA 020000Z /////KT 9999 FEW020 13/09 Q1024
CYGV 260600Z AUTO /////KT FEW031 BKN066 M05/M11 A2948 RMK WIND MISG WX MISG VIS MISG ICE MISG SLP988
RCFN 020000Z 36008KT 310V050 9999 -RA FEW010 BKN045 OVC065 19/18 Q1024 NOSIG RMK A3026
LFQQ 020000Z AUTO 19016KT CAVOK 13/10 Q1009 TEMPO 18015G25KT 3000 RADZ OVC009
KAGO 012355Z AUTO 15004KT 4SM BR OVC034 18/17 A2991 RMK A01
KIWI 012353Z AUTO 00000KT 10SM FEW050 04/01 A2987 RMK AO2 SLP114 T00390011 10122 20039 51029
UUBC 020000Z AUTO 26007MPS 9999 // ///023/// 07/05 Q1004 RMK QFE736/0982
KCBK 012355Z AUTO 05011KT 10SM SCT120 02/01 A2986 RMK AO2 T00240007 10051 20024 400721033
KCOQ 012355Z AUTO 27006KT 4SM BR OVC006 M03/M04 A2989 RMK AO2 TSNO
KRCR 012355Z AUTO 15004KT 3SM BR OVC010 07/07 A2999 RMK AO2
YWDH 020000Z AUTO 36011KT 9999 // ////// 36/14 Q1007
KCMR 012355Z AUTO 18009G15KT 1/2SM -SN OVC003 M00/M01 A2962 RMK AO2
KHDE 012355Z AUTO 04006KT 10SM CLR 02/00 A2993 RMK AO2 T00181005 10055 20018
KILN 012354Z AUTO 20004KT 5SM BR OVC015 11/09 A3004 RMK AO2 SLP184 T01110094 10117 20111 53007
TGPY 020000Z 07005KT 9999 FEW017 25/23 Q1014 NOSIG
KGGE 012355Z AUTO 00000KT 7SM CLR 13/13 A3013 RMK AO2
VECC 020000Z 00000KT 1500 BR FEW100 17/16 Q1017 NOSIG
YBUD 020000Z AUTO 14013KT 9999 // SCT040 SCT046 27/16 Q1010
KSPB 012353Z AUTO 00000KT 10SM CLR 06/03 A3008 RMK AO2 SLP186 T00560028 10078 20044 58010
LGTS 012350Z VRB03KT 9999 FEW010 05/05 Q1032 NOSIG
DTTB 020000Z VRB02KT CAVOK 09/09 Q1028
SBSG 020000Z 16008KT 9999 FEW017 SCT070 26/24 Q1013
EHAM 012355Z 18007KT 150V210 9999 FEW004 SCT010 BKN014 11/10 Q1008 NOSIG
KALI 010553Z AUTO 16005KT 1/2SM FG VV002 16/16 A2993 RMK AO2 SLP132 T01610161 10233 20139 402890056 56005 TSNO $
YCBP 020000Z AUTO 14009KT 9999 // SCT110 35/06 Q1007
KMKG 012355Z 18004KT 4SM BR OVC011 03/01 A2999 RMK AO2 SLP161 T00330011 10050 20028 53011
UOOO 020000Z 19003MPS CAVOK M22/M25 Q1024 R19/39//31 NOSIG RMK QFE752/1003
KCNY 012353Z AUTO 13017G26KT 10SM BKN060 OVC120 08/02 A2955 RMK AO2 PK WND 14028/2343 SLP993 T00780022 10100 20078 58001
SKGO 302300Z AUTO 27006KT 250V320 9999 FEW001/// BKN060/// 26/17 Q1012
KFLP 012356Z AUTO 14004KT 10SM CLR 17/11 A2988 RMK AO2 SLP118 T01720111 10217 20150 53014
MNJG 012300Z 03010KT 9999 BKN010 22/15 Q1013
KSGR 012353Z 17007KT 10SM OVC039 23/18 A2990 RMK AO2 SLP127 T02280178 10278 20228 58000
LTAF 012350Z 00000KT CAVOK 06/M01 Q1028 NOSIG RMK RWY23 06004KT 030V090 SKC
SAWG 020000Z 27034G46KT CAVOK 18/07 Q0989
SCIE 020000Z 23009KT 190V250 CAVOK 17/12 Q1021
KFLD 012353Z AUTO 22004KT 10SM CLR 02/00 A2994 RMK AO2 SLP145 T00220000 10050 20022 50011
KORE 012352Z AUTO 00000KT 10SM CLR 01/M02 A2993 RMK AO2 SLP140 T00061022 10072 20006 51013
GGOV 012300Z 00000KT 8000 NSC 23/21 Q1013 NOSIG
KPSK 012355Z AUTO 23004KT 10SM SCT036 BKN050 09/08 A3011 RMK AO2 T00890079 10166 20085
KPVJ 290535Z AUTO 19009G16KT 10SM CLR 16/10 A2974 RMK AO2 T01600095
PAAQ 012353Z 35011KT 10SM BKN120 03/M05 A2869 RMK AO2 SLP717 60003 I6000 T00281050 10028 20011 50005
SAOR 01123Z 23005KT 8000 BKN004 18/17 Q1013
RJBE 020000Z 31007KT 9999 FEW025 SCT050 BKN070 07/00 Q1024
KCHD 012347Z 28006KT 4SM -RA BKN040 OVC050 12/10 A2973
KFRI 012355Z AUTO 02007KT 10SM CLR 09/03 A2990 RMK AO2 SLP131 T00920032 10137 20091 52034 FZRANO $
SBGR 020000Z 13005KT 8000 BKN011 21/19 Q1017
LZKZ 020000Z 06003KT 040V100 5000 BR SCT006 OVC047 06/05 Q1028 NOSIG
CYOD 020000Z 23005KT 6SM BR BKN160 M10/M11 A2984 RMK AC5 DENSITY ALT -1012FT SLP147
SPZO 020000Z 10004KT 020V170 9000 DZ VCSH BKN040 OVC070 12/06 Q1030 NOSIG RMK BIRD HAZARD RWY 10/28 PP001
PAVC 020006Z AUTO 26021G29KT 5SM -RA FEW009 BKN024 OVC029 02/M02 A2864 RMK AO2 PK WND 26029/0005 P0000 FZRANO
YESP 020000Z AUTO 13009KT 9999 // OVC033 18/10 Q1018
KLJF 012355Z AUTO 31005KT 10SM BKN005 M06/M07 A2998 RMK AO2
KMAF 012353Z 15003KT 10SM CLR 19/02 A2980 RMK AO2 SLP064 T01890022 10239 20189 58007
KMTO 012353Z AUTO 13005KT 5SM BR OVC004 11/09 A2998 RMK AO2 SLP155 T01060089 10133 20100 53013
KBKF 012358Z 04006KT 10SM SCT015 BKN060 BKN140 BKN200 M03/M04 A2982 RMK AO2A SLP121 4/001 T10281045 10009 21028 53013
HTBU 012100Z 00000KT 9999 FEW016 FEW018CB SCT090 19/16 Q1015
FAMM 011800Z 07005KT CAVOK 19/13 Q1021 NOSIG
YNHL 020000Z AUTO 21010KT //// // ////// 29/12 Q1006
RORS 020000Z 10006KT 9999 -RA FEW030 SCT040 BKN050 17/16 Q1025
CYXR 020008Z AUTO 17007KT 9SM SCT017 OVC076 M02/M04 A2986 RMK SLP128
KXSA 012355Z AUTO 00000KT 10SM CLR 10/10 A3007 RMK AO2 T00970097 10194 20097
KLAW 012353Z 11003KT 10SM CLR 16/04 A2976 RMK AO2 SLP078 T01610044 10244 20161 50002
KJYM 012355Z AUTO 26003KT 7SM OVC013 06/05 A2998 RMK AO2 T00550046 10065 20055
LFBY 020000Z AUTO 26008KT 200V310 9999 // ////// 19/01 Q1016
KDZJ 280835Z AUTO 00000KT 7SM CLR M07/M07 A3024 RMK AO2 T10671074
PARS 012356Z AUTO 03009KT 10SM BKN065 OVC080 A2876 RMK AO2 SLPNO 57003 FZRANO $
MMTJ 012355Z 25018KT 6SM BKN035 12/10 A2985 RMK SLP148 52026 964 60145 8/700 HZY
PFNO 012356Z AUTO 06009KT 10SM CLR M14/M18 A2911 RMK AO2 SLP941 T11441178 11139 21150 56018 FZRANO $
KDFW 012353Z 16009KT 10SM BKN250 22/12 A2981 RMK AO2 SLP090 T02170122 10256 20217 53004
RJOB 020000Z 28005KT 9999 FEW020 SCT140 05/00 Q1024
NZWN 020000Z 15013KT 9999 FEW037 BKN046 17/13 Q1025 RMK KAUKAU 15012KT AUTO VATS
CZMT 020000Z 16027G46KT 8SM -SHRA BKN015TCU OVC030 07/05 A2945 RMK TCU6SC2 PRESFR SLP973
KMHT 012353Z 26005KT 10SM OVC110 07/M02 A2989 RMK AO2 SLP136 T00671017 10117 20067 51019
LFRC 020000Z AUTO VRB03KT 9999 FEW004 OVC039 08/08 Q1011
EDDH 012350Z AUTO 16008KT 9999 SCT038 BKN045 11/08 Q1012 NOSIG
PHNG 012357Z AUTO 32005KT 10SM FEW026 OVC040 A3001 RMK AO2 SLP159 60001 57030
KEWR 012351Z 26007KT 10SM FEW110 BKN250 11/02 A3001 RMK AO2 SLP160 T01110017 10144 20094 53019
YBMA 020000Z AUTO 04012KT 9999 // ////// 27/23 Q1007
RJBB 020000Z 29017KT 9999 FEW025 SCT040 BKN070 09/04 Q1024 NOSIG
OEHL 020000Z 10006KT 3500 RA OVC020 08/08 Q1025 RERA
RPVM 020000Z 01006KT 9999 FEW020 BKN300 26/24 Q1013 NOSIG RMK A2991
YCWA 020000Z AUTO 36004KT 9999 // NCD 33/15 Q1007
KENV 012356Z AUTO VRB03KT 10SM -RA FEW024 BKN031 OVC038 01/M02 A2973 RMK AO2 UPE55RAB55 SLP086 6//// T00061022 10017 20006 53008 FZRANO PNO $
MNMG 020000Z 12006KT 9999 BKN021 26/22 Q1012 A2990 2AC070 NOSIG
KHLR 012355Z AUTO 16005KT 5SM HZ CLR 22/15 A2984 RMK AO2 SLP099 T02160145 10259 20216 55002
KMML 012356Z AUTO 00000KT 10SM CLR M05/M07 A3001 RMK AO2 SLP184 T10501067 11006 21056 51019 FZRANO
EGJJ 012350Z AUTO 24010KT 9999 FEW011/// OVC043/// 09/09 Q1012
URMN 020000Z 21003MPS 9999 OVC124 07/M03 Q1028 R24/////// NOSIG RMK QFE734
KSTE 012355Z AUTO 00000KT 7SM CLR M01/M02 A2993 RMK AO2 T10061022 10043 21006
KPIM 012355Z AUTO 18003KT 10SM CLR 13/12 A3013 RMK AO2 T01330116 10219 20133
KTBN 012355Z AUTO 14007KT 10SM CLR 11/09 A2987 RMK AO2 SLP118 T01120089 10172 20112 53012 $
RJOT 020000Z 23008KT 9999 FEW025 SCT040 06/01 Q1025
MMTM 012347Z 12008KT 2SM HZ SKC 23/20 A2986 RMK SLP110 57008 972
KHMZ 282355Z AUTO 00000KT 10SM CLR M01/M04 A3024 RMK AO2 T10071043 10074 21007
LGHI 012350Z 00000KT CAVOK 08/06 Q1029
KCIN 012355Z AUTO 33003KT 10SM BKN100 OVC110 02/02 A2999 RMK AO2
PATC 012355Z AUTO 02045G52KT M1/4SM +SN FG VV009 M16/M17 A2913 RMK AO2 PK WND 02052/2321 SNB2255 SLP875 P0000 60000 T11571174 11155 21174 56039
KMUI 301855Z COR 00000KT 10SM BKN070 12/M01 A3019 RMK SLPNO WND DATA ESTMD ALSTG ESTMD LAST COR 1907
SLSR 191900Z 34012KT 9999 SCT017 35/24 Q1006
KHVN 012353Z 27005KT 10SM FEW085 09/02 A2997 RMK AO2 SLP147 T00890022 10133 20083 51017
KCXW 012355Z AUTO 15009KT 10SM SCT024 SCT028 BKN034 18/ A2988 RMK A01
KCRS 012353Z AUTO 16009KT 10SM CLR 21/16 A2986 RMK AO2 SLP108 T02110156 10250 20211 55001
GMMW 020000Z 26004KT CAVOK 06/05 Q1024 NOSIG
CYDP 020000Z 31009KT 15SM -SHSN OVC022 M06/M08 A2978 RMK SC8 LAST STAFFED OBS/NEXT 020900 VIA CYXU SLP087
RJSC 020008Z 26009KT 230V310 1000 R01/2000N -SHSN FEW003 SCT005 BKN008 M01/M02 Q1019 RMK 1ST003 4ST005 6ST008 A3010
FZQA 291100Z 11004KT 9999 SCT020 BKN100 22/19 Q1016 NOSIG
LEBA 020000Z AUTO 00000KT 9000 NSC 08/07 Q1023
WMKL 020000Z 03005KT 320V080 9999 FEW020 26/21 Q1013
FKKL 311600Z /////KT CAVOK 27/03 Q1015
ESKM 012350Z AUTO 32003KT 9999 NCD M16/M16 Q1012
KBDG 020015Z AUTO 13013G22KT 7SM 03/03 A2972 RMK AO1 T00320030
LHPP 012345Z AUTO 24004KT CAVOK 09/07 Q1027
LHPR 012345Z AUTO 30002KT 0350 R29/0400N FG VV002 01/01 Q1026
LHPA 012345Z 00000KT 0200 R16/0250V0300U FG OVC002 02/02 Q1026 NOSIG RMK RED
CYJF 020000Z 23008KT 15SM FEW110 SCT150 SCT180 BKN230 M15/M18 A2967 RMK AC1AC3AC2CI2 AC TR SLP070
SEMC 012300Z 19003KT 9999 SCT023 SCT100 21/19 Q1015 RMK A2999
ULAA 020000Z 26004MPS 9999 OVC034 M01/M03 Q0986 R26/590538 NOSIG RMK QFE738/0984
RJFF 020000Z 17005KT 140V210 9999 FEW040 05/02 Q1028 BECMG 30006KT
LTAN 012350Z 32002KT CAVOK M04/M08 Q1032 NOSIG
KCDW 012353Z 19004KT 10SM CLR 05/00 A3000 RMK AO2 SLP167 T00500000 10128 20050 53018
NWWW 020000Z AUTO 26010KT 210V300 9999 FEW030 SCT043 28/22 Q1003 TEMPO SHRA BKN012 SCT020TCU
KOKC 012352Z 09004KT 10SM SCT200 BKN250 16/05 A2978 RMK AO2 SLP084 T01610050 10222 20161 51010
CYAB 191800Z 13017G22KT 5SM DRSN BKN030 OVC100 M27/M31 A3058 RMK SC5AS3 LAST STFD OBS/NXT 201200Z SLP361
WIMM 020000Z 31003KT 9999 SCT017 24/22 Q1012 NOSIG
ULLI 020000Z 28007G12MPS CAVOK M02/M05 Q1006 R28L/320145 NOSIG
HSOB 291100Z 01013KT CAVOK 25/03 Q1016
YGDH 020000Z AUTO 08006KT 040V120 //// // ////// 28/13 Q1012
LESB 020000Z AUTO 34005KT CAVOK 10/06 Q1024
ENHF 012350Z 27009KT 9999 FEW032 SCT046 BKN100 02/M03 Q0994 RMK WIND 1254FT 30027KT
KVLD 012353Z 18003KT 10SM CLR 17/16 A3015 RMK AO2 SLP216 T01670156 10250 20167 53014 $
WBSB 020000Z 18003KT 9999 SCT014 FEW015CB BKN140 26/26 Q1012 RESHRA NOSIG
SANC 150723Z 23020G32KT 9999 29/18 Q1008
KSDY 012356Z AUTO 19003KT 10SM CLR M08/M11 A2999 RMK AO2 SLP201 T10831111 10011 21083 51012 FZRANO
FEFT 231000Z 04014KT CAVOK 26/11 Q1015
ORSU 020000Z 07011KT CAVOK 07/M09 Q1030
YMGD 020004Z AUTO 25007KT 9999 -SHRA SCT009 SCT027 SCT070 24/23 Q1006 RESHRA
YCNY 020000Z AUTO 08004KT //// // ////// 25/24 Q1006
KBYG 012353Z AUTO 00000KT 10SM OVC085 01/M07 A2991 RMK AO2 SLP152 T00061067 10028 20006 53010
DAAE 020000Z 26011KT CAVOK 13/M01 Q1024
LFPT 020000Z AUTO 22017G27KT 9999 -RA NSC 13/11 Q1011
PAKW 020020Z AUTO 14014G25KT 4SM RA OVC029 07/03 A2933 RMK AO2 PK WND 16028/0005 P0005 T00720033 TSNO
LZTT 020000Z VRB01KT 3500 0200W R27/1400D BR BCFG FEW001 M02/M02 Q1026
UTDK 020000Z VRB01MPS 7000 OVC011 02/01 Q1030 R01/09//70 RMK QFE715/0953
KEDJ 012055Z AUTO 26006G11KT 10SM 10/09 A3000 RMK A01
NZWR 020000Z 08016KT 20KM FEW032 SCT042 BKN050 21/13 Q1019 RMK AUTO VATSIM USE O
PASC 012353Z 09006KT 2SM R06/5000VP6000FT BR OVC006 M17/M19 A2948 RMK AO2 SLP985 T11721189 11161 21178 56018 $
SKEJ 012300Z 05005KT 9999 SCT015 30/23 Q1009 RMK A2980
KDNL 012353Z AUTO 28003KT 10SM CLR 16/13 A3015 RMK AO2 SLP206 T01560128 10194 20150 53013
TQPF 020000Z 07006KT 9999 FEW018 25/21 Q1018
LFMH 020000Z AUTO 19013KT 150V250 CAVOK 14/05 Q1021
KNFG 012352Z AUTO 26009G20KT 9SM SCT032 BKN041 OVC049 14/09 A2977 RMK AO2 SLP080 60005 T01440094 10161 20133 53002 $
UTSA 020000Z 08004KT 3000 BR NSC M04/M05 Q1031 R25/CLRD70 NOSIG
KCVX 012355Z AUTO 26009G15KT 10SM OVC023 02/M01 A2992 RMK AO2 T00201006 10025 20018
KCAR 012354Z AUTO 31004KT 10SM OVC028 01/M03 A2977 RMK AO2 SLP092 60003 T00061028 10011 20006 51025
LQMO 020000Z 15003KT 9000 2000SE FEW002 03/03 Q1030
YHAY 020008Z AUTO 24021KT 210V360 //// TS ////// 24/20 Q1010
YCOM 020000Z AUTO 11004KT 050V170 9999 // NCD 25/18 Q1013
LPFR 020000Z 05003KT 9999 SCT006 BKN025 16/16 Q1022
FQCH 011900Z 15005KT 9999 SCT020 24/18 Q1017 NOSIG
WIPP 020000Z 26003KT 9999 SCT010 25/23 Q1012 NOSIG
VTBS 020000Z 04003KT 010V070 9999 FEW025 22/15 Q1016 NOSIG
SKLT 020000Z 00000KT 9999 SCT015 25/25 Q1008 RMK A2979
HKLO 011300Z 09014KT CAVOK 34/11 Q1007
SELT 020000Z 01006KT 9999 OVC030 10/10 Q1029
LFMO 020000Z AUTO 07003KT CAVOK 06/06 Q1026 NOSIG
KAQP 020013Z AUTO 34004KT 10SM M04/M06 A3002 RMK AO2 TSNO
KTUL 012353Z 00000KT 10SM FEW110 BKN250 17/06 A2980 RMK AO2 SLP090 T01670061 10222 20167 53021
SARL 020000Z 07007KT 8000 -RA FEW010 OVC040 FEW050CB 23/23 Q1009 RMK CB OBS TO N
KFYV 012353Z 00000KT 10SM CLR 14/09 A2985 RMK AO2 SLP106 T01440089 10217 20144 53014
GOTK 012100Z 00000KT CAVOK 27/06 Q1011
KGRD 020018Z AUTO 20003KT 3SM BR CLR 12/12 A3015 RMK AO2 T01220122
CPIR 020000Z AUTO 19006KT M02/M04 RMK AO1 T10161035
CPIN 020000Z AUTO 33004KT ////SM ////// ///// A////
KFWN 012353Z AUTO 00000KT 10SM BKN065 01/M01 A3000 RMK AO2 SLP162 T00111006 10111 20011 53015
MGCB 020000Z 00000KT 9999 FEW018 20/17 QFE 871.6
KLNC 020015Z AUTO 15005KT 10SM CLR 18/12 A2985 RMK AO2 T01840122
RJSI 020000Z 26007KT 210V300 9999 -SHSN FEW010 SCT020 BKN030 M02/M07 Q1017
CYPW 020000Z 10004KT 20SM SCT033 BKN210 OVC220 05/05 A3007 RMK SC4CS1CI3 SLP188
SBSP 020000Z 16008KT 9999 BKN011 21/18 Q1018
EFKE 012350Z AUTO 26008KT CAVOK M05/M07 Q1000
KCVG 012352Z 18005KT 7SM OVC008 11/11 A3004 RMK AO2 SLP172 T01110106 10111 20106 53008
KUCP 012356Z AUTO 00000KT 10SM BKN012 OVC020 08/07 A3004 RMK AO2 SLP195 60000 T00780072 10089 20067 53015
KLFK 012353Z AUTO 11004KT 9SM SCT036 21/19 A2991 RMK AO2 SLP126 T02060189 10239 20206 56004
CYAT 020000Z AUTO 00000KT 9SM FEW008 M19/M21 A2991 RMK SLP131
KBXA 020015Z AUTO 17005KT 10SM OVC005 21/19 A3007 RMK AO2 T02070190
SLSA 012200Z 34006KT 9999 FEW017 BKN200 32/23 Q1006
KJEF 012353Z 00000KT 10SM CLR 14/08 A2987 RMK AO2 SLP106 T01390083 10200 20139 53007 $
SKIB 020000Z 25003KT 9999 SCT020 22/21 Q1017 RMK A3005
LFMV 020000Z AUTO 14004KT CAVOK 10/08 Q1026
FAUT 011800Z 15008KT CAVOK 19/17 Q1017
KNBG 012355Z AUTO 11004KT 3/4SM BR VV002 19/19 A3005 RMK AO2 SLP176 6//// T01890189 10206 20183 50002 $
VOAT 010900Z 35011G21KT 6000 SCT015 31/23 Q1013 NOSIG
LFYR 020000Z AUTO 23006KT CAVOK 15/09 Q1015
VIAR 020000Z 00000KT 0000 R34/0100 FG VV/// 04/04 Q1020 NOSIG
KYIP 012353Z 25005KT 10SM OVC020 07/05 A2999 RMK AO2 SLP159 T00720050 10078 20056 51017
KABQ 012352Z 12007KT 10SM FEW045 SCT120 OVC170 08/02 A2976 RMK AO2 SLP056 MTN TOPS OBSC NE T00830022 10100 20050 58012
YYNG 020000Z AUTO 03004KT 340V070 //// // NCD 28/18 Q1012
USTR 020000Z 16005MPS 9999 DRSN BKN040 M23/M25 Q1019 R30/450255 R21/450255 TEMPO 17010MPS 1000 SHSN BLSN BKN004 BKN015CB
KMQJ 020015Z AUTO 16004KT 10SM OVC013 09/09 A3003 RMK AO1
KDQH 020015Z AUTO 00000KT 10SM CLR 16/12 A3017 RMK AO2 T01600116
EGBJ 311420Z 18004KT 7000 -SHRA SCT012 OVC025 12/11 Q0996
VTSF 020000Z 34002KT 9999 FEW018 23/23 Q1014 NOSIG
YABA 020000Z AUTO 14008KT 9999 // OVC030 18/11 Q1019
LFTW 020000Z AUTO 12009KT 9999 BKN014 OVC019 13/10 Q1026
LHPR 012345Z AUTO 30002KT 0350 R29/0400N FG VV002 01/01 Q1026
ENSD 012350Z AUTO 00000KT 9999 OVC045/// M03/M07 Q1008 RMK WIND RWY26 VRB03KT WIND 1140FT 09005KT
LFBE 020000Z AUTO 15016KT CAVOK 15/08 Q1016
KMSO 012353Z 00000KT 10SM OVC049 M01/M02 A3001 RMK AO2 SLP195 T10061022 10000 21022 53004
HCMM 011300Z 08015KT 9999 FEW023 29/24 Q1012
FQLC 020000Z 12006KT 9999 SCT020 17/17 Q1020
KBRO 012353Z 15011KT 9SM CLR 23/21 A2986 RMK AO2 SLP111 T02330211 10283 20233 53000
SVMI 020003Z AUTO 00000KT NCD ///// Q////
EDDE 012350Z AUTO 19009KT CAVOK 13/07 Q1016
EGCK 012350Z AUTO 32008KT 9999 OVC023/// 08/04 Q1007
KHRL 012352Z 16014KT 10SM CLR 24/20 A2984 RMK AO2 SLP105 T02440200 10289 20244 56001 $
KAJO 012356Z AUTO 25012G18KT 10SM FEW100 13/07 A2972 RMK AO2 SLP062 60000 T01330072 10156 20128 55003
LOWG 012350Z AUTO VRB01KT 4800 0450W R16/P1500U R34/P1500U BCFG NCD M01/M01 Q1025
RKSW 300009Z 36001KT 4800 BR SCT050 M05/M05 A3054
EDMO 012350Z AUTO 16003KT 110V230 9999 // NCD 06/02 Q1021
DAUL 020000Z 00000KT CAVOK 03/M02 Q1028
OEDF 020000Z 30015KT 9999 FEW040 SCT100 13/08 Q1024 NOSIG
RJFG 020000Z 31011KT 6000 NSC 10/05 Q1026
KMHR 020015Z AUTO 33017G23KT 10SM CLR 14/M01 A2981 RMK A01
KERI 012351Z 23005KT 2SM BR OVC003 04/04 A3003 RMK AO2 SLP173 60003 T00440039 10072 20044 51018
MMPN 012340Z 00000KT 15SM FEW050 21/10 A3019 RMK 8/500 HZY AC
VAUD 020000Z 00000KT 2500 HZ NSC 08/06 Q1019 NOSIG
YBNS 020000Z AUTO 15013KT 9999 // SCT105 30/18 Q1007
KREO 012352Z AUTO 36012KT 02/M05 A2990 RMK AO1 SLP148 T00171050 10033 20011 58001
UMMG 011300Z 26009G12MPS CAVOK 15/06 Q1012 NOSIG
LIBF 012150Z 29004KT 0100 FG VV/// 09/09 Q1031
KGGG 012353Z AUTO 16009KT 10SM CLR 19/17 A2989 RMK AO2 SLP118 T01940172 10228 20194 56003
LTCV 012350Z 24010KT CAVOK 01/M04 Q1029
KRNC 020015Z AUTO 00000KT 10SM CLR 11/08 A3006 RMK A01
SCRG 020000Z 19007KT CAVOK 25/09 Q1018
LTAG 012350Z 24002KT CAVOK 06/00 Q1028 NOSIG RMK SKC
EGVO 012350Z AUTO 20006KT 9999 // OVC081/// 06/06 Q1009
UADD 020000Z 20004MPS 9999 NSC M01/M06 Q1027 NOSIG RMK QFE712/0950
EIDL 302000Z 29020KT 9999 BKN042 06/02 Q0986
KRZN 020015Z AUTO 27006KT 10SM SCT008 OVC016 M02/M04 A2996 RMK AO2 T10181040
EGHH 012150Z 15001KT 6000 FEW031 08/07 Q1008 RERA
KFOE 012353Z 02008KT 10SM CLR 11/04 A2987 RMK AO2 SLP117 T01060044 10156 20106 51024
LTBR 012350Z VRB01KT 6000 NSC M01/M01 Q1031 BECMG 4500 BR
KAHN 012351Z VRB03KT 10SM CLR 14/12 A3012 RMK AO2 SLP201 T01440122 10189 20144 51011
RKTB 291505Z 19003KT 9999 -SN OVC020 01/M02 A3048 RMK CIG020
LTFH 012350Z 16004KT 7000 NSC 00/M01 Q1033 NOSIG
UGTB 020000Z 29010KT CAVOK 04/M03 Q1032 NOSIG
VVTS 020000Z VRB03KT 8000 FEW017 BKN050 24/21 Q1014 NOSIG
EGQL 012350Z 26008KT 9999 SCT016 BKN130 01/M00 Q1004 RMK WHT
LUKK 020000Z 24005KT CAVOK 06/05 Q1026 TEMPO 3000 BR
KBMQ 012353Z AUTO VRB03KT 10SM CLR 22/13 A2987 RMK AO2 SLP105 T02170133 10267 20217 55002
SKAR 020000Z 00000KT 9000 VCSH BKN017 BKN080 20/19 Q1022 RMK VCSH/N A3019
CYSJ 020000Z 33013KT 5SM BR BKN006 OVC013 01/01 A2973 RMK SC5SC3 SLP073
KEYF 020015Z AUTO 28006KT 10SM SCT034 SCT043 16/13 A3014 RMK AO2 T01610127
EBOS 012350Z 20007KT 4500 -RADZ SCT007 BKN024 11/09 Q1008 TEMPO BKN008
KCEW 012353Z AUTO 00000KT 10SM CLR 18/15 A3012 RMK AO2 SLP197 T01780150 10272 20178 53009
LKKV 020000Z VRB02KT CAVOK 09/04 Q1020
LIEE 012350Z 04002KT CAVOK 08/07 Q1028
KONP 012235Z 06006KT 10SM BKN016 07/05 A3009 RMK OB ENTERED BY NWS PORTLAND
KBHB 010107Z AUTO 08/08 RMK AO2 RAEMM P0000 PWINO RVRNO $
KCLK 020015Z AUTO 05007KT 10SM CLR 14/02 A2979 RMK AO2
KORH 012354Z 26006KT 10SM CLR 03/M02 A2990 RMK AO2 SLP133 T00331017 10078 20033 51014
YBTH 020000Z AUTO 01005KT 250V050 9999 // NCD 23/14 Q1015
CYQW 020000Z AUTO 00000KT 9SM OVC004 M09/M10 A2989 RMK SLP166
VOAR 020000Z VRB02KT 2100 BR FEW018 FEW100 22/21 Q1015 NOSIG
KDXR 012353Z 00000KT 10SM FEW075 03/M01 A2999 RMK AO2 SLP156 T00281011 10117 20028 53014
KTLH 031953Z COR 18014G23KT 10SM BKN014 BKN033 23/19 A3003 RMK AO2 SLP166 T02280194
LFRD 031930Z AUTO 20017KT 9999 BKN011 OVC018 12/11 Q1022 TEMPO 3000 RADZ BKN005 BECMG 21015G25KT
LQMO 031930Z VRB01KT 0100 R33/0550N FG BKN001 04/03 Q1028
GMMB 031900Z AUTO 04006KT 9999NDV ////// 13/13 Q1028 NOSIG
KGCD 031935Z AUTO 09004KT 10SM SCT042 OVC075 00/M04 A2988 RMK AO2 T10041041
SCPQ 031900Z 10005KT 040V150 9999 OVC025 14/10 Q1023
KNFG 031952Z 04007KT 3SM -RA BR FEW009 OVC017 14/12 A3006 RMK AO2 SLP179 T01390122 PNO $
SBKG 031900Z 11014KT 9999 BKN020 26/24 Q1013
LTCJ 031920Z 04004KT 8000 NSC M01/M02 Q1027 NOSIG RMK RWY20 36003KT SKC
KAFN 031952Z AUTO VRB03KT 3SM -RA BR OVC002 02/01 A2987 RMK AO2 SLP131 P0005 T00170006
LFOH 031930Z AUTO 19016KT 9999 -RA FEW019 BKN025 OVC032 10/08 Q1022 BECMG 22020G30KT RA BKN010 OVC020
KBDG 031935Z AUTO 20008KT 10SM 00/M02 A2997 RMK AO1 T10011022
KMTC 031956Z 04005KT 1/2SM R01/P6000FT FG VV003 05/05 A2965 RMK AO2A SLP049 T00530047 $
KMTP 031954Z AUTO 22010G20KT 11/10 A2988 RMK AO1 SLP118 P0012 T01110100
KMTO 031953Z AUTO 20008G19KT 10SM OVC011 17/14 A2959 RMK AO2 SLP017 T01670144
KMTJ 031953Z AUTO 35006KT 10SM OVC090 M01/M02 A2985 RMK AO2 SLP106 T10061022
KMTV 031955Z AUTO 20006KT 10SM OVC018 17/14 A3000 RMK AO2 T01730135
KMTW 031956Z AUTO 06008G16KT 2SM -RA BR OVC007 03/02 A2967 RMK AO2 UPE36RAB36 SLP054 P0003 T00280022
KMTK 031955Z AUTO 17017KT 10SM CLR 23/22 A2990 RMK A01
KMTH 031953Z AUTO 13009G15KT 10SM FEW025 28/22 A3006 RMK AO2 SLP177 T02830222
KMTN 031955Z 12003KT 10SM OVC110 11/10 A2987
CYAB 032000Z 09004KT 15SM FEW075 M32/M36 A2982 RMK AC1 AC TR SLP103
EYSA 031950Z 30012KT 9999 BKN006 BKN012 00/M01 Q1019 NOSIG
SBST 032000Z VRB04KT 9999 SCT030 33/21 Q1004
RKPC 032000Z 01005KT 9999 BKN025 05/M00 Q1030 NOSIG
SYKM 171600Z 05006KT 9999 VCSH SCT014 SCT036 BKN080 25/24 Q1010 NOSIG RMK VCSH S-W & ENE
SKNV 031900Z 03006KT 9999 SCT027 BKN100 28/21 Q1011 RMK A2988
ESGP 031950Z 12003KT 9999 SCT015 BKN020 BKN031 01/M01 Q1021
UWUU 032000Z 24005MPS 9999 BKN026 M03/M07 Q1006 R32L/390136 NOSIG
KOLS 031954Z AUTO 23008KT 10SM CLR 12/M01 A3009 RMK AO2 SLP167 T01221006
ETIH 031955Z AUTO 00000KT 9999 CLR M02/M04 A3044 RMK AO2 SLP326 T10181037
KROC 031954Z 08005KT 2 1/2SM -RA BR OVC003 04/04 A2975 RMK AO2 SLP082 P0003 T00440039
TNCA 032000Z 07012KT 9999 FEW023 28/22 Q1013 NOSIG
LIBC 031850Z 36004KT CAVOK 11/10 Q1029
KFXY 031955Z AUTO 07008KT 1 3/4SM BR OVC005 01/00 A2947 RMK AO2
RJAH 032000Z 02004KT 9999 FEW030 M05/M07 Q1016
FMMI 032000Z 10008KT 060V120 9999 FEW017CB BKN020 19/17 Q1022 NOSIG
LTAJ 031950Z 33005KT CAVOK 02/M04 Q1025 NOSIG RMK RWY10 VRB01KT SKC
KPUW 032001Z AUTO 09006KT 4SM HZ BKN010 OVC019 M02/M05 A2991 RMK AO2 T10221050
KDZB 031955Z AUTO 32007KT 300V360 10SM CLR 21/M02 A2988 RMK AO2 T02101019
KDZJ 280835Z AUTO 00000KT 7SM CLR M07/M07 A3024 RMK AO2 T10671074
RJTR 220256Z AUTO 31005KT 10SM FEW018 SCT025 OVC050 09/08 A2926 RMK AO2 RAE55 SLP912 $
KEFD 031954Z 31011KT 10SM SCT070 25/10 A2979
KPUB 031953Z 11010KT 10SM SCT013 SCT018 03/M02 A2974 RMK AO2 SLP079 T00331022
KOWB 031956Z 18011KT 10SM SCT045 16/14 A2969 RMK AO2 SLP053 T01560139
CYXL 032000Z 26003KT 6SM -SN BR OVC004 M09/M10 A2987 RMK ST8 SLP148
DIYO 032000Z 00000KT 4000 HZ NSC 23/09 Q1013 NOSIG
KFOE 031953Z 24017G23KT 10SM BKN021 OVC027 04/00 A2962 RMK AO2 SLP032 T00390000 $
KRYM 031955Z AUTO 35009KT 6SM -SN OVC029 M06/M08 A2974 RMK AO2 SNB47 CIG 029V039 SLP094 P0000 T10611085 $
UHMA 032000Z 01006MPS 9999 SCT036 M30/M33 Q1008 R01/////// NOSIG RMK MID 01007MPS END R01/01006MPS QFE752/1003
RJOW 031000Z 21005KT 9999 FEW040 BKN045 04/M01 Q1024
PFEL 031956Z AUTO 36008KT 10SM OVC031 M07/M10 A2928 RMK AO2 SLP918 T10721100 FZRANO
DAAP 032000Z 10007KT CAVOK 14/01 Q1026
EGDY 031950Z AUTO 21013KT 9999 // OVC011/// 13/11 Q1013
SBTE 032000Z 21007KT 9999 FEW030 SCT090 29/24 Q1007
KCLI 031955Z AUTO 06012G17KT 3SM -DZ BR OVC008 01/00 A2967 RMK AO2 T00071002
WAJJ 032000Z 24003KT 9999 FEW012 25/22 Q1008 NOSIG
SAWG 032000Z 23029G40KT CAVOK 18/11 Q1001
LFOB 032000Z AUTO 19013KT 9999 -RA FEW015/// SCT024/// BKN036/// ///TCU 10/08 Q1025 BECMG 18017G27KT RA BKN012 OVC020
KFNL 031956Z 19006KT 10SM OVC018 M03/M04 A2979 RMK AO2 SLPNO T10281044 FZRANO
ZYTL 032000Z 28002MPS CAVOK M10/M15 Q1031 NOSIG
KLBO 031955Z AUTO 23016G25KT 10SM CLR 15/03 A2963 RMK AO2
TNCB 031955Z 06012KT 030V100 9999 SCT020 BKN024 28/23 Q1013
KARG 031956Z AUTO 22019G25KT 10SM CLR 21/16 A2966 RMK AO2 SLP044 T02060161
KTPF 031955Z AUTO 24006KT 7SM RA BKN041 BKN046 OVC120 BKN041 BKN046 OVC120 A3008 RMK AO2
KEPH 031953Z AUTO 00000KT 10SM OVC007 M01/M02 A2994 RMK AO2 SLP154 T10061022
KTKC 031955Z AUTO 36010KT 1/4SM OVC005 A2959 RMK AO2
SADP 031719Z 27016G26KT CAVOK 31/05 Q1011 RMK PP///
KSEG 031953Z AUTO 20005KT 6SM -RA BR OVC006 10/09 A2982 RMK AO2 RAB52 SLP101 P0000 T01000094
LFLV 031800Z AUTO 00000KT 8000 NSC 03/03 Q1031
KHJH 031955Z AUTO 31012G21KT 10SM OVC017 M01/M04 A2962 RMK AO2 T10151039
CYHI 032000Z 04013KT 15SM FEW070 FEW100 M24/M30 A2997 RMK AC1AS1 AC TR SLP156
UTAK 032000Z 18010KT 0200 R34L/0650 FG VV001 09/08 Q1027 R34L/CLRD70 NOSIG
KCFE 031955Z AUTO 03014KT M1/4SM +SN FZFG OVC002 M05/M05 A2962 RMK AO2 P0009
LIMW 031550Z AUTO 06004KT 010V090 9999 NCD 08/05 Q1028
YWCA 032000Z AUTO 18015KT //// // ////// 21/09 Q1006
KRZT 031955Z AUTO 18006KT 10SM CLR 16/15 A2974 RMK AO2 PWINO P0001
KPYM 031959Z AUTO 19004KT 2SM +RA BR OVC004 11/10 A2986 RMK AO2 P0005 T01060100
KHZL 031955Z AUTO 00000KT 10SM -RA BKN006 BKN013 BKN028 11/11 A2984 RMK AO2 P0001
CYQX 032000Z 28011KT 20SM OVC029 M03/M05 A2991 RMK SC8 SLP141
VABJ 021800Z VRB01KT 6000 FEW200 14/06 Q1019 NOSIG
KLHB 031955Z AUTO 00000KT 10SM CLR 23/04 A2985 RMK AO2 T02260043
ESCF 031950Z AUTO 26010KT 9999 OVC008/// M03/M04 Q1022
UAAT 031130Z 26004MPS 210V290 9999 BKN050 OVC100 04/M04 Q1017 NOSIG RMK QFE712/0949
KAXV 031955Z AUTO 18010KT 10SM OVC017 16/15 A2963 RMK AO2
KXNA 031953Z 23012KT 10SM CLR 13/03 A2971 RMK AO2 SLP053 T01330028
FDSK 031400Z 10007KT 9999 FEW030 29/18 Q1013 NOSIG
KDYA 031835Z AUTO 27010KT 4SM +RA SCT009 BKN036 OVC060 RMK AO2
KSPG 031953Z 22011KT 10SM CLR 27/19 A3005 RMK AO2 SLP177 T02670194
CYRQ 032000Z AUTO 02003KT 9SM OVC081 02/01 A2991 RMK SLP135
ENQC 031950Z AUTO 13040KT 9999NDV OVC020/// 07/03 Q1008 W///S5
LFRI 032000Z AUTO 21011KT 9999 OVC028 12/08 Q1029 TEMPO 4500 -RA
AYNZ 032000Z 27005G10KT 9999 SCT050 26/22 Q1006
KELZ 032008Z AUTO VRB05KT 2 1/2SM -RA BR FEW008 BKN034 OVC049 12/11 A2972 RMK AO2 P0001 T01220111
KBAF 031953Z 01006KT 2 1/2SM -RA BR FEW003 OVC011 02/02 A2986 RMK AO2 SLP116 P0003 T00220017
EGHH 031950Z 24018KT 4000 RADZ BR OVC008 13/12 Q1015
KFET 031955Z AUTO 31012KT 1SM -SN OVC008 M03/M04 A2953 RMK AO2 T10261036
TJIG 031945Z 07011KT 10SM VCSH SCT030 BKN060 26/22 A3002 RMK VCSH S MOV W
DAOV 032000Z 05003KT CAVOK 11/M00 Q1030
HTKB 110600Z 05006KT 9999 BKN024 29/23 Q1015
KLWS 031956Z VRB03KT 10SM OVC049 00/M03 A2994 RMK AO2 SLP152 T00001033
USPP 032000Z 28004MPS 9999 -SHSN BKN040CB M13/M16 Q1004 R21/490150 TEMPO BKN006 BKN015CB RMK QFE742
KSMD 031955Z AUTO 5SM BR BKN013 OVC025 11/11 A2962 RMK A01
KROW 031951Z VRB04KT 10SM FEW080 24/M05 A2985 RMK AO2 SLP065 T02391050
KDAN 031953Z AUTO 21010G17KT 190V250 10SM BKN024 21/14 A2997 RMK AO2 SLP140 T02060144
KMCN 031953Z 19009KT 10SM OVC036 24/17 A2999 RMK AO2 SLP154 T02390172
LPHR 032000Z 21018KT 9999 FEW015 BKN035 17/12 Q1027
DBBB 032000Z 13004KT 2300 DU NSC 28/19 Q1012 NOSIG
CYYE 032000Z 18004KT 30SM SCT069 BKN220 M12/M14 A2958 RMK AC4CI1 SLP053
KCEW 031953Z AUTO 19016G28KT 10SM BKN016 BKN026 OVC044 25/22 A2994 RMK AO2 PK WND 22028/1949 LTG DSNT S RAB06E45 SLP136 P0001 T02500222
VILK 032000Z 00000KT 0800 R27/2000 FG VV/// 09/08 Q1021 NOSIG
YTTI 032000Z AUTO 31024KT //// // ////// 28/24 Q1001
LTAU 031950Z 00000KT 6000 NSC M05/M07 Q1026 NOSIG RMK RWY07 04002KT
ENBR 031950Z 15008KT 9999 SCT045 BKN130 04/M02 Q1012 NOSIG RMK WIND 1200FT 13023KT
KNMM 031956Z 20006KT 7SM FEW022 BKN047 OVC100 21/19 A2983 RMK AO2 RAE53 SLP109 CB DSNT E-SW SVR T1 SET P0000 T02060189 $
EGQK 031950Z AUTO 08003KT 2500 +DZ SCT021/// 04/04 Q0998
EKEB 031950Z AUTO 14014KT 3400 DZ BR OVC004/// 05/04 Q1019
EDDE 031950Z AUTO 20009KT 9999 BKN041 06/02 Q1028 NOSIG
SAZS 032000Z 29022KT 9999 FEW050 SCT060 23/06 Q1017 RMK PP///
LIQW 031755Z 01001KT 9999 SCT025 13/12 Q1029 RMK SCT VIS MIN 9999 WIND THR14 /////KT BLU
KBWP 031955Z AUTO 35014KT 4SM BR CLR M12/M13 A2980 RMK AO2
EGVO 031950Z AUTO 20020KT 4800 -RADZ OVC006/// 12/11 Q1013
KIFA 031955Z AUTO 11004KT 1/4SM FG OVC003 02/02 A2947 RMK AO2 T00200020
YMAV 032000Z AUTO 19014KT 9999 // SCT051 14/05 Q1010
EICK 032000Z 23022G36KT 7000 -RA OVC004 12/11 Q1005 NOSIG
PHLI 031953Z 00000KT 10SM CLR 26/18 A3009 RMK AO2 SLP187 T02610183 $
PANW 032003Z AUTO 05004KT 2 1/2SM BR FEW001 M04/M04 A2927 RMK AO2 FZRANO
GQPA 031800Z 08008KT 7000 NSC 28/01 Q1019
YMND 032000Z AUTO 20001KT 9999 // NCD 21/18 Q1003
RPVP 031800Z 09012KT 9999 -RA SCT019 OVC080 26/24 Q1008 RMK A2977
LKKU 031500Z 17002KT 3700 BR SCT005 05/05 Q1029
LOWL 031950Z AUTO 28003KT 3900 0400W R26/P1500D BCFG FEW001 BKN028 05/05 Q1032 BECMG 0800 BCFG
VELP 030900Z 02005KT 5000 HZ NSC 24/13 Q1016 NOSIG
VIGR 021800Z VRB02KT 0300 R24/P2000 FG SKC 09/09 Q1023 NOSIG
UATG 032000Z 22008MPS 5000 BR BKN033CB 02/01 Q1018 NOSIG RMK QFE766/1021
EGPI 031850Z 17004KT 2400 DZ BR OVC002 09/09 Q0996
HTMW 031900Z VRB02KT 9999 FEW022 FEW023CB 22/19 Q1018 NOSIG
SUDU 031600Z 25008KT 150V310 9999 FEW030 31/08 Q1009
KRDD 032000Z 01004KT 2SM BR BKN009 BKN018 OVC023 06/04 A3001 RMK AO2 T00610039
KDPG 032000Z 01002KT 35SM FEW045 SCT150 BKN200 M01/M04 A2999 RMK SLP164 T10131040
KJGG 161735Z AUTO 29008G15KT 10SM 13/03 RMK AO1
KITR 031953Z AUTO 34014KT 10SM CLR M03/M06 A2977 RMK AO2 SLP105 T10281061
OINB 032000Z 00000KT CAVOK 07/06 Q1025
KVTI 031955Z AUTO 00000KT 1/2SM FG OVC003 06/06 A2950 RMK AO2 T00550055
KUUU 031959Z AUTO 18014KT 1/4SM -RA FG OVC002 10/09 A2984 RMK AO2 P0000 T01000094
KMGN 031955Z AUTO 07013G18KT 10SM BKN010 BKN016 OVC050 02/01 A2976 RMK AO2 T00250014
LFRN 032000Z AUTO 20015KT 8000 OVC008 12/11 Q1025 TEMPO 3000 RADZ BECMG 21015G25KT
KCFS 031955Z AUTO 08004KT 3SM BR OVC005 07/04 A2968 RMK AO2 T00650042
KWMC 031956Z AUTO 18008KT 10SM FEW023 FEW030 BKN044 02/M03 A2996 RMK AO2 SLP155 T00221033
KOLM 031954Z 25006KT 10SM FEW050 OVC070 06/04 A2986 RMK AO2 SLP112 T00610039
YPEA 032000Z AUTO 12012KT 090V150 9999 // NCD 19/11 Q1011
KFFL 031955Z AUTO 21009KT 10SM 14/11 A2946 RMK A01
EBBR 031950Z 19016KT 9999 FEW020 08/06 Q1024 TEMPO 20015G25KT
ENSL 031950Z AUTO 19026KT 9999NDV -DZ OVC009/// 09/07 Q1004 W07/S5
OEBH 032000Z 14005KT CAVOK 15/12 Q1022 NOSIG
KCDA 031955Z AUTO 00000KT 10SM 01/M01 A2989 RMK AO2 T00121010
CYXH 032000Z 18012KT 30SM FEW270 02/M05 A2963 RMK CI1 SLP069
KDAB 031953Z 19008KT 10SM SCT036 BKN250 27/18 A3009 RMK AO2 SLP189 T02720178 $
PAOH 031956Z AUTO 10006KT 10SM FEW016 OVC030 02/02 A2958 RMK AO2 SLP016 T00220022 FZRANO
CYBC 032000Z AUTO 24013KT 6SM BR OVC005 00/00 A2986 RMK SLP113
KSDM 031953Z 14014KT 10SM BKN020 OVC028 14/11 A3006 RMK AO2 RAB24E36 SLP177 P0000 T01440106
LGAD 031950Z AUTO VRB03KT //// // ////// 12/10 Q1027 RE//
UGMS 032000Z AUTO VRB02KT //// ////// M03/M04 Q1028
SVSA 291800Z /////KT 9999 BKN050 XX/XX Q////
KLVM 031953Z AUTO 25014G23KT 10SM CLR 02/M09 A2971 RMK AO2 SLP097 T00171094
KHHW 032000Z AUTO 25010KT 10SM CLR 16/01 A2977 RMK AO2
LGNX 031150Z 34005KT CAVOK 15/07 Q1027
EKSB 031950Z AUTO 16007KT 9999 OVC009/// 05/03 Q1022
MHGS 032000Z 36006KT 9999 FEW048 27/17
SAZR 011235Z 25012G33KT 0200 RA BKN030 OVC040 17/17 Q1013
MMCM 031940Z 12015KT 7SM SCT020 30/24 A2993 RMK 8/100
KGRI 031953Z 32015G22KT 1/2SM R35/3000V3500FT SN FZFG BKN011 BKN018 OVC023 M03/M05 A2961 RMK AO2 SLP050 P0001 T10281050
KLCK 031955Z AUTO 18010KT 10SM SCT110 16/15 A2971 RMK AO2 T01570145
KTVC 031953Z 07007KT 10SM OVC035 04/00 A2970 RMK AO2 SLP063 T00440000
KCOM 030515Z AUTO 26005KT 7SM SCT065 13/M02 A2984 RMK AO2
MYSM 032000Z AUTO 08010KT 9999 SCT022/// BKN026/// 27/22 A3013
KSYF 031955Z AUTO 32012KT 10SM CLR M01/M04 A2978 RMK AO2 T10151045 PWINO
KCKF 031955Z AUTO 19007G15KT 10SM BKN033 OVC040 25/17 A3002 RMK AO2 LTG DSNT W T02530169
SKRH 031900Z 09010KT 9999 FEW015 31/22 Q1012 RMK A2989
FMCH 031700Z VRB03KT 9999 FEW020 27/23 Q1014 NOSIG
KATY 031953Z AUTO 36015KT 3SM -SN BR BKN048 OVC060 M05/M07 A2967 RMK AO2 SLP073 P0000 T10501067
ZSNJ 032000Z 00000MPS 6000 NSC M04/M04 Q1031 NOSIG
KMDT 032008Z 13005KT 1 1/2SM BR OVC007 10/09 A2983 RMK AO2 T01000094
VAPR 031600Z 02008KT 6000 NSC 17/09 Q1019 NOSIG
SADM 031638Z 25014G26KT CAVOK 31/12 Q1008
KPRC 032000Z 23010KT 10SM FEW020 SCT029 OVC041 03/01 A3004 RMK AO2 T00330011
MYGF 032000Z 14011KT 9999 BKN020 27/20 A3012
OEWD 032000Z 12008KT CAVOK 16/10 Q1023
KIML 031953Z AUTO 33015KT 9SM -SN OVC070 M02/M06 A2978 RMK AO2 SNB40 SLP113 P0000 T10221056
LGBL 031950Z 27004KT CAVOK 06/04 Q1026
YANG 032000Z AUTO 14016G31KT 9999 // NCD 30/08 Q1005
CYHE 032008Z AUTO 10008KT 9SM -SN BKN048 BKN055 OVC069 01/M02 A2991 RMK SLP132
KSUW 031955Z AUTO 06012G19KT 10SM OVC008 M01/M03 A2978 RMK AO2 T10101026
UIAA 032000Z 00000MPS 9000 NSC M31/M34 Q1023 R29/410160 NOSIG RMK QFE708/0944
ENTC 031950Z 07002KT 9999 FEW038 M02/M05 Q1020 NOSIG RMK WIND 2600FT 34023KT
RJAF 030900Z 33008KT 9999 FEW060 00/M05 Q1016
OMAL 032000Z 08009KT CAVOK 20/09 Q1023 NOSIG
NZOH 032000Z 11014KT 30KM FEW035 SCT200 20/14 Q1016 RMK VATSIM USE ONLY
KFMM 031955Z AUTO 28006KT 10SM CLR M06/M07 A2979 RMK AO2
CYXU 032003Z 07012KT 3SM -RA BR OVC006 04/04 A2969 RMK ST8 SLP064
KUOX 031955Z AUTO 19007G14KT 160V230 10SM 20/17 A2978 RMK AO2
KPWK 031952Z 02004KT 1 1/2SM OVC003 06/05 A2957 RMK AO2 SFC VIS 9 RAB1854E07 SLP017 P0000 T00560050
NZGS 032000Z 07010KT 040V130 18KM -RA FEW027 SCT046 BKN060 19/15 Q1021 RMK AUTO
KCEZ 032006Z AUTO 20009KT 1SM -SN BR BKN013 BKN019 OVC026 M01/M03 A2990 RMK AO2 P0000 T10111033
YTMO 032000Z AUTO 00000KT 9999 // NCD 26/23 Q1004
MMBT 031940Z 25010KT 10SM BKN220 29/20 A2995 RMK 8/006
YJAB 032007Z AUTO 34004KT 9999 -SHRA BKN019 BKN045 BKN071 26/25 Q1003
KAJR 031955Z AUTO 15006KT M1/4SM RA OVC002 17/17 A2999 RMK AO2 T01650165
SKMD 031900Z 35005KT 9999 VCSH SCT030TCU SCT100 23/15 Q1020 RMK TCUVCSH/NE/SE/NW A3013
EPGD 032000Z 28010KT 9999 -SHRA FEW012 BKN015TCU 03/02 Q1024
YNTN 032007Z AUTO 33008KT 9999 RA SCT020 SCT033 BKN052 24/24 Q1003
EFKU 031950Z AUTO 03003KT 360V060 9999 -SHSN OVC008 M08/M09 Q1014
KTWM 031955Z AUTO 06006KT 10SM OVC006 M04/M05 A2977 RMK AO2
LEEC 031400Z 04007KT 010V080 9999 FEW018 16/12 Q1029
KCNW 031955Z 23011G15KT 10SM SKC 22/M02 A2984
KFWN 031953Z AUTO 19003KT 7SM OVC006 07/06 A2983 RMK AO2 SLP102 T00670061
SBME 032000Z 05011KT 9999 FEW020 32/23 Q1007
KHND 031956Z 25004KT 10SM OVC050 11/02 A3004 RMK AO2 SLP193 T01110022
SKCC 032000Z 29004KT 9999 SCT018 SCT080 29/20 Q1014 RMK A2994
LIEE 031950Z 34006KT 8000 NSC 11/10 Q1029
KHOB 031950Z 25013KT 10SM SKC 11/M06 A2988
VOTV 032000Z VRB02KT 2500 BR FEW015 25/23 Q1013 NOSIG
EGHE 031520Z 23030KT 2000 -RADZ BKN006 12/12 Q1013
OERR 032000Z 07022KT 8000 RA BKN030 07/07 Q1020 NOSIG
KJMR 031955Z AUTO 00000KT 1/2SM SN OVC006 M03/M05 A2976 RMK AO2
KMKN 031955Z AUTO 25011G18KT 10SM CLR 18/M01 A2986 RMK AO2 T01781007
KLTS 031955Z AUTO 34009KT 10SM OVC170 11/M03 A2980 RMK AO2 SLP089 T01061028 $
WAAA 032000Z VRB02KT 7000 -RA FEW017CB SCT018 26/25 Q1008 TEMPO TL2100 3000 TSRA RMK CB IN APCH
KLDJ 031955Z AUTO 21003KT 5SM BR OVC005 12/11 A2986 RMK AO2 T01160106
LFOE 032000Z AUTO 21017KT 9999 -DZ SCT018 BKN033 BKN048 10/08 Q1024 TEMPO 20015G30KT 4000 -RA
YPLC 261230Z AUTO 00000KT 9999 // ////// 21/13 Q1012
EHRD 031955Z AUTO 19017G27KT 140V220 9999 FEW015 09/07 Q1020 NOSIG
SPTN 032000Z 21012KT 9999 FEW040 24/14 Q1013 RMK PP000
SVMT 031903Z AUTO 07010KT NCD 31/26 Q1012
SBGO 032000Z 09003KT 9999 -TSRA FEW030 FEW040CB BKN100 23/21 Q1012
KASN 031955Z AUTO 20003KT 10SM -TSRA BKN100 OVC120 21/19 A2991 RMK AO2 LTG DSNT ALQDS T02050187
YHID 032000Z AUTO 22002KT 9999 -SHRA BKN018 BKN029 26/25 Q1006
LEAM 032000Z 04006KT CAVOK 15/09 Q1029
KSPA 031955Z AUTO 21004KT 4SM BR OVC007 16/16 A3002 RMK AO2
PABL 031956Z AUTO 13004KT 10SM CLR M17/M19 A2937 RMK AO2 SLP947 T11721189 FZRANO $
OISF 032000Z 00000KT CAVOK 05/01 Q1028 A3037
LFLN 032000Z AUTO VRB01KT 0350 0300 R33/0400N FG VV/// 04/03 Q1032 TEMPO 0800 FG
RJDM 230714Z 27013G23KT 5000 -SHSN FEW010 SCT030 BKN035 01/M02 Q1010 RMK 1CU010 3CU030 6CU035 A2983
KCNB 031955Z AUTO 33013G18KT 300V360 1SM -SN OVC007 M07/M09 A2967 RMK AO2 T10701086
MGRT 032000Z 00000KT 9999 SCT020 SCT200 32/20 Q1014 A2994 VOL. SANTA MARIA Y SANTIAGUITO EN ACTIVIDAD
KLAS 031956Z 00000KT 10SM SCT050 BKN080 BKN200 09/02 A3003 RMK AO2 SLP171 T00940022
KPOE 031955Z AUTO 27009KT 10SM FEW021 SCT039 SCT048 25/19 A2977 RMK AO2 LTG DSNT NE SLP081 T02450191
YAYE 032000Z AUTO 14015KT 9999 // SCT095 28/05 Q1007
CYIK 032000Z 13006KT 8SM -SN FEW025 SCT034 SCT041 BKN055 BKN070 M16/M19 A2938 RMK SC2SC1SC1SC1AS2 LAST STFD OB/NEXT 041300UTC SLP955
KAFF 031955Z 16008KT 10SM BKN015 M02/M06 A2968 RMK AO2A SLP089 T10181060
KAFJ 031956Z AUTO 21008KT 10SM -RA FEW014 OVC095 16/14 A2979 RMK AO2 SLP084 P0002 T01560144
KAFW 031953Z 28015KT 10SM FEW100 BKN200 BKN270 18/M03 A2981 RMK AO2 SLP090 T01831028
KAFK 031955Z AUTO 28011KT 2SM BR OVC006 01/01 A2952 RMK AO2 T00110007
KAFO 031955Z AUTO 00000KT 5SM UP OVC032 M03/M08 A2982 RMK AO2
KAFP 031955Z AUTO 21009G14KT 170V230 10SM CLR 23/13 A3003 RMK AO2 T02310131
KAFN 031952Z AUTO VRB03KT 3SM -RA BR OVC002 02/01 A2987 RMK AO2 SLP131 P0005 T00170006
CYQI 032000Z 20007KT 15SM BKN014 OVC039 07/05 A3006 RMK SC5SC3 SLP182
KPAO 031936Z 36005KT 10SM FEW010 BKN050 11/08 A3001
SPAY 202100Z 22003KT 180V270 9999 SCT020 BKN120 28/24 Q1009 RMK BIRD HAZARD RWY 04/22 PP000
HUTO 031100Z 24008KT 9000 RA BKN016 FEW 018CB 22/18 Q1019
KRID 031955Z AUTO 22008KT 10SM OVC012 15/15 A2967 RMK AO2 P0001
YLTV 032000Z AUTO 28008KT //// // OVC055 14/08 Q1008
KHKA 031953Z AUTO 21015G20KT 10SM OVC013 19/16 A2969 RMK AO2 SLP051 T01890161
SBTU 140700Z AUTO 19007KT 9999 FEW031 23/22 Q1012
OIMJ 032000Z AUTO VRB02KT //// // ////// M06/M13 Q1030
GMMI 032000Z AUTO 09004KT 6000 NSC 16/09 Q1026 NOSIG
KFNB 032005Z AUTO 26011KT 5SM -RA BR BKN008 OVC013 03/01 A2955 RMK AO2 RAB05 P0000 T00280011
KSEM 031955Z AUTO 32008KT 10SM VCTS FEW017 SCT032 OVC041 21/21 A2989 RMK AO2
CYVQ 032000Z 09003KT 30SM FEW020 FEW060 SCT210 M18/M20 A2958 RMK SC1SC1CI1 SLP026
LPPT 032000Z 33008KT CAVOK 11/07 Q1032
KAQW 031952Z AUTO 10007KT 5SM -RA BR OVC019 07/06 A2982 RMK AO2 SLP105 P0003 T00720056
AGGH 032000Z 00000KT 9999 FEW005 FEW015CB SCT025 BKN100 24/24 Q1008
FNCA 031900Z 18005KT 9000 FEW015 BKN050 24/23 Q1011
YWBL 032000Z AUTO 19014KT 9999 // BKN047 OVC052 14/06 Q1012
SCGZ 032000Z 24020G34KT 9999 FEW036 SCT042 10/00 Q0996
WIPP 032000Z AUTO 29007KT 9999NDV SCT170 BKN200 23/23 Q1010
KFAY 031953Z 19008KT 10SM CLR 22/15 A3003 RMK AO2 SLP164 T02220150 $
SPZA 291200Z 00000KT 9000 SCT080 19/15 Q1015 RMK TX/// TN/// PP000
VOBZ 031630Z 00000KT 3500 BR FEW020 SCT100 23/21 Q1016 NOSIG
GEML 112330Z AUTO 28008KT 240V320 9999 FEW024 16/12 Q1027
RJFM 112300Z 30007KT 9999 FEW040 07/06 Q1026
YYRM 112330Z AUTO 20004KT 170V230 //// // ////// 21/16 Q1014
SAEZ 112300Z 18004KT 140V220 9999 FEW050TCU 24/18 Q1009 NOSIG RMK PP000
CYQH 112300Z 18003KT 120V200 20SM OVC045 M11/M12 A2983 RMK SC8 SLP157
LFRS 112330Z AUTO 25011KT 9999 BKN026 BKN033 OVC200 11/09 Q1023 TEMPO 24020G30KT 4500 -RADZ
CYUB 112333Z 10010KT 1 1/2SM BR BKN130 M28/M31 A3032 RMK AC7 SLP270
SAAV 011420Z 27015G30KT 7000 TSRA BKN030 FEW045CB OVC100 25/21 Q1008 RMK CB OBS TO VERT PP///
DXSK 112100Z 00000KT 4000 HZ NSC 25/10 Q////
LTAC 112320Z VRB03KT 9999 SCT040 BKN180 03/M01 Q1018 NOSIG RMK RWY21L 02008KT RWY03L 02004KT RWY21R 03008KT
KAID 112055Z 18006KT 4SM BR OVC005 08/06 A2980
EGHE 111620Z 25026G36KT 7000 FEW023 12/09 Q1013
ENNO 111720Z 11008KT 9999 BKN025 05/02 Q0991
CYFR 112300Z 11005KT 15SM -SHGS OVC042 M11/M13 A3015 RMK SC8 LAST STFD OBS/NEXT121500Z SLP227
YGLS 112330Z AUTO 08008KT 9999 // NCD 33/16 Q1012
EKEB 112350Z AUTO 17012KT 9999 BKN009/// 06/05 Q0998
RJCC 112330Z 17003KT 9999 FEW020 M06/M07 Q1018 RMK 1CU020 A3008
KESC 112356Z AUTO 00000KT 3/4SM -RA BR FEW005 OVC055 01/01 A2983 RMK AO2 UPB33E44 SLP111 P0000 6//// T00110011 10033 20011 51011 FZRANO
SBGL 112300Z 34002KT 9999 FEW015 OVC100 24/23 Q1012
LKVO 111300Z 22005KT 9999 -DZ SCT014 BKN027 08/05 Q1014
KTIP 112335Z AUTO 00000KT 4SM BR SCT020 08/08 A2979 RMK AO2 T00820079
KDHT 112353Z AUTO 34024G35KT 10SM CLR 08/M02 A2987 RMK AO2 PK WND 35038/2341 SLP103 T00831017 10156 20083 53057
MMSL 112241Z 16005KT 10SM SKC 26/06 A3001
MMLT 112243Z 03022KT 9SM BKN200 23/11 A3000 RMK 8/001 HZY
KLUM 112355Z AUTO 00000KT 4SM BKN011 OVC020 02/02 A2987 RMK AO2 T00150015 10015 20004 PWINO
LFRN 112330Z AUTO 22011KT 9999 FEW024 BKN046 11/08 Q1020 TEMPO 4000 RADZ BKN012 BECMG 23015G25KT
KEST 112352Z AUTO 34014KT 1 1/2SM BR OVC003 M04/M06 A2992 RMK AO2 SLP153 I1002 I6003 T10441056 11017 21044 51033 TSNO
YANG 112330Z AUTO 11009KT 9999 // NCD 32/M02 Q1013
KHZE 112355Z AUTO 31006KT 6SM -SN OVC012 M10/M11 A3018 RMK AO2
KPUJ 112355Z AUTO 16003KT 10SM OVC039 A3002 RMK AO2
KOWX 112335Z AUTO 17007KT 10SM OVC011 07/05 A2985 RMK AO1
KMCC 112355Z AUTO 15016G24KT 8SM -RA OVC035 11/09 A3011 RMK AO2
KGKY 112353Z 16013KT 10SM CLR 24/15 A2969 RMK AO2 SLP046 T02440150 10294 20244 56012
VAJB 111430Z 14006KT 4000 HZ NSC 15/11 Q1015 NOSIG
KLAL 112350Z 00000KT 10SM SKC 17/07 A3015
KDPL 112335Z AUTO 15006KT 10SM BKN095 12/06 A3014 RMK AO2
KWST 111453Z AUTO 36008KT 10SM CLR 01/M07 A3027 RMK AO2 SLP251 T00061067 51019
LTBO 111350Z 20007KT 180V250 7000 -SHRA FEW015 BKN030 BKN090 06/06 Q1015
KRSL 112353Z AUTO 02017G26KT 10SM OVC100 07/M02 A2977 RMK AO2 PK WND 02028/2337 SLP093 T00671017 10083 20033 53029
KCGI 112353Z AUTO 18008KT 10SM OVC026 17/13 A2978 RMK AO2 SLP084 T01670133 10183 20156 53004
KMKO 112353Z AUTO 19005KT 10SM CLR 17/04 A2967 RMK AO2 SLP046 T01670039 10211 20167 55007
ZBYN 112330Z 10003MPS 050V120 8000 NSC 03/M09 Q1010 NOSIG
EETU 112350Z AUTO 17013KT 9999 OVC009/// M01/M03 Q1011
KRRT 112355Z AUTO 30009KT 7SM -SN BKN013 M06/M08 A2999 RMK AO2
KMDW 112253Z 18004KT 9SM BKN026 OVC034 10/05 A2975 RMK AO2 SLP080 T01000050
KASN 112355Z AUTO 00000KT 10SM BKN040 17/14 A2999 RMK AO2 T01660142 10190 20162
LIEA 112350Z AUTO 31010KT 280V340 9999 BKN031/// 15/10 Q1021
KATL 112352Z 00000KT 10SM FEW030 BKN045 BKN250 17/13 A3003 RMK AO2 SLP169 T01720133 10189 20172 50009
PALH 112353Z AUTO 03004KT 10SM CLR M03/M07 A2966 RMK AO2 SLP044 60000 T10281072 11022 21033 53014 TSNO
KGVT 112335Z AUTO 17014KT 10SM CLR 22/15 A2971 RMK AO2 TSNO T02250150
SLAL 112300Z 01012KT 9999 TS SCT020 FEW030CB 15/03 Q1028
KHRI 112353Z AUTO 04007KT 10SM CLR 07/04 A3001 RMK AO2 SLP164 T00670039 10089 20028 56007
GAMB 112300Z 02006KT CAVOK 21/03 Q1016
KDLF 112355Z AUTO 11003KT 10SM CLR 27/06 A2983 RMK AO2 SLP094 T02660061 10291 20210 55002 $
KBGR 112353Z 00000KT 10SM FEW250 M09/M14 A3036 RMK AO2 SLP287 60000 T10941139 11039 21111 52004
KGAG 112353Z AUTO 29020G32KT 6SM HZ OVC025 12/M01 A2969 RMK AO2 PK WND 30042/2257 SLP052 T01221006 10228 20122 51033
CZUM 112300Z AUTO 30014G19KT 7SM -SN OVC030 M20/M23 A3001 RMK SLP216
KCRP 112351Z 16022KT 10SM FEW055 FEW250 23/18 A2987 RMK AO2 PK WND 16030/2317 SLP112 T02330183 10300 20233 50001 $
YTEF 112330Z AUTO /////KT //// // NCD 36/M02 Q1008
KGNC 112330Z AUTO 31020G27KT 10SM CLR 19/M08 A2996 RMK AO2 T01891085
KTVC 112353Z 00000KT 5SM BR BKN044 BKN120 OVC140 04/02 A2981 RMK AO2 SLP100 60001 T00390017 10044 20033 50008
LPOV 111800Z 34008KT CAVOK 13/08 Q1032
PAUT 112335Z AUTO 29007KT 10SM SCT033 BKN040 00/M03 A2963 RMK AO2
KLAW 112353Z 27012G20KT 9SM BKN032 22/M05 A2967 RMK AO2 PK WND 27033/2300 SLP042 T02171050 10256 20172 53003
URKK 112330Z 06002MPS CAVOK M05/M07 Q1026 R05R/CLRD70 NOSIG RMK QFE766
EKVJ 111450Z 22011KT 9999 FEW022TCU 08/05 Q1002
CYEV 112300Z 07008KT 15SM FEW020 BKN110 M23/M26 A3022 RMK SC1AC6 SLP248
KTRK 112350Z 00000KT 2SM -SN BKN009 OVC019 00/00 A3011
EGXW 112320Z AUTO 21018KT 9999 -RA SCT008/// SCT017/// OVC031/// 08/07 Q0999
YABA 112330Z AUTO 17002KT 9999 // NCD 18/16 Q1016
ENVR 111450Z 11028T CAVOK 03/M01 Q0981
CYWG 112300Z 34012KT 15SM FEW015 OVC050 OVC100 M08/M10 A3006 RMK SC2SC6AC1 AC TR INTMT-SN SLP201
YPJT 112330Z AUTO 12007KT 9999 // NCD 21/11 Q1014
KCCB 112355Z AUTO 27005KT 10SM CLR 13/05 A3021 RMK AO2
KJAS 112335Z AUTO 17006KT 9SM CLR 22/20 A2986 RMK AO2
KOBE 112335Z AUTO 00000KT 10SM CLR 15/08 A3014 RMK AO2
MYSM 112300Z AUTO 03005KT CAVOK 22/17 A3012
KSRE 112355Z AUTO 22004KT 10SM CLR 19/M02 A2964 RMK AO2
LQMO 112330Z VRB02KT CAVOK 03/M00 Q1018
KCDR 112353Z AUTO 26004KT 10SM BKN013 OVC100 00/M02 A3007 RMK AO2 SLP224 60003 T00001017 10011 21006 51041
YGLA 112330Z AUTO 14007KT 9999 -SHRA SCT052 BKN100 OVC120 25/19 Q1014
LICB 112350Z AUTO 07003KT 030V100 9999 NCD 03/02 Q1021
EFHK 112350Z 18016KT 6000 -RASN BKN004 BKN005 01/00 Q1005 TEMPO 3000
CYVL 112300Z AUTO 09007KT 9SM SCT100 BKN220 BKN240 M24/M26 A3014 RMK SLP250
LFBA 112330Z AUTO VRB02KT CAVOK 07/06 Q1030
LIPA 112055Z 02004KT 9999 SCT100 06/05 Q1019 RMK SCT VIS MIN 9999 WIND THR05 /////KT WIND THR23 /////KT A3011 BLU
RJSU 110227Z 30003G15KT 9999 FEW020 SCT050 08/M02 Q1023 RMK 1CU020 4SC050 A3021
KTSP 112355Z AUTO 31006KT 10SM OVC033 08/01 A3023 RMK AO2
KBTL 112353Z 14009KT 9SM OVC017 07/04 A2979 RMK AO2 SLP094 T00720039 10100 20067 51002
LRIA 112330Z 11011KT 7000 BKN003 OVC010 M04/M04 Q1024
ROAH 112330Z 11012KT 9999 FEW030 21/14 Q1020 RMK 1CU030 A3014
KESN 112345Z 10005KT 10SM CLR 05/00 A3025
KTYR 112353Z 19012KT 10SM CLR 22/16 A2977 RMK AO2 SLP075 T02220156 10261 20222 57009
KHAI 112355Z AUTO 14004KT 5SM BR OVC010 06/06 A2980 RMK AO2 T00630057 10100 20063
OBBI 112330Z 29010KT CAVOK 15/10 Q1022 NOSIG
KGWB 112355Z AUTO 00000KT 7SM OVC016 07/06 A2981 RMK AO2
KFSK 112335Z AUTO 03005KT 10SM CLR 13/03 A2969 RMK AO2 T01250034
FZQA 291100Z 11004KT 9999 SCT020 BKN100 22/19 Q1016 NOSIG
OIMT 112300Z AUTO 34004KT //// // ////// M02/M07 Q1031
SLRY 112000Z 36006KT 9999 BKN017 32/25 Q1007
MGGT 112300Z 03014KT 9999 SCT017 SCT080 18/14 Q1022 A3018 FEW200
SLVR 112300Z 35012KT 9999 FEW017 SCT080 BKN200 27/23 Q1007
GCXO 112330Z AUTO VRB04KT 5000 2400SE -RA BR SCT012 BKN017 BKN027 14/13 Q1030
KBNL 112355Z AUTO 16004KT 10SM FEW043 FEW055 16/07 A3009 RMK AO2
KRNC 112355Z AUTO VRB05G11KT 10SM OVC029 15/12 A2992 RMK A01
HUAR 071100Z 09004KT 9999 BKN022 FEW024CB 27/17 Q1014
KSLK 112351Z AUTO 06006KT 10SM BKN120 M07/M11 A3012 RMK AO2 SLP238 T10721106 11039 21072 51009
SESA 112300Z 21011KT 9999 SCT050 26/21 Q1012 RMK A2988
KBIS 112352Z 34012KT 9SM OVC012 M08/M11 A3014 RMK AO2 SLP237 60000 T10781111 11056 21078 51034
YPTN 112330Z AUTO 31007KT 9999 // BKN017 OVC022 28/24 Q1010
EDDB 112350Z AUTO 22013KT CAVOK 06/04 Q1012 NOSIG
LEAB 112330Z 30005KT 8000 NSC 04/04 Q1031 NOSIG
SBJU 112300Z 00000KT 9999 SCT022 30/22 Q1015
PANA 112356Z AUTO 14003KT 9SM -SN OVC006 M08/M08 A2959 RMK AO2 SNB51 SLP019 P0000 60000 T10781083 11078 21089 51012 FZRANO TSNO $
KFNB 112353Z AUTO 35011KT 9SM CLR 03/M01 A2985 RMK AO2 SLP116 T00281006 10083 20028 53037
LSZR 112350Z AUTO VRB01KT 9999 NCD 05/03 Q1024
KUNI 112335Z AUTO 00000KT 7SM SCT006 SCT009 OVC019 A2990 RMK AO2
CYQW 112314Z AUTO 11004KT 9SM OVC009 M11/M13 A3017 RMK SLP261
GQNI 240900Z 04008KT 8000 NSC 21/08 Q1020
OEKM 112300Z 00000KT 9999 FEW022 13/09 Q1025 NOSIG
MMML 112251Z 27003KT 10SM OVC200 20/M01 A3018 RMK 8/007 BINOVC
NVVW 112200Z AUTO 32004KT //// // NCD 30/24 Q1010
LFOH 112330Z AUTO 22020KT 9999 OVC024 11/07 Q1015
KPAM 112355Z 22007KT 10SM -RA FEW002 FEW012 SCT020 BKN026 OVC039 19/18 A3007 RMK AO2A DZB12E17RAB17 SLP186 P0016 60027 T01920179 10235 20192 52008 $
KFME 112338Z AUTO 10004KT 10SM SCT120 02/M01 A3021 RMK AO1
EDHI 112350Z AUTO 21015KT 9999 // FEW015/// BKN017/// OVC022/// 07/06 Q1005
LROP 112330Z 06012KT 6000 -FZRA OVC005 00/00 Q1022 NOSIG
YPWR 112330Z AUTO 11012KT 9999 // NCD 32/10 Q1012
KSAF 112353Z 28015KT 10SM CLR 04/M10 A3005 RMK AO2 PK WND 30030/2321 SLP156 T00441100 10067 20044 53022
KBNW 112335Z AUTO 34012KT 1/4SM FZFG OVC002 M02/M01 A2986 RMK AO2
EHHW 112325Z AUTO 25035KT 9999 FEW021/// SCT030/// BKN035/// 09/03 Q1002
KCHK 112335Z AUTO 22013G22KT 10SM BKN050 BKN060 19/00 A2962 RMK AO2 T01901005
SAAG 231025Z 11010KT 3000 +TSRA SCT015 OVC045 FEW050CB CB TO OBS S 20/20 Q1012
KECS 112335Z AUTO 31007KT 10SM CLR 01/M05 A3004 RMK AO2
LOWI 112350Z AUTO 27004KT 9999 -RA FEW026 BKN028 02/02 Q1023
EDDS 112350Z AUTO 20005KT 9999 FEW034 05/02 Q1020
OPFA 112155Z 05004KT 0800 FG SCT100 12/11 Q1014 NOSIG
KGTU 112356Z 18012KT 10SM CLR 23/15 A2984 RMK AO2 SLP101 T02280150 10256 20222 51004
KOKK 112356Z AUTO 18006KT 1 1/4SM BR OVC002 A2981 RMK AO2 SLPNO 6//// 53011 FZRANO PNO $
LESO 112330Z AUTO 18006KT CAVOK 09/08 Q1032
KPWT 112356Z AUTO 00000KT 10SM CLR 10/07 A2983 RMK AO2 SLP108 T01000067 10117 20083 56011
UWLL 112330Z 20006MPS CAVOK M18/M23 Q1045 R20/810250 NOSIG RMK QFE773/1031
KVPS 112355Z AUTO 24005KT 10SM SCT027 20/19 A3003 RMK AO2 SLP176 60000 T02030189 10240 20202 52007 $
KNTU 112356Z 11006KT 10SM BKN140 BKN280 08/04 A3019 RMK AO2 SLP224 T00780044 10100 20067 53003
KSUZ 112355Z AUTO 20005KT 10SM CLR 20/16 A2975 RMK A01
SCAS 112000Z 26010KT 9999 OVC036 15/10 Q1021
KBHK 112351Z AUTO 33007KT 1/2SM FZFG VV002 M04/M05 A3012 RMK AO2 SNB29E46 SLP242 P0000 60000 I1000 I6000 T10391050 11033 21044 51031
EHKD 112355Z AUTO 24016KT 9999 SCT021 SCT028 BKN032 09/06 Q1005 WHT
SEGU 112300Z 20008KT 9999 SCT023 BKN100 30/19 Q1010 NOSIG RMK A2983
AAXX 11124 78859 12480 60000 10239 20228 30173 40177 60113 86802 333 10280 20221 58014 85818
KBKX 112356Z AUTO 35014KT 4SM -SN BR OVC005 M06/M07 A2997 RMK AO2 SNB14 SLP195 P0000 60000 T10611072 11056 21067 53022 FZRANO
KBAM 112335Z AUTO 00000KT 10SM OVC090 05/M03 A3019 RMK AO1
LTBI 110612Z 06010KT 9999 -RA SCT035 BKN100 04/02 Q1016 NOSIG RMK RWY08 08012KT
MDAB 112100Z 00000KT 9999 SCT018 28/23 Q1015
KGLE 111755Z AUTO 23014KT 10SM CLR 26/M03 A2982 RMK AO2 6//// T02641032 PWINO
KPIA 112354Z 00000KT 10SM CLR 07/05 A2979 RMK AO2 SLP090 T00670050 10117 20067 53020
KEYE 112353Z AUTO 16003KT 1 1/4SM BR OVC002 09/09 A2980 RMK AO2 SLP095 T00940089 10094 20072 53003
KCNO 112353Z 27004KT 10SM BKN080 14/08 A3022 RMK AO2 SLP233 T01390078 10156 20094 55005
EGXS 112320Z AUTO 19014KT 9999 -RA OVC019/// 07/06 Q0999
KOYM 112355Z AUTO 13004KT 10SM BKN075 OVC090 02/M03 A3004 RMK AO2
LTCN 112250Z 07004KT CAVOK 00/M03 Q1025 NOSIG
SBUF 111900Z 18005KT 9999 SCT023 36/15 Q1011
SGCO 111200Z 36005KT CAVOK 28/21 Q1011
KDLH 112317Z 34005KT 3/4SM R09/P6000FT -SN BR BKN005 OVC024 M01/M02 A2985 RMK AO2 SFC VIS 2 P0000 T10111022
SBTT 112300Z 04003KT 010V070 9999 FEW025 BKN100 27/23 Q1009
LERI 111800Z 35012KT CAVOK 17/08 Q1026 NOSIG
NLWW 112330Z 03008KT 350V070 9999 FEW025 31/23 Q1011 NOSIG
YLST 112330Z AUTO 16008KT 9999 // NCD 28/09 Q1013
KFHR 112353Z AUTO 08007KT 10SM OVC100 11/03 A2983 RMK AO2 SLP100 T01110028 10122 20094 56012
MHCA 112300Z 08004KT 9999 SCT028TCU 26/20
UUDD 112330Z 19006MPS 9999 BKN040 M09/M14 Q1030 R14R/420242 NOSIG
PAEN 112353Z 05004KT 5SM BR OVC004 M03/M04 A2965 RMK AO2 SLP042 60001 T10281039 11017 21033 51017
CYRB 112300Z 36012KT 15SM IC SCT061 M38/M42 A2978 RMK SC4 SLP102
KCVS 112355Z AUTO 29022G29KT 10SM CLR 11/M11 A2990 RMK AO2 PK WND 26045/05 SLP112 T01071114 10150 20107 52021 $
KLLJ 112355Z AUTO 27004KT 10SM SCT055 M04/M07 A3014 RMK AO2 SLP248 T10441072 10000 21056 51023
WIDD 112330Z 00000KT 9999 FEW014 24/23 Q1012 NOSIG
KVTI 112355Z AUTO 34008KT 7SM CLR 02/00 A2983 RMK AO2 T00201001 10065 20020
ULOO 112300Z 16005MPS 130V200 9999 OVC011 M05/M07 Q1016 NOSIG RMK QFE758
FIMR 110900Z 10018KT 9999 SCT018 SCT050 29/20 Q1014
KSTP 112353Z 33008KT 4SM BR OVC010 01/M01 A2991 RMK AO2 SLP135 T00061011 10011 20006 51024
FIMP 112300Z 07007KT 9999 FEW018 SCT050 25/21 Q1014
WMKC 112300Z 00000KT 9999 FEW020 24/23 Q1010
KCKM 091655Z AUTO 00000KT 10SM OVC005 14/14 A3016 RMK A01
ENNA 112350Z AUTO 18020KT 9999 -SN VV009 M05/M07 Q0987 RMK WIND 1800FT 18031KT
KVOK 112355Z AUTO 34006KT 3/4SM R27/4000V4500FT BR VV001 00/M00 A2982 RMK AO2 SLP112 T00011002 10054 20001 52026
GCGM 120000Z AUTO VRB14G28KT 9999 FEW025 19/12 Q1027 RMK R09/VRB07KT ARP/VRB07G19KT
LICC 112350Z 21008KT CAVOK 09/05 Q1020
OIMJ 120000Z AUTO 04008KT //// // ////// M10/M18 Q1031
OIKK 112300Z 34010KT 9999 SCT035 BKN080 M03/M04 Q1027 A3033
ETNH 112320Z AUTO 19014G25KT 6000 // ////// 07/05 Q1002 ///
KGPZ 112356Z AUTO 33010KT 7SM OVC008 M01/M02 A2992 RMK AO2 SNE55 SLP151 P0000 60000 T10111022 11006 21011 53016 FZRANO
YARM 120000Z AUTO 26009KT 9999 // NCD 24/14 Q1019
KNMM 112356Z 16003KT 10SM FEW035 BKN250 20/16 A2995 RMK AO2 SLP149 T02000156 10244 20200 51008
KRPH 112355Z AUTO 26012KT 10SM CLR 25/M09 A2970 RMK AO2 T02511087 $
KHOU 112353Z 19014KT 10SM SCT025 SCT250 23/18 A2988 RMK AO2 PK WND 20027/2322 SLP122 T02330178 10278 20233 55011
KMSL 112353Z AUTO 14004KT 9SM BKN033 17/14 A2991 RMK AO2 SLP126 T01670139 10200 20161 53009
PAOM 120000Z 14011KT 3/4SM R28/2600VP6000FT -SN BR SCT008 OVC013 M08/M08 A2949 RMK AO2 SNB2358 P0000 T10781083
RJAH 120000Z 33003KT 9999 FEW030 SCT230 03/M03 Q1024
SCRM 120000Z 27015KT 0300 FG OVC003 01/01 Q0996 NOSIG
SCRD 112300Z 19010KT 150V210 CAVOK 19/07 Q1017
SCRG 120000Z 20007KT 9999 BKN100 BKN230 25/10 Q1017
EGUB 112350Z AUTO 20017G27KT 9999 -RA OVC015/// 10/08 Q1003
KSYF 112355Z AUTO 36015G19KT 10SM OVC008 00/M01 A2998 RMK AO2 T00021006 10035 20002 PWINO
LWSK 120000Z 00000KT 9999 BKN040 03/01 Q1020 NOSIG
KDHT 112353Z AUTO 34024G35KT 10SM CLR 08/M02 A2987 RMK AO2 PK WND 35038/2341 SLP103 T00831017 10156 20083 53057
DAAS 120000Z 04003KT CAVOK 04/02 Q1027
SVVG 112000Z /////KT 9999 SCT023 BKN010 30/24 Q1011
KTHV 112353Z AUTO 14004KT 10SM OVC110 04/M01 A3016 RMK AO2 SLP221 T00391011 10061 20039 51002
KGEY 112353Z AUTO 00000KT 10SM CLR 00/M04 A3009 RMK AO2 SLP231 T00001044 10017 21039 51031
YCCA 112330Z AUTO 07005KT 9999 // NCD 25/17 Q1016
VAPO 112130Z VRB02KT 5000 BR SKC 14/11 Q1015 BECMG 4000
KRMG 112353Z AUTO 00000KT 10SM OVC044 14/12 A2999 RMK AO2 SLP152 T01440122 10178 20144 51007
FEFF 080900Z 33004KT CAVOK 26/20 Q1014 NOSIG
DRZA 111800Z 12012KT CAVOK 21/M05 Q1019
KCIC 112347Z 13010KT 8SM BKN026 OVC031 10/08 A3015
RKSG 112355Z 13004KT 7SM CLR M00/M01 A3025 RMK AO2A SLP248 T10041010 11004 21027 50004 $
DAOL 120000Z 27004KT 9999 SCT020 12/10 Q1028
SKRH 120000Z 06010KT CAVOK 27/23 Q1012 RMK A2990
NSTU 112351Z 33009G16KT 12SM FEW023 FEW100 BKN200 31/25 A2984 RMK SLP107 8/171 T03070247 10307 20273 56019
KTKC 112355Z AUTO 33015G22KT 2 1/2SM OVC004 A2996 RMK AO2
HTMT 112200Z 03010KT 9999 FEW018 25/23 Q1012 NOSIG
HTMG 112200Z 00000KT 9999 FEW022 24/22 Q1014
HTMW 111500Z 30006KT 9999 FEW023 FEW024CB SCT090 24/18 Q1015 NOSIG
HTMP 111500Z 00000KT 9999 SCT020 FEW021CB 26/18 Q1016
HTMH 071700Z 00000KT CAVOK 26/16 Q1024
HTMU 112200Z 00000KT 9999 FEW020 FEW022CB BKN080 23/18 Q1018
HTMS 110600Z 17005KT 9999 SCT026 25/17 Q1018
RKTP 111209Z 02002KT 9000 BR FEW230 M03/M06 A3027
KHKS 112353Z 20004KT 10SM CLR 22/15 A2992 RMK AO2 SLP124 T02170150 10256 20217 53002
EGLL 112350Z AUTO 22018G29KT 9999 -RA SCT022/// SCT034/// //////TCU 10/08 Q1005 TEMPO RA BKN014
KIKG 112355Z AUTO 15009KT 10SM CLR 28/17 A2986 RMK AO2 T02770170 10316 20276
KWAL 112354Z 08006KT 10SM CLR 05/02 A3022 RMK AO2 SLP229 T00500017 10083 20044 51003
PFKT 112356Z AUTO 09008KT 6SM -SN BR FEW017 SCT030 OVC060 M08/M10 A2948 RMK AO2 SLP984 P0000 60000 T10831100 11083 21094 51010 FZRANO
SBRP 120000Z 10003KT CAVOK 22/21 Q1014
HTDA 112200Z 08003KT 9999 FEW011 27/24 Q1012 NOSIG
NIUE 120000Z 23009KT 190V270 9999 SCT018 BKN110 29/25 Q1010
RJTI 120000Z 32006KT 260V360 9999 FEW030 BKN/// 06/M04 Q1025
KMBG 112352Z AUTO 33010KT 8SM OVC005 M05/M07 A3007 RMK AO2 SLP213 T10501067 11028 21050 51034
KBAX 112355Z AUTO 15005KT 10SM OVC110 03/03 A2986 RMK AO2 T00300030 10036 20024
KIMT 120003Z AUTO 00000KT 1/4SM FG FEW004 BKN015 OVC070 00/00 A2980 RMK AO2 T00000000
LEVC 120000Z 29003KT 260V320 CAVOK 09/05 Q1029 NOSIG
KGMU 112353Z 33004KT 10SM OVC028 13/04 A3007 RMK AO2 SLP185 60000 T01280039 10144 20128 53008
CYUL 120000Z 05012KT 15SM SCT130 BKN170 OVC240 M09/M13 A3028 RMK AC3AC3CI2 SLP258
KLVL 112355Z AUTO 00000KT 10SM BKN090 OVC110 08/04 A3015 RMK AO1 T00830038 10106 20070
YGAY 120000Z AUTO 09007KT //// // ////// 26/17 Q1014
KAND 112356Z AUTO 00000KT 10SM OVC031 12/06 A3006 RMK AO2 SLP178 60001 T01220061 10150 20122 53006
KNUW 112353Z 10012KT 10SM FEW045 SCT085 BKN120 BKN220 12/02 A2985 RMK AO2 SLP108 T01220022 10139 20100 56017 VISNO $
KGTB 112355Z AUTO 11007KT 10SM SCT033 OVC080 M02/M10 A3010 RMK AO2 SLP206 T10241105 11009 21029 58004
KOXR 112351Z 20004KT 9SM CLR 14/12 A3021 RMK AO2 SLP230 T01390117 10161 20122 57006
KOTM 112353Z AUTO 32006KT 7SM CLR 02/01 A2983 RMK AO2 SLP107 T00220006 10078 20022 53026
KMFD 112352Z 15014G20KT 9SM -RA SCT018 OVC044 08/03 A2985 RMK AO2 RAB49 SLP117 P0000 60000 T00780033 10094 20072 50003
ZPPP 120000Z 21006MPS CAVOK 06/03 Q1018 NOSIG
MGPB 112300Z 36004KT 9999 FEW020 SCT090 26/22 Q1015 A2997
KEWK 112356Z AUTO 03009KT 10SM CLR 08/00 A2970 RMK AO2 SLP062 T00780000 10111 20072 53015
KSGH 112356Z AUTO 16007KT 1SM -RA OVC003 A2986 RMK AO2 RAE04B55UPB04E55 SLPNO P0000 60001 52010 $
CYYD 120000Z 15006KT 130V210 25SM BKN021 BKN050 01/M02 A2982 RMK SC6SC1 SLP120
PAGY 112353Z AUTO 00000KT 9SM OVC028 00/M04 A2978 RMK AO2 SNB28E49 SLP085 P0000 60000 T00001044 10006 21017 53006 TSNO
FNUG 031100Z 27006KT 9999 SCT020 BKN090 27/22 Q1014
DXSK 120000Z 00000KT 5000 HZ NSC 22/11 Q////
KGSO 112354Z 15003KT 10SM OVC042 12/04 A3007 RMK AO2 SLP186 T01170044 10139 20111 53008
LJMB 120000Z AUTO VRB01KT 9999 -SHRA NSC 03/01 Q1020
KELO 112355Z AUTO 30003KT 10SM BKN011 OVC015 M01/M01 A2987 RMK AO2
KAFP 112355Z AUTO 00000KT 10SM SCT047 OVC060 13/06 A3009 RMK AO2 T01300057 10166 20129
LEZL 120000Z 01006KT 9000 NSC 11/11 Q1029 NOSIG
NZWU 120000Z 18018G28KT 15KM BKN050 17/12 Q1009 RMK AUTO VATSIM USE ONLY
MUSC 112350Z 08003KT 9000 FEW035 20/16 Q1020
KJVY 112355Z AUTO 00000KT 5SM BR SCT021 BKN029 BKN036 10/10 A2985 RMK AO2
PASV 112355Z AUTO 19005KT 4SM -SN OVC017 M02/M03 A2955 RMK AO2 SNB2307 SLP030 P0000 60000 T10201027 11017 21022 51012
CYQH 120000Z 17004KT 20SM OVC048 M11/M12 A2983 RMK SC8 CLIMAT -10.7/-12.3/0.4 CM/0.2 MWE SLP159
VIGR 081800Z VRB01KT 0900 R24/1800 FG SKC 07/07 Q1020 BECMG 0800
KEAN 112350Z AUTO 08004KT 5SM -SN OVC006 00/M01 A3004 RMK AO2 T00001006 10020 20000
KRNP 112355Z AUTO 11009KT 7SM OVC070 05/01 A2983 RMK AO2 T00460012 10065 20035
MMMA 112340Z 15011KT 10SM SKC 24/20 A2992 RMK SLP132 57001 984
KOIN 112355Z AUTO 01012G20KT 10SM BKN060 OVC080 02/M01 A2998 RMK AO1 T00171015
NLWW 120000Z 02008KT 330V060 9999 FEW026 30/24 Q1011 TEMPO SHRA FEW020TCU
KLXT 112353Z AUTO 05006KT 10SM CLR 11/02 A2977 RMK AO2 SLP085 T01060017 10144 20100 53019
SVVL 112003Z AUTO 00000KT NCD ///// Q////
RKTU 120000Z 11002KT 9000 NSC M03/M05 Q1026
KJFZ 112355Z AUTO 21005KT 10SM OVC024 12/06 A3000 RMK AO2 T01150057 10125 20112
VAJJ 111230Z 32008KT 3000 FU NSC 25/16 Q1012 NOSIG
KLRU 112355Z AUTO 26020G26KT 10SM CLR 16/M06 A3008 RMK AO2 T01551059 10176 20141
KDZJ 280835Z AUTO 00000KT 7SM CLR M07/M07 A3024 RMK AO2 T10671074
CYYL 120000Z AUTO 31005KT 9SM OVC046 M08/M09 A3013 RMK SLP238
KESC 120004Z AUTO 00000KT 1SM -RA BR FEW005 SCT031 OVC060 01/01 A2983 RMK AO2 P0000 FZRANO
CYBQ 120000Z AUTO 01006KT 9SM -SN OVC015 M12/M13 A3013 RMK SLP235
KAVP 112354Z 00000KT 10SM FEW110 03/M03 A3014 RMK AO2 SLP212 T00281028 10056 20022 50001
NTAA 120000Z 07005KT 010V100 9999 VCSH BKN018 BKN053 26/23 Q1009 TEMPO 3000 SHRA FEW015CB SCT016 BKN040
KDAG 112350Z AUTO 07007KT 10SM CLR 12/03 A3023 RMK AO2 SLP234 T01220033 10128 20089 53008
LRSV 120000Z 13008KT 0300 R34/0400N FZFG VV001 M00/M00 Q1020
EDBC 112350Z AUTO 20014KT 9999 // SCT029/// BKN210/// 05/03 Q1012
EINN 120000Z 25020KT 9999 -RA FEW013 BKN040 BKN060 10/09 Q0998 NOSIG
KHSG 112350Z AUTO 00000KT M1/4SM FZFG OVC002 M08/M08 A3008 RMK AO2 T10761085 10012 21076
HSPN 090400Z 32006KT 9999 FEW030 18/15 Q1015
CYQZ 120006Z AUTO 00000KT 1 1/2SM BR FEW007 M04/M05 A2988 RMK SLP154
YBLT 120000Z AUTO 25006KT 9999 // NCD 21/14 Q1015
KNOW 112355Z AUTO 36004KT 10SM SCT120 08/07 A2979 RMK AO2 T00750071 10080 20065
SKUI 120000Z 13006KT 8000 SCT020 BKN080 24/23 Q1010 RMK HZ A2982
KEAR 112356Z AUTO 01017KT 10SM OVC090 01/M02 A2992 RMK AO2 SLP150 T00111017 10044 20011 51041 FZRANO
PAMB 112356Z AUTO 20003KT 5SM BR OVC026 M05/M06 A2962 RMK AO2 SLP034 T10501056 11050 21078 51006 FZRANO $
ENRS 112350Z AUTO 12008KT 9999 -RA OVC009 04/02 Q0976
GCHI 120000Z AUTO 03019KT 9999 SCT040 BKN048 BKN059 20/15 Q1028
PANW 120003Z AUTO 18004KT 3SM BR OVC003 M06/M06 A2962 RMK AO2 FZRANO
KHRX 112350Z AUTO 30020G28KT 10SM CLR 13/M11 A2984 RMK AO2 T01331106 10177 20133
KCKB 112353Z 15004KT 10SM -RA BKN023 OVC030 11/04 A2995 RMK AO2 RAB15 SLP144 P0000 60000 T01060039 10122 20089 53008
SPJR 112300Z 04005KT 7000 -RA SCT021 OVC047 12/11 Q1026 RMK PP060
LTAL 111250Z 34003KT 310V020 9999 SCT030 BKN100 03/M01 Q1018
KTBN 112355Z AUTO 00000KT 10SM CLR 14/06 A2973 RMK AO2 SLP069 T01410057 10197 20137 53007
KNXP 112356Z AUTO 04003KT 10SM CLR 15/01 A3029 RMK AO2 SLP239 T01500006 10156 20111 53005 $
LSZR 112350Z AUTO VRB01KT 9999 NCD 05/03 Q1024
KSVN 112355Z AUTO 15004KT 10SM SCT055 13/10 A3011 RMK AO2 SLP200 T01310099 10215 20130 52012 $
ZWSH 120000Z 33011G16MPS 9999 BKN040 M02/M30 Q1013 NOSIG
VTCH 120000Z 00000KT 0400 R11/1300D FG VV002 16/15 Q1013 BECMG FM0100 1500 BR
EGNR 112050Z 16007KT 9999 -SHRA SCT015 SCT043 08/06 Q1001
KSAZ 112355Z AUTO 32006KT 5SM BR OVC013 M01/M02 A2992 RMK AO2
KHAO 112353Z AUTO 00000KT 3SM BR FEW012 OVC047 08/07 A2986 RMK AO2 SLP114 60002 T00830072 10083 20078 51002
GMMX 120000Z 07005KT CAVOK 12/07 Q1027 NOSIG
PLCH 120000Z 10008KT 9999 FEW020 29/23 Q1008
KMRH 112358Z AUTO 06004KT 10SM CLR 09/05 A3017 RMK AO2 SLP217 I1000 I6/// T00940050 10150 20094 53003
YSHK 120000Z AUTO 18012KT //// // ////// 24/15 Q1012
EGPL 112350Z AUTO 29008KT 9999 SCT007/// 07/04 Q0988
LFOK 120000Z AUTO 22018KT 9999 BKN016 OVC130 ///// Q1020 TEMPO 4000 RA OVC013 BECMG 22020G30KT
KAPC 112354Z COR 09014G21KT 4SM RA BR BKN009 OVC020 12/09 A3007 RMK AO2 SLP172 P0008 60013 T01170094 10117 20106 53002
EGEO 111550Z 22015KT 9000 VCSH BKN016 06/03 Q0990
OIII 120000Z 18004KT 9999 FEW035 BKN100 M00/M05 Q1031 A3047 NOSIG
ENRM 112350Z AUTO 14010KT 100V170 9999 SCT074 07/M01 Q0976
KMSP 112353Z 33006KT 3SM BR OVC009 01/M02 A2991 RMK AO2 SFC VIS 3 SLP137 4/013 T00061017 10011 21006 51026
SBCY 120000Z 36003KT 9999 SCT020 FEW025TCU BKN100 23/22 Q1012
SAAJ 150425Z 18024KT 9999 TS BKN030 FEW050CB OVC050 23/15 Q1010 RERA
KBNA 112353Z 18006KT 10SM BKN030 16/12 A2991 RMK AO2 SLP125 T01610122 10189 20156 53018
KIDA 112353Z 22013KT 10SM BKN060 01/M03 A3020 RMK AO2 SLP246 T00061028 10011 20000 51031
SBSC 120000Z 01006KT 9999 SCT012 BKN025 23/22 Q1011
KDLF 112355Z AUTO 11003KT 10SM CLR 27/06 A2983 RMK AO2 SLP094 T02660061 10291 20210 55002 $
MROC 120000Z 10008KT 070V130 9999 FEW020 BKN060 22/16 A3007 NOSIG
HEBL 112300Z 00000KT CAVOK 13/07 Q1020 NOSIG
VIJU 081800Z 27003KT 0800 FG SCT100 SCT200 10/10 Q1020 NOSIG
CYTS 120000Z 13007KT 1 1/2SM -SN OVC012 M10/M12 A2997 RMK SC8 SLP177
LICJ 112350Z 17007KT CAVOK 11/06 Q1021
LFBA 120000Z AUTO 22006KT 180V250 CAVOK 08/07 Q1030
FDST 112300Z AUTO 32004KT //// // ////// 21/20 Q1018
LICD 112350Z AUTO 29011KT 9999 BKN051/// 16/11 Q1022
ZJSY 120000Z 06004MPS 9999 FEW011 BKN033 23/22 Q1013 NOSIG
FOON 111500Z 36003KT 280V040 9999 FEW013 28/23 Q1011
EDDH 112350Z AUTO 21018KT 9999 BKN018 BKN023 08/05 Q1005 RESHRA TEMPO 21020G30KT SHRA
SLTI 271300Z 00000KT 9999 NSC 28/26 Q1016
FNHU 111000Z 33006KT 9999 BKN012 OVC060 17/17 Q1023
ETHS 112320Z 21011KT 9999 -RA FEW022 BKN028 07/04 Q1007 BLACKBLU
KTOI 112353Z AUTO 19005KT 10SM BKN041 OVC050 23/15 A3002 RMK AO2 SLP163 T02280150 10261 20228 53006 TSNO
KAIO 112355Z AUTO 36009KT 5SM BR OVC005 M00/M00 A2987 RMK AO2
LFRL 120000Z AUTO 24021KT 9999 FEW013 BKN018 BKN024 12/09 Q1019
KBFR 112355Z AUTO 00000KT 1 1/4SM BR SCT020 OVC027 10/09 A2983 RMK AO2
KBRL 112353Z AUTO 33006KT 10SM CLR 06/01 A2980 RMK AO2 SLP094 T00610011 10117 20061 53024
PAOO 112356Z AUTO OVC014 M12/M14 A2960 RMK AO2 SLP031 T11221144 11106 21122 51014 PWINO FZRANO TSNO $
YSHT 120000Z AUTO 36002KT 9999 // NCD 31/13 Q1012
KSDY 112356Z AUTO 35010KT 6SM BR OVC005 M08/M08 A3019 RMK AO2 SLP262 60000 T10781083 11067 21078 51027 FZRANO
KSLN 112353Z 01009KT 10SM CLR 06/00 A2978 RMK AO2 SLP092 T00610000 10078 20033 53027
UEEE 120000Z 30004MPS CAVOK M32/M36 Q1023 R23L/490150 NOSIG RMK QFE758
KTOP 112353Z 35010KT 10SM CLR 08/01 A2980 RMK AO2 SLP095 T00780006 10117 20078 53028
KSYR 112354Z 08010KT 10SM OVC085 M01/M06 A3012 RMK AO2 SLP201 T10061061 10006 21006 55000
CYKD 120000Z 13003KT 15SM BKN011 OVC110 M24/M26 A3026 RMK SC7AC1 LAST STFD OBS/NXT 121400Z SLP249
KMOP 112355Z AUTO 00000KT 7SM OVC075 03/02 A2982 RMK AO2 T00270020 10045 20017
CXCK 120000Z AUTO 00000KT M23/M26 RMK AO1 SOG 37 3002 SLP136 T12311257
CXCA 120000Z AUTO 00000KT M01/M02 RMK AO1 1PAST HR SOG 29 3012 SLP123 P0000 T10121021 50004
CXCD 120000Z AUTO 08004KT M08/M08 RMK AO1 T10781084
CXCP 120000Z AUTO 09008KT M09/M10 RMK AO1 T10941102
CXCS 120000Z AUTO 20004KT M10/M12 RMK AO1 T11041118
DIAP 120000Z 27003KT 8000 NSC 27/27 Q1013 NOSIG
KCRE 112353Z 12005KT 10SM CLR 11/10 A3012 RMK AO1 SLP200 T01110100 10139 20106 50000
KHAE 112355Z AUTO 00000KT 10SM CLR 10/02 A2979 RMK AO2
ZGOW 120000Z 00000MPS 4000 BR BKN030 17/16 Q1017 NOSIG
KABR 112359Z AUTO 34010KT 7SM FEW009 OVC016 M04/M07 A3009 RMK AO2 T10441067 $
KJBR 112353Z AUTO 17007KT 10SM CLR 18/13 A2978 RMK AO2 SLP084 T01780133 10194 20172 55000 $
RKSD 090043Z 00000KT 9000 BR FEW030 BKN040 03/M02 A3021 RMK CIG040
SLRY 112000Z 36006KT 9999 BKN017 32/25 Q1007
MDPC 120000Z 00000KT 9999 SCT018 SCT300 25/21 Q1017
TNCE 112355Z AUTO 07008KT //// // ///////// 25/21 Q1017 RE//
KPQL 112353Z VRB06KT 10SM SCT006 BKN015 19/18 A3003 RMK AO2 SLP169 T01940178 10222 20189 51003
KJLN 112353Z VRB03KT 9SM BKN040 14/07 A2967 RMK AO2 SLP048 T01390072 10183 20133 55003
KDWH 112353Z 20011G22KT 10SM CLR 23/17 A2987 RMK AO2 SLP113 T02330172 10278 20233 55008
KASG 112348Z 14005G11KT 10SM CLR 17/09 A2969
VIJR 081800Z VRB02KT 6000 SCT250 13/03 Q1019 NOSIG
MSLP 112350Z 21003KT 9999 FEW040CB SCT077 27/22 Q1012 A2989 NOSIG RMK CB NE
MGGT 120000Z 02012KT 9999 FEW014 BKN080 18/14 Q1022 A3018
KSAT 112351Z 00000KT 10SM FEW250 25/16 A2986 RMK AO2 SLP097 T02500156 10261 20194 56005
KJOT 112355Z AUTO 00000KT 7SM SCT018 OVC028 10/07 A2979 RMK AO2 T01000073 10118 20100
ZJHK 120000Z 10002MPS 7000 FEW010 SCT033 21/21 Q1013 NOSIG
LFPM 120000Z AUTO 23018KT 9999 FEW015 BKN068 OVC130 09/07 Q1020
KPKV 112355Z AUTO 20017G23KT 10SM CLR 23/20 A2989 RMK AO2 T02280195 10271 20228
SAZN 112300Z 25007KT CAVOK 26/01 Q1012
KFLL 112353Z 04003KT 10SM FEW030 21/14 A3013 RMK AO2 SLP203 T02110144 10256 20211 53010
CYKY 120000Z 20004KT 1/4SM FZFG VV002 M11/M13 A3013 RMK FG8 SLP257
KINL 112354Z AUTO 29005KT 6SM BR SCT013 BKN026 OVC032 M02/M04 A2990 RMK AO2 SNE19B39E49 SLP142 P0000 60000 T10221039 11006 21022 51022
SBML 112200Z 18012KT 9999 SCT040 FEW043TCU 24/22 Q1014
ETSH 112320Z 20008KT 9999 FEW220 SCT260 06/04 Q1014 BLU+
KMOD 120004Z AUTO 14012G19KT 8SM -RA FEW010 BKN040 OVC049 10/09 A3015 RMK AO2 P0000 T01000089
YCMT 120000Z AUTO 07002KT 9999 -SHRA OVC006 22/21 Q1013
RCNN 120000Z 03005KT 2400 BR SCT008 BKN021 BKN060 18/17 Q1016 BECMG 3000 BR RMK A3003
KVTI 112355Z AUTO 34008KT 7SM CLR 02/00 A2983 RMK AO2 T00201001 10065 20020
KCKV 112352Z AUTO 16004KT 10SM SCT035 17/12 A2985 RMK AO2 SLP104 T01720117 10200 20172 51014
KADC 112357Z AUTO 31008KT 3SM BR OVC007 M04/M05 A2994 RMK AO2 TSNO
MMLM 112345Z 31018KT 10SM FEW220 23/08 A2999 RMK SLP156 8/001 HZY
SBNM 111700Z 23006KT 9999 SCT040 31/23 Q1011
KDED 112350Z AUTO 07003KT 10SM CLR 16/08 A3017 RMK AO2 T01580077 10233 20157 402330047
ESGP 112350Z AUTO 19016KT //// R01///// R19///// // FEW012/// BKN020/// OVC049/// 06/04 Q0998
KCGZ 112356Z AUTO 31004KT 10SM CLR 14/02 A3017 RMK AO2 SLP215 6//// T01440017 10167 20144 53001 $
KLBL 112356Z AUTO 30015KT 4SM HZ SCT015 BKN070 06/M01 A2971 RMK AO2 PK WND 30031/2303 SLP063 T00561011 10189 20056 51038
KMOT 112354Z 29011KT 8SM OVC012 M08/M11 A3014 RMK AO2 SNE03 SLP238 P0000 60000 T10781111 11072 21083 51031 $
KSCX 112355Z AUTO 20010KT 10SM BKN019 OVC034 12/10 A2995 RMK A01
KMSN 112353Z 35003KT 7SM FEW020 BKN250 03/00 A2980 RMK AO2 SLP100 T00280000 10078 20028 51022
UIBB 120000Z 21003MPS 190V250 9999 SCT047CB M30/M34 Q1029 R30/821045 NOSIG RMK QFE728/0971
KRNT 112353Z 12006G16KT 10SM SCT110 13/01 A2983 RMK AO2 SLP105 T01280006 10144 20100 56013
KLCG 112355Z AUTO 35020G26KT 7SM OVC006 M04/M05 A2996 RMK AO2 T10431055 11001 21045
SCGE 112300Z 19017KT CAVOK 23/04 Q1018
KSQI 112356Z AUTO 34003KT 4SM BR OVC018 06/06 A2980 RMK AO2 SLP958 T00610061 10094 20050 53020
KAAA 112355Z AUTO 00000KT 1 1/2SM BR VV007 06/06 A2978 RMK AO2 T00610061 10130 20061
ETHL 112320Z 23008KT 9999 FEW035 05/03 Q1021 BLU+
EGKA 111850Z 25012KT 9999 VCSH FEW005 SCT020 08/07 Q1011
SLOR 111800Z 22007KT 170V270 9999 FEW023 FEW025CB 21/03 Q1034
KACY 112354Z 06003KT 10SM CLR 02/M02 A3023 RMK AO2 SLP237 T00221022 10067 20022 55001
UTAK 120000Z 09017KT CAVOK M12/M18 Q1043 R16R/CLRD70 NOSIG
LPLA 120000Z /////KT 9999 FEW014 17/15 Q1029
GAMB 120000Z 02004KT CAVOK 19/01 Q1016
SBGR 120000Z 00000KT CAVOK 20/19 Q1015
KEGV 112355Z AUTO 29003KT 7SM OVC011 00/00 A2981 RMK AO2 T00010001 10005 20000
KISO 112356Z 16004KT 10SM CLR 12/05 A3014
YHAY 120000Z AUTO 30003KT //// // ////// 36/08 Q1012
KAEL 112355Z AUTO 31006KT 1/2SM FZFG OVC001 M04/M04 A2989 RMK AO2
KAEG 112347Z 29013G20KT 10SM SCT070 05/M10 A3012
KAEJ 112355Z AUTO 29010KT 10SM 00/M13 A3000 RMK AO2 T10051129 10036 21005
KAEX 112353Z 20015G22KT 10SM BR CLR 23/16 A2987 RMK AO2 SLP116 T02330161 10261 20233 56006
KFZY 112354Z AUTO 12005KT 10SM BKN060 OVC075 00/M05 A3010 RMK AO2 SLP199 T00001050 10000 21017 55002
EGUW 112350Z AUTO 21015KT 9999 -RA BKN018/// SCT041/// BKN052/// 09/07 Q1004
KMTC 112356Z 10008KT 10SM FEW080 BKN110 02/00 A2987 RMK AO2A SLP125 T00170001 10050 20015 52003 $
KMTP 112354Z AUTO 08004KT 04/M03 A3028 RMK AO1 SLP254 T00391028 10039 20028 51005
KMTO 112353Z AUTO 17006KT 7SM CLR 11/08 A2978 RMK AO2 SLP086 T01060083 10128 20089 53008
KMTJ 112353Z AUTO 31009KT 10SM BKN065 OVC090 03/M04 A3016 RMK AO2 SLP203 T00331044 10061 20017 53027
KMTV 112355Z AUTO 00000KT 10SM OVC050 08/01 A3012 RMK AO2 T00800011 10115 20073
KMTW 120007Z AUTO 34006KT 2SM BR OVC004 02/01 A2983 RMK AO2 FZRANO
KMTK 112355Z AUTO 22015KT 10SM CLR 22/19 A3006 RMK A01
KMTH 112353Z AUTO 01005KT 10SM CLR 19/12 A3013 RMK AO2 SLP201 T01890122 10233 20189 51010 $
KMTN 112353Z 11008KT 10SM OVC110 05/01 A3022
SBRJ 120000Z 35007KT 9000 FEW010 BKN020 OVC100 24/23 Q1011
SANL 092040Z 00000KT 9999 SCT040 37/09 Q1006
RJOW 120000Z 16009KT 9999 FEW030 08/05 Q1025
KRAP 112352Z 33007KT 10SM CLR M01/M03 A3006 RMK AO2 SLP217 T10111028 10033 21011 53037
KVTN 112352Z AUTO 35011KT 10SM CLR M01/M04 A3003 RMK AO2 SLP203 T10111039 10017 21022 51032
KRRL 112355Z AUTO 00000KT 5SM BR BKN010 BKN025 OVC060 01/01 A2981 RMK AO2 T00050005 10007 20002 TSNO
KTBR 112355Z AUTO 00000KT 10SM CLR 14/08 A3010 RMK AO2 T01370079 10208 20135
KTBN 112355Z AUTO 00000KT 10SM CLR 14/06 A2973 RMK AO2 SLP069 T01410057 10197 20137 53007
KTBX 112355Z AUTO CLR M03/M06 A3012 RMK AO2 PWINO
PAKK 070723Z AUTO 00000KT 10SM SCT004 BKN010 OVC016 M03/M04 A2942 RMK AO2 UPB10E22 CIG 008V012 P0000 FZRANO